code;name;address;lat;lng
CZ 01 ES;Schreiber Czech Republic s.r.o.;Konopišťská 905, 25601 Benešov;49.7807583;14.6759434
CZ 03 ES;MADETA a. s., závod Jindřichův Hradec;Jiráskovo předměstí 638/III, 377 01 Jindřichův Hradec;49.1329312;15.0137773
CZ 04 ES;Mlékárna Klatovy s.r.o.;Za Tratí 640, Klatovy IV, 33901 Klatovy;49.3876909;13.2889756
CZ 05 ES;Eligo a.s., odštěpný závod Brno;Hněvkovského 81, 61700 Brno;49.1668791;16.6297593
CZ 06 ES;ALL-IMPEX , a.s.;Dělnická 548, Pardubičky, 53003 Pardubice;50.0242742;15.8182928
CZ 07 ES;Mlékárna Hlinsko, a.s.;Kouty č. p. 53, 53901 Hlinsko;49.754915;15.8951588
CZ 08 ES;OLMA a.s.Olomouc;Pavelkova 597/18, Holice, 77900 Olomouc;49.5864891;17.297097
CZ 09 ES;Eligo a.s., odštěpný závod Kolín;Třídvorská ul. 712, 280 02 Kolín;50.0332925;15.2230133
CZ 10 ES;Eligo 10 s.r.o.;Revoluční 1489, 34901 Stříbro;49.7566733;12.9889379
CZ 10038 ES;POTRAVINY VYSOČINA s.r.o.;Český Dvůr 123, 58001 Knyk;49.6402449;15.5921662
CZ 10154 ES;MAKRO Cash & Carry ČR s.r.o.;Komerční zóna, Hradubická 181, 50332 Hradec Králové 22;50.2011555;15.837978
CZ 10168 ES;PEGG, spol. s r. o.;Zadní 487, Pouchov, 50341 Hradec Králové;50.2354478;15.8498369
CZ 10177 ES;Rybářství Chlumec nad Cidlinou, a.s.;Chlumec nad Cidlinou, 50351 Chlumec nad Cidlinou;50.163377;15.4574566
CZ 10365 ES;PRANTL Masný průmysl s.r.o.- reexpedice Ostrava;Proskovická 899/212, Stará Bělá, 72400 Ostrava;49.7641496;18.2059996
CZ 10366 ES;"JUNIOR WORLDCUP  ""94, spol. s r.o.";Na Desátém 2276/10, Moravská Ostrava, 70200 Ostrava;49.841148849999996;18.287307581228745
CZ 105 ES;MASO UZENINY PÍSEK, a.s.;Samoty 1533, Budějovické Předměstí, 39701 Písek;49.317844300000004;14.16014004672897
CZ 106 ES;JATKY Hradský, s.r.o.;Písecká 594, Strakonice I, 38601 Strakonice;49.2664603;13.917031
CZ 10615 ES;Kozí Farma Pěnčín, mlékárna;Pěnčín č. p. 60, 46821 Pěnčín;49.5671049;17.0094437
CZ 1066 ES;Lukáš Čadil;Radnická 32/1, 39001 Tábor;49.4140228;14.6572149
CZ 10665 ES;FOLDA, s.r.o.;Bělíkova 1446, 46401 Frýdlant v Čechách;50.9186363;15.0891853
CZ 10675 ES;F I N A L  s.r.o.;Příšovice č. p. 177, 46346 Příšovice;50.57814;15.0806788
CZ 10682 ES;RAVY CZ a.s.;Norská 580/40a, Liberec XI-Růžodol I, 46001 Liberec;50.7791295;15.0446219
CZ 10684 ES;Vladislav Ondřejík;Ves, 46373 Černousy;51.0160416;15.029379
CZ 107 ES;Vimperská masna, a.s.;Špidrova 84, Vimperk III, 38501 Vimperk;49.0525081;13.809173075250072
CZ 1070 ES;RABBIT Trhový Štěpánov a.s.;Biskupická 776, 56943 Jevíčko;49.6351538;16.7204487
CZ 1074 ES;Zeelandia spol. s r.o.;Malšice č. p. 267, 39175 Malšice;49.3617162;14.587398
CZ 1075 ES;Řeznictví a uzenářství Petr Slezák s.r.o.;Obránců míru 335, 56992 Bystré u Poličky;49.6295676;16.34071
CZ 108 ES;PRANTL Masný průmysl s.r.o.;Havlíčkovo náměstí 46, 39468 Žirovnice;49.2533447;15.1863982
CZ 1081 ES;Jatka Mlýny s.r.o.;Mlýny č. p. 12, 39201 Mlýny;49.7457338;14.6113763
CZ 1083 ES;Řeznictví Kosík;kat. č. 25/3, 391 75 Malšice - Dobřejice, okres Tábor;49.7439047;15.3381061
CZ 1088 ES;Mezinárodní testování drůbeže, státní podnik;Ústrašice č. p. 63, 39002 Ústrašice;49.3433583;14.6795793
CZ 1089 ES;PT servis konzervárna spol. s r.o.;Purkyňova 1000/4, 39002 Tábor;49.4118377;14.6774018
CZ 10934 ES;KALMA, komanditní společnost;Místek, Ostravská 256, 73925 Frýdek-Místek 1;49.7478622;18.5905005
CZ 1095 ES;VKF 97, spol. s r.o.;náměstí Svobody 52, 34815 Planá;49.8679291;12.740112
CZ 11023 ES;Pavel Polák;Nádražní 325/84, 35733 Loket;50.192996;12.7491322
CZ 11040 ES;Petr Zoka;Nádražní 325/84, 35733 Loket;50.192996;12.7491322
CZ 11044 ES;VIVACOMEX spol. s r. o.;Evropská 2485/30a, 35002 Cheb;50.0737801;12.3736675
CZ 11047 ES;FISH MARKET a.s.;Jesenice č. p. 53, 35002 Okrouhlá;49.6069534;14.4782858
CZ 11048 ES;AGRO & KOMBINAT, s.r.o.;Dolina č. p. 12, 35708 Krajková;50.98864435;14.316540669246548
CZ 1109 ES;ZEZULA.CZ, s.r.o.;Rudíkov č. p. 247, 67505 Rudíkov;49.2833404;15.9415897
CZ 11117 ES;PAVLŮ CÉG s.r.o.;U trati 384/36, Strašnice, 10000 Praha 10;50.0661826;14.4890056
CZ 11137 ES;LOSICA, s.r.o.;Zličín, Strojírenská 259, 15521 Praha 517;50.065452;14.2889607
CZ 11138 ES;MASO-PROFIT s.r.o.;Hrdlořezská 197/6, Hrdlořezy, 19000 Praha 9;50.0927941;14.5095026
CZ 1114 ES;Družstevní jatka Sádek, družstvo;Čáslavice č. p. 47, 67524 Čáslavice;49.1549492;15.7956491
CZ 11144 ES;ALIMPEX FOOD a.s.;Českobrodská 1174, Kyje, 19800 Praha 9;50.089804;14.5512221
CZ 1116 ES;MIROSLAV KUBÁT s.r.o.;F. B. Zvěřiny 215, 67555 Hrotovice;49.1078196;16.0589708
CZ 1119 ES;Jatka Šebkovice, s.r.o.;Šebkovice č. p. 36, 67545 Šebkovice;49.1162967;15.8182334
CZ 11195 ES;RATIO s.r.o.;K Radotínu 492, Lipence, 15531 Praha 5;49.9755984;14.3692319
CZ 11277 ES;EUROLOGIS s.r.o.;Březhrad, Březhradská 148, 50332 Hradec Králové 22;50.173174;15.7975803
CZ 11290 ES;Family Market, s.r.o.;Březhrad, Březhradská 148, 50332 Hradec Králové 22;50.173174;15.7975803
CZ 1130 ES;Maso Jičín s.r.o.;Lánovská 565, 54301 Vrchlabí;50.6216888;15.6246975
CZ 11300 ES;ASTRA maso, s.r.o.;Dr. M. Horákové 1559, 50401 Nový Bydžov;50.2429013;15.4863763
CZ 1132 ES;Jaroslava HAMPLOVÁ;Zkratka 99, Bojiště, 54101 Trutnov;50.5484963;15.8991263
CZ 1133 ES;Orlické uzeniny, s.r.o.;Markoušovice č. p. 211, 54232 Velké Svatoňovice;50.5627026;16.00969
CZ 11330 ES;MACH DRUBEŽ a.s.;Na Řetízku 915, Litomyšl-Město, 57001 Litomyšl;49.8618534;16.3152425
CZ 114 ES;OVUS-podnik živočišné výroby, spol. s r.o.;Chelčického 627, 41301 Roudnice nad Labem;50.0451007;15.7328708
CZ 11438 ES;Antonín Matek-Řeznictví, uzenářství;T. G. Masaryka 99, 27713 Kostelec nad Labem;50.1457313;14.1000825
CZ 1153 ES;RACIOLA Uherský Brod, s.r.o.;Pod Valy 221, 68801 Uherský Brod;49.0231438;17.64075
CZ 1156 ES;Provozovna BOCUS;Orlice č. p. 282, 56151 Letohrad;50.0304187;16.5248312
CZ 11674 ES;BERGER MIROSLAV;Stadice, 40002 Řehlovice;50.6168835;13.9696125
CZ 117 ES;SKALIČAN a.s.;Zelená 226, 55203 Česká Skalice;50.028721;15.7933479
CZ 11740036 ES;HELLMA Gastronomický servis Praha spol. s r.o.;Cukrovarská 982, Čakovice, 19600 Praha 9;50.1523274;14.5189576
CZ 11740160 ES;Neptun Catering s.r.o.;Libocká 292/15, Liboc, 16200 Praha 6;50.08582;14.3339559
CZ 11740395 ES;Beskyd Fryčovice, a.s.;Lukavecká 1732, Horní Počernice, 19300 Praha 9;50.1193259;14.6132747
CZ 11740429 ES;Kostelecké uzeniny a.s.;U Prioru 884/4, Ruzyně, 16100 Praha 6;50.0884865;14.3207249
CZ 11740474 ES;"Restaurace ""U KALICHA""";Na bojišti 1732/14, Nové Město, 12000 Praha 2;50.0735285;14.4280655
CZ 11740542 ES;PRAGOGASTRO s.r.o.;Čimická 780/61, Čimice, 18100 Praha 8;50.1408426;14.4275861
CZ 11740564 ES;CROATIA trade Praha s.r.o.;Libušská 53/145, Libuš, 14200 Praha 4;50.0060852;14.4635502
CZ 11740597 ES;NOI Italia, s.r.o.;Toužimská 767, Letňany, 19900 Praha 9;50.1358916;14.521032
CZ 11740610 ES;COME vending s.r.o.;Oderská 333/5, Čakovice, 19600 Praha 9;50.1499439;14.5312433
CZ 11740632 ES;Julia Alex asianfood s.r.o.;Libušská 118/246, Libuš, 14200 Praha 4;50.0123002;14.4588064
CZ 11740643 ES;VELKÁ PECKA s.r.o.;U Prioru 884/4, Ruzyně, 16100 Praha 6;50.0884865;14.3207249
CZ 11740676 ES;Müller Food Additive, s.r.o.;Bečovská 1531/6, Uhříněves, 10400 Praha 10;50.0446501;14.5850547
CZ 11740710 ES;P.S.MASO s.r.o.;Mezi vodami 1955/19, Modřany, 14300 Praha 4;50.0098479;14.4024532
CZ 11740743 ES;JAHEKA s.r.o.;Kutnohorská 359/80a, Dolní Měcholupy, 11101 Praha 10;50.048275;14.569881
CZ 11740754 ES;TAMDA FOODS s.r.o.;Libušská 319/126, Písnice, 14200 Praha 4;50.0028556;14.4687739
CZ 11740776 ES;Asia & Europe Express Food s.r.o.;Pilská 6, Hostavice, 19800 Praha 9;50.0916711;14.5618985
CZ 11740877 ES;Mardini Kebap s.r.o.;Náchodská 2397/23, Horní Počernice, 19300 Praha 9;50.1128605;14.59309
CZ 11740888 ES;Košík.cz;F.V.Veselého 2720/13, Horní Počernice, 19300 Praha 9;50.1214792;14.618047
CZ 11740978 ES;Středisko Naděje V Emauzích - sklad;Vyšehradská 320/49, Nové Město, 12800 Praha 2;50.0720442;14.4178628
CZ 11741024 ES;SD Kebab, s.r.o.;U trati 3134/36a, Strašnice, 10000 Praha 10;50.0660229;14.4896183
CZ 11741082 ES;Daily Fresh Foods spol. s r.o.;Jana Želivského 2200/2, Žižkov, 13000 Praha 3;50.0842182;14.4713557
CZ 11741127 ES;Potravinová banka Praha a Středočeský kraj, z.s.;Malešické náměstí 1/9, Malešice, 10800 Praha 10;50.0844103;14.5116899
CZ 11741138 ES;ENES Cargo Prague s.r.o.;K letišti 1088/59, Ruzyně, 16100 Praha 6;50.1109532;14.2730989
CZ 11741150 ES;Vyplatí se;Do Čertous 2635/20, Horní Počernice, 19300 Praha 9;50.1240536;14.6188521
CZ 11741183 ES;DuD Plus s.r.o.;Belgická 394/23, Vinohrady, 12000 Praha 2;50.0729768;14.4358829
CZ 11741228 ES;LINSAN, s.r.o.;Jana Želivského 2200/2, Žižkov, 13000 Praha 3;50.0842182;14.4713557
CZ 11741240 ES;Balkan Product s.r.o.;Oderská 333/5, Čakovice, 19600 Praha 9;50.1499439;14.5312433
CZ 11741295 ES;Öner gastro s.r.o.;Ve žlíbku 1800/77, Horní Počernice, 19300 Praha 9;50.1020983;14.6262522
CZ 11741329 ES;Boxxi food solutions s.r.o.;Mojmírova 130/4, Nusle, 14000 Praha 4;50.0628996;14.4446744
CZ 11741330 ES;VELKÁ PECKA s.r.o.;U tabulky 3091, Horní Počernice, 19300 Praha 9;50.1160268;14.5910545
CZ 11741341 ES;TITBIT, s.r.o.;Bečovská 1015/10, Uhříněves, 10400 Praha 10;50.0432259;14.5863171
CZ 11741352 ES;Tako Foods s.r.o.;U Prioru 804/3, Ruzyně, 16100 Praha 6;50.0857972;14.3140209
CZ 11741385 ES;Rusfood.cz - sklad balených potravin pro eshop;Náchodská 708/79, Horní Počernice, 19300 Praha 9;50.1147102;14.6080738
CZ 11741396 ES;Velkoobchod GOLDEN BAKERY;Miranova 148/10, Hostivař, 10200 Praha 10;50.0546624;14.5295623
CZ 11741408 ES;Gubernija Trade s.r.o.;Ve žlíbku 1800/77, Horní Počernice, 19300 Praha 9;50.1020983;14.6262522
CZ 11741453 ES;kebab.cz s.r.o.;Ďáblická 553/2, Střížkov, 18200 Praha 8;50.131946;14.4799196
CZ 11741464 ES;GOLDEN HORSE ASIAN FOOD s.r.o.;Libušská 319/126, Písnice, 14200 Praha 4;50.0028556;14.4687739
CZ 11741497 ES;foodora MARKET Poděbradská;Poděbradská 489/116, Hloubětín, 19800 Praha 9;50.1053762;14.5372651
CZ 11741510 ES;foodora MARKET Chodovská;Chodovská 228/3, Michle, 14100 Praha 4;50.0526439;14.4721194
CZ 11741543 ES;foodora MARKET Dělnická;Dělnická 1131/37, Holešovice, 17000 Praha 7;50.1033405;14.4493056
CZ 11741554 ES;KORZINKA.CZ s.r.o.;U trati 970/38, Strašnice, 10000 Praha 10;50.0668545;14.4911655
CZ 11741565 ES;MD logistika, a.s.;Do Čertous 2717/3, Horní Počernice, 19300 Praha 9;50.122888;14.6093338
CZ 11741576 ES;SHALAMAR FOODS, s.r.o.;Dopraváků 723/1, Dolní Chabry, 18400 Praha 8;50.1371902;14.4481021
CZ 11741598 ES;foodora MARKET Počernická;Počernická 272/96, Malešice, 10800 Praha 10;50.0828694;14.5095839
CZ 11741600 ES;foodora MARKET Mukařovského;Mukařovského 2590/2, Stodůlky, 15500 Praha 5;50.0459496;14.3222271
CZ 11741611 ES;BILLA, spol. s r.o.;F.V.Veselého, Horní Počernice, 19300 Praha 20;49.7439047;15.3381061
CZ 11741644 ES;J.K. - GAZA s.r.o.;Dobronická 778, Kunratice, 14800 Praha 4;50.0125182;14.4704344
CZ 11741666 ES;Logistické centrum CFPB;náměstí U lípy svobody 4/12, Dubeč, 10700 Praha 10;50.0636556;14.5940156
CZ 11741677 ES;VELKÁ PECKA s.r.o.;Údolní 212/1, Braník, 14700 Praha 4;50.0292526;14.4103109
CZ 11741712 ES;OZYFOOD s.r.o.;Libušská 319/126, Písnice, 14200 Praha 4;50.0028556;14.4687739
CZ 11741723 ES;Potravinová banka Central;náměstí U lípy svobody 4/12, Dubeč, 10700 Praha 10;50.0636556;14.5940156
CZ 11741745 ES;David Slavíček;Vídeňská 744/2, Krč, 14000 Praha 4;50.0375031;14.4559356
CZ 11741756 ES;Linsan IMEX, s.r.o.;Dobronická 1256, Kunratice, 14800 Praha 4;50.0103034;14.4756905
CZ 11741802 ES;abasto s.r.o.;K Radotínu 492, Lipence, 15531 Praha 5;49.9755984;14.3692319
CZ 11741813 ES;CAVIAR HOUSE LEMBERG;Legerova 1824/47, Nové Město, 12000 Praha 2;50.0745594;14.4300734
CZ 1176 ES;TORO VM a.s.;Pražské Předměstí, Hradecká 251, 56601 Vysoké Mýto;49.9630474;16.1449419
CZ 11804 ES;ACCOM Czech, a.s.;Brňany 125, 41156 Bohušovice nad Ohří;50.4873976;14.1476892
CZ 11812 ES;KREJNÝ s.r.o.;Židovice č. p. 127, 41183 Židovice;50.4554672;14.2292175
CZ 11821 ES;Piller s.r.o.;Chvalín č. p. 13, 41301 Nové Dvory;50.4360477;14.197243024924799
CZ 1184 ES;MP Krásno, a.s.;Hranická 430/34, Krásno nad Bečvou, 75701 Valašské Meziříčí;49.4846538;17.9564325
CZ 11840 ES;Jakub Laušman;Držovice č. p. 23, 41145 Úštěk;50.6123276;14.3269715
CZ 11850061 ES;MOZZARELLART;Bělehradská 237/11, Nusle, 14000 Praha 4;50.0655937;14.4393201
CZ 11850083 ES;Bulharské speciality;Freyova 247/13, Vysočany, 19000 Praha 9;50.1031023;14.5028873
CZ 11850117 ES;Mastro Casaro s.r.o.;Táborská 375/38, Nusle, 14000 Praha 4;50.0626764;14.4412256
CZ 11850128 ES;Potravinářský pavilon (Výukové centrum pro zpracování ZP);Sídlištní 1368/7, Suchdol, 16500 Praha 6;50.127407;14.3784966
CZ 11880042 ES;Schubert partner a.s.;Praha 14-Kyje, Nedokončená 1618, 19800 Praha 98;49.7439047;15.3381061
CZ 119 ES;MASO UZENINY POLIČKA, a.s.;Kamenec u Poličky č. p. 300, 57201 Kamenec u Poličky;49.7075976;16.2386538
CZ 11910002 ES;Experimentální jatky VÚŽV Uhříněves;Přátelství 342/132, Uhříněves, 10400 Praha 10;50.0255879;14.6195485
CZ 11920036 ES;MADE GROUP, a.s.;Kostelecká 894/61, Čakovice, 19600 Praha 9;50.1503345;14.5037731
CZ 11920115 ES;maso – uzeniny Gaube Miloslav s.r.o.;Lovosická 778/2, Prosek, 19000 Praha 9;50.123956;14.5056865
CZ 11920182 ES;BEEFEX s.r.o.;Výrobní 5/3, Štěrboholy, 10200 Praha 10;50.0724969;14.5516893
CZ 11932556 ES;Jiří Vondráček;Klapkova 3/26, Kobylisy, 18200 Praha 8;50.1244899;14.4558505
CZ 11934054 ES;Tomáš Spálenka - Drůbež Palmovka;Zenklova 545/6, Libeň, 18000 Praha 8;50.1022758;14.4737729
CZ 11934197 ES;JAMA maso s.r.o.;Strakonická 13, Lahovice, 15900 Praha 5;49.9968202;14.397305
CZ 11940049 ES;Radev s.r.o.;Újezd, Ke mlýnu 555/1, 14000 Praha 415;49.1572754;15.0008784
CZ 11940296 ES;Řeznictví NOVÁK s.r.o.;Nuselská 401/4, Nusle, 14000 Praha 4;50.0637899;14.441707
CZ 11940364 ES;MEXICALI s.r.o.;Kovářská 939/4, Libeň, 19000 Praha 9;50.1060431;14.4917373
CZ 11940375 ES;Royal Jerky s.r.o.;Brandlova 1639/6, Chodov, 14900 Praha 4;50.0325605;14.5154267
CZ 11940386 ES;Výrobna sušeného masa;U Santošky 1315/4, Smíchov, 15000 Praha 5;50.0666002;14.3993571
CZ 11940454 ES;JERKY Group s.r.o.;Hrusická 2617/3a, Záběhlice, 14100 Praha 4;50.0492588;14.4851992
CZ 11940487 ES;Usušil & syn, s.r.o;Počernická 723/5, Strašnice, 10000 Praha 10;50.0806296;14.4884894
CZ 11940544 ES;MALMAT CZ s.r.o.;Želkovická 1067/8, Klánovice, 19014 Praha 9;50.1002927;14.6548465
CZ 11940577 ES;Výrobna sušeného masa - SUŠENÉ s.r.o.;Sofijské náměstí 3400/6, Modřany, 14300 Praha 4;50.0054539;14.4180738
CZ 11940656 ES;Potravinářský pavilon - VCZZP;Sídlištní 1368/7, Suchdol, 16500 Praha 6;50.127407;14.3784966
CZ 11940713 ES;Melememaso - paštikový salon;Švehlova 3309/11, Záběhlice, 10600 Praha 10;50.0579929;14.5121329
CZ 11950040 ES;Výrobna LIWU;V lužích 735/6, Libuš, 14200 Praha 4;50.0049751;14.471103
CZ 11950073 ES;Gastro Investment a.s.;Mladoboleslavská 1120, Kbely, 19700 Praha 9;50.1317726;14.5411488
CZ 11950095 ES;Medovník originál;Donovalská 1725/47, Chodov, 14900 Praha 4;50.035757;14.5000068
CZ 11950118 ES;Zátiší Catering Group, Kongresové centrum Praha;5. května 1640/65, Nusle, 14000 Praha 4;50.0625165;14.4296707
CZ 11950129 ES;Centrální kuchyně;Štúrova 1701/55, Krč, 14200 Praha 4;50.0297787;14.4497633
CZ 11950163 ES;Euroqualit Holding a.s.;Štúrova 1282/12, Krč, 14200 Praha 4;50.0233828;14.4516695
CZ 11960063 ES;Menzies Aviation (Czech) , s.r.o.;K letišti 1049/57, Ruzyně, 16100 Praha 6;50.11176;14.2748295
CZ 11960085 ES;Skyport a.s.;Laglerové 1075/4, Ruzyně, 16100 Praha 6;50.1129098;14.2788091
CZ 11960131 ES;NESTAR International s.r.o.;Na louži 947/1, Vršovice, 10100 Praha 10;50.0629842;14.4576549
CZ 11960164 ES;ALIMPEX FOOD a.s.;Do Čertous 2622/14, Horní Počernice, 19300 Praha 9;50.1232913;14.6150653
CZ 11960175 ES;GOLD GROUP s.r.o.;K Radotínu 492, Lipence, 15531 Praha 5;49.9755984;14.3692319
CZ 11960186 ES;the italians wine food a.s.;Údolní 212/1, Braník, 14700 Praha 4;50.0292526;14.4103109
CZ 11960209 ES;Freshlogistik s.r.o.;Do Čertous 2717/3, Horní Počernice, 19300 Praha 9;50.122888;14.6093338
CZ 12 ES;Krahulík-MASOZÁVOD Krahulčí, a.s., provozovna Studená;Masná 480, 37856 Studená;49.1807701;15.2943701
CZ 1204 ES;Jatky Valčík s.r.o.;Cyrilometodějská 560, 76601 Valašské Klobouky;49.1453351;18.0195913
CZ 1205 ES;BYKARO s.r.o.;Rokytnice č. p. 18, 76321 Rokytnice;49.0677688;17.9157565
CZ 1229 ES;JATKA Borotice, s.r.o.;Borotice č. p. 125, 67178 Borotice;48.8597575;16.2468438
CZ 1230 ES;MASO ŽĎÁRSKO s. r. o.;Světnov č. p. 68, 59102 Světnov;49.6200451;15.9546024
CZ 1232 ES;Lubomír Nenadál;Radostín nad Oslavou č. p. 143, 59444 Radostín nad Oslavou;49.4647388;15.9626138
CZ 1234 ES;Agroinvest Bobrová, družstvo;Bobrová č. p. 308, 59255 Bobrová;49.4845673;16.1200856
CZ 1238 ES;AGRO - Měřín, obchodní společnost, s.r.o.;Zarybník 516, 59442 Měřín;49.391115;15.87836
CZ 1239 ES;Josef Kovář;Bobrůvka č. p. 12, 59255 Bobrůvka;49.4483988;16.0921688
CZ 12419 ES;MASO UZENINY PÍSEK, a.s.;Samoty 1533, Budějovické Předměstí, 39701 Písek;49.317844300000004;14.16014004672897
CZ 1244 ES;JATKY Dolní Heřmanice s.r.o. - bourárna;Dolní Heřmanice č. p. 130, 59401 Dolní Heřmanice;49.3016788;16.0637738
CZ 12586 ES;Mlékárna Pragolaktos, a.s.;Českobrodská 1174, Kyje, 19800 Praha 9;50.089804;14.5512221
CZ 127 ES;Krahulík-MASOZÁVOD Krahulčí, a.s.;Krahulčí č. p. 10, 58856 Krahulčí;49.1797461;15.4118093
CZ 12780 ES;VISCOFAN CZ s.r.o.;Průmyslová 377/2, České Budějovice 6, 37001 České Budějovice;48.9704596;14.4859154
CZ 13029 ES;Arxada Biotec s.r.o.;Okružní 134, 28161 Kouřim;50.00420325;14.97246284315188
CZ 13137 ES;Gornicky, s.r.o.;Vodňany II, Číčenická 1273, 38901 Vodňany;49.1473255;14.1930682
CZ 13150 ES;mrazírna Blatná;Fügnerova 306, 38801 Blatná;49.4337382;13.865348
CZ 13178 ES;Zařízení pro nakládání se zvěřinou Arnoštov;Arnoštov č. p. 40, 38301 Křišťanov;48.8909162;13.9902656
CZ 13213 ES;Červené maso P+P s.r.o.;K Belnici 300, Osnice, 25242 Jesenice;49.9677326;14.54034
CZ 13237 ES;Delpra spol. s r.o.;HAVLÍČEK ALEŠ WHITE TRANS, 25264 Velké Přílepy;49.7439047;15.3381061
CZ 13275 ES;VISCOFAN CZ s.r.o.;Antala Staška 2251/15, České Budějovice 7, 37007 České Budějovice;48.9523686;14.4698761
CZ 133 ES;Ponnath ŘEZNIČTÍ MISTŘI, s.r.o.;Sušice II, Pražská 117, 34201 Sušice 1;49.9986126;14.1626
CZ 13342 ES;Pajero s.r.o.;Práce 2039, Děčín V-Rozbělesy, 40502 Děčín;50.7650361;14.1983161
CZ 13401 ES;František Šutera;Zástodolí 531, 67974 Olešnice;49.5586788;16.42231
CZ 13413 ES;Mlékárna Olešnice a.s.;Křtěnovská 305, 67974 Olešnice;49.5512425;16.4207488
CZ 13438 ES;František Šutera;Veselská 581, 67974 Olešnice;49.5651;16.4278925
CZ 13488 ES;Petr Sokol;Rampuše, 51601 Liberk;50.2103074;16.3806546
CZ 13500 ES;Farma u řeky Orlice, s.r.o.;Lípa nad Orlicí č. p. 60, 51721 Lípa nad Orlicí;50.1306726;16.115105
CZ 13599 ES;Obora Borky - podnik na zpracování zvěřiny;Obora Borky, 68333 Nesovice;49.7439047;15.3381061
CZ 13700 ES;FRIGONOVA Fish, s.r.o.;K Vápence č. ev. 602, 69201 Mikulov;48.8089981;16.6253874
CZ 13823 ES;FRIALL s.r.o;Soběslavská 2098/20, 39002 Tábor;49.407678;14.6851993
CZ 13826 ES;MRAZO Tábor s.r.o.;Družstevní 348, Čekanice, 39002 Tábor;49.4259789;14.6782782
CZ 13832 ES;Mezinárodní testování drubeže, s.p.,;Ústrašice č. p. 63, 39002 Ústrašice;49.3433583;14.6795793
CZ 13857 ES;CANO CZ s.r.o. - Distribuční centrum;Havlíčkova 516, 53803 Heřmanův Městec;49.2072514;17.6029315
CZ 13858 ES;VESPO s. r. o.;Medlešice č. p. 51, 53831 Chrudim;49.9783738;15.7754
CZ 13917 ES;MADETA a. s., chlad.sklad mléč.výrobků;Jateční 1723/12, Východní Předměstí, 30100 Plzeň;49.7524495;13.4028269
CZ 14186 ES;VARNSDORFSKÉ UZENINY s.r.o.;Východní 1360, 40747 Varnsdorf;50.9111713;14.6335725
CZ 14227 ES;HRUŠKA, spol.s r.o. - velkoobchodní sklad;Na Hrázi 3228/2, Martinov, 72300 Ostrava;49.8497706;18.1857107
CZ 14243 ES;Porcovna a balírna tvrdých sýrů Jiří Nakládal;Bajgarova 189/19, Krásné Pole, 72526 Ostrava;49.84254835;18.124438577767663
CZ 14244 ES;ACCOM Czech, a.s.;Polanecká 803/72, Svinov, 72100 Ostrava;49.80275545;18.19788871352283
CZ 14281 ES;Vladimír Štíbal;Sklené č. p. 55, 59101 Sklené;49.6089347;16.0083503
CZ 14489 ES;Logistické centrum Prostějov;Kralický háj, 79812 Kralice na Hané;49.7439047;15.3381061
CZ 14502 ES;Ladislav Pecha;Pístina č. p. 54, 37802 Pístina;49.0486717;14.9009458
CZ 14512 ES;Sýrárna Bratří Brunnerů s.r.o.;Jarošov nad Nežárkou č. p. 97, 37841 Jarošov nad Nežárkou;49.1910887;15.0687074
CZ 14526 ES;JATKY ALBEŘ s.r.o.;Albeř č. p. 15, 37833 Nová Bystřice;49.0276068;15.1300666
CZ 14537 ES;Zemědělské družstvo Jindřichův Hradec;Nežárecká 143, Jindřichův Hradec IV, 37701 Jindřichův Hradec;49.13149;14.9920018
CZ 14560 ES;Kratochvíl - Výrobna;Nádražní 56/106, Smíchov, 15000 Praha 5;50.0700715;14.4054384
CZ 14587 ES;ACCOM Czech, a. s.;Vysokomýtská 1705, 56501 Choceň;49.9883143;16.2156396
CZ 14593 ES;MASOEKO s. r. o.;Kunčice č. p. 243, 56151 Letohrad;50.0189347;16.527976
CZ 14640 ES;Alena Sklenářová;Podbořany 44101,Podbořany,Vroutecká 230;50.2287899;13.4090787
CZ 14657 ES;Lidl Česká republika v.o.s.;Bystrovany č. p. 237, 77900 Bystrovany;49.5909063;17.31079
CZ 14675 ES;Zemědělské družstvo  Újezd u Uničova;Želechovice č. p. 86, 78391 Želechovice;49.7548709;17.1455012
CZ 14699 ES;Marta Smičková;Senička č. p. 48, 78345 Senička;49.6328888;17.0573238
CZ 14817 ES;Nagel Česko s.r.o;Zděbradská 68, Jažlovice, 25101 Říčany;49.964601;14.6224207
CZ 14844 ES;ČESKÁ MASNA s.r.o.;Mělnická 1, 25065 Líbeznice;50.3524301;14.6992712
CZ 149 ES;D-K zemědělská a.s. - bourárna;Žatecká 866, 33141 Kralovice;49.9822603;13.4889341
CZ 14919 ES;Beskyd Fryčovice, a.s.;Fryčovice č. p. 606, 73945 Fryčovice;49.6777326;18.23371
CZ 14969 ES;Zpracovna ryb Šišma s.r.o.;Šišma č. p. 62, 75111 Šišma;49.463339;17.587332
CZ 15 ES;Kostelecké uzeniny a.s., provozovna Planá nad Lužnicí;Průmyslová 499, 39111 Planá nad Lužnicí;50.736123;15.0380399
CZ 150 ES;Jatky Bučovice, s.r.o.;Nová 715, 68501 Bučovice;49.152351;16.9858519
CZ 15012 ES;Marie Černilová;Licibořice č. p. 14, 53823 Licibořice;49.8750238;15.7611013
CZ 15035 ES;P Z P  MERLIN s. r. o.;Poličská 1365, 53901 Hlinsko;49.7704704;15.9205571
CZ 15081 ES;Lubomír Hluchý;Větřkovice č. p. 173, 74743 Větřkovice;49.7819863;17.8185888
CZ 15233 ES;ŠVÉDA - QUALITY s.r.o.;Nádražní 1169/2, Poštorná, 69141 Břeclav;48.7530524;16.8644925
CZ 15363 ES;Lahůdky Vavřík a spol., s.r.o.;Citonice č. p. 206, 67101 Citonice;48.8825538;15.9713325
CZ 15401 ES;FRIGOEXIM spol. s r. o.;Česká 3351, 47001 Česká Lípa;50.67864125;14.55887934113845
CZ 15612 ES;IMCO,s.r.o.;HAVLÍČEK ALEŠ WHITE TRANS, 25264 Velké Přílepy;49.7439047;15.3381061
CZ 15623 ES;ADITIVA CZ s.r.o.;Rudná, Masarykova 975, 25201 Rudná u Prahy;49.052362;14.433415115883234
CZ 15669 ES;ALIMPEX  FOOD a.s.;Polanecká 803/72, Svinov, 72100 Ostrava;49.80275545;18.19788871352283
CZ 15707 ES;The Candy Plus Sweet Factory, s.r.o.;Vítězná 200/6, 69601 Rohatec;48.8891788;17.2102649
CZ 15724 ES;TOPSTUR s.r.o.;Měšťanská 1564/89, 69501 Hodonín;48.8558005;17.1336563
CZ 15738 ES;Miroslav Rehák;Hodová 949, 69615 Čejkovice;48.9035626;16.94357
CZ 15793 ES;Ing.Václav Dašek;Slavětín nad Metují č. p. 26, 54901 Slavětín nad Metují;50.329505;16.06005
CZ 158 ES;BETAS s.r.o.;Lipovec č. p. 327, 67915 Lipovec;49.3866338;16.812485
CZ 15902 ES;KAREL KLOUČEK ŘEZNICTVÍ A UZENÁŘSTVÍ s.r.o.;Fučíkova 647, 46401 Raspenava;50.8973438;15.1393387
CZ 15911 ES;MAKRO Cash & Carry ČR s.r.o. – velkoobchodní středisko Liberec;Sportovní 522, Liberec XXIII-Doubí, 46312 Liberec;49.1606657;16.3427505
CZ 15955 ES;VLS ČR, s.p., LS  Mirošov;Mirošov, 33843 Mirošov;49.700585;13.6664104
CZ 16 ES;MADETA a. s., závod Jindřichův Hradec;Jiráskovo předměstí 638/III, 377 01 Jindřichův Hradec;49.1329312;15.0137773
CZ 160 ES;Karel Havlíček;Krátká 228, 67963 Velké Opatovice;49.1354691;16.7342331
CZ 16046 ES;PAŘENÉ SÝRY POKORNÁ;Mouchnice 146, 68333 Nesovice;49.1100238;17.1383275
CZ 16102 ES;GRONKA - PRODEJ, spol. s r.o.;Rozsíčka č. p. 51, 67974 Rozsíčka;49.5523913;16.465075
CZ 16109 ES;Řeznictví a uzenářství HEBELKA, s.r.o.;Němčice č. p. 33, 67951 Němčice;50.3470325;14.92575
CZ 16124 ES;S.M.K., a.s. - Rybářství Skalní mlýn;Lažánky u Blanska, 67801 Blansko;49.7439047;15.3381061
CZ 16134 ES;Michaela Vávrová;Hluboké Dvory č. p. 12, 67923 Hluboké Dvory;49.3850615;16.512974
CZ 16162 ES;Country Grill ČR, s.r.o.;Jabloňová 441/12, Stará Role, 36017 Karlovy Vary;50.2495076;12.8340761
CZ 16195 ES;HORTIM International , spol. s r.o.;Mostecká 178, 36001 Otovice;50.2613026;12.8861675
CZ 16321 ES;Jaromír Novák;Pavlice č. p. 161, 67156 Pavlice;48.9737476;15.8941852
CZ 16389 ES;BILLA, spol. s r.o.;V rybníčkách 3571/12, 25088 Čelákovice;50.1595939;14.7481216
CZ 16562 ES;ESA s.r.o.;Brno-jih, Trnitá, Masná 9, 60200 Brno 2;50.0893661;14.4239497
CZ 16580 ES;ARKTIDA PLUS s.r.o.;Hviezdoslavova 1158/47, Slatina, 62700 Brno;49.1832214;16.6832023
CZ 16658 ES;Řeznictví JANUS, s.r.o;Hlučínská 4, Petřkovice, 72529 Ostrava;49.8761711;18.2581942
CZ 16769 ES;UZENINY BETA-výrobní závod;Vidonice č. p. 55, 50782 Pecka;50.4770182;15.649125699598853
CZ 168 ES;Podkrkonošská uzenina s.r.o.;Bělá č. p. 149, 51401 Bělá;49.9740538;18.1480275
CZ 16880 ES;AGRO - CB, spol. s r.o.;Kamenný Újezd č. p. 685, 37381 Kamenný Újezd;48.8989262;14.456242
CZ 170 ES;ZEPO Bořitov, družstvo;Úvoz 326, 67921 Bořitov;49.2122098;16.7930204
CZ 17008 ES;Biofarma - penzion Slunečná, Ing. Pavel Štěpánek - bourárna;Slunečná č. p. 3, 38451 Želnava;48.8204232;13.9673966
CZ 17009 ES;Biofarma - penzion Slunečná, Ing. Pavel Štěpánek - mlékárna;Slunečná č. p. 3, 38451 Želnava;48.8204232;13.9673966
CZ 17022 ES;Kateřina Kiričenko;Roseč č. p. 35, 37846 Roseč;49.1274775;14.9091869
CZ 17143 ES;Jatky Výsluní;Výsluní č. p. 15, 43183 Výsluní;50.4665912;13.2385092
CZ 17147 ES;HOPI s.r.o.;Pražská 673, 43151 Klášterec nad Ohří 1;49.9339825;14.2804463
CZ 17193 ES;BORSO plus s.r.o.;Sobotovice č. p. 175, 66467 Sobotovice;49.0587671;16.5568805
CZ 17369 ES;PEL-MA s.r.o.;Křenová 89/19, Trnitá, 60200 Brno;49.1922554;16.6186873
CZ 17373 ES;FRESCO italiano s.r.o.;Holasice č. p. 75, 66461 Holasice;49.0769753;16.598556
CZ 17392 ES;FRUTA Podivín, a.s.;Rybáře 157/40, 69145 Podivín;48.823685;16.8487788
CZ 17648 ES;Penzion Bejčkův mlýn Slavonice;Stálkovská 25, 37881 Slavonice;49.0071322;15.3300636
CZ 17777 ES;Tivall CZ, s.r.o.;Eduarda Proppera 641, 41742 Krupka;50.665351900000005;13.868631603435249
CZ 178 ES;K M S , spol. s r.o.;Novoveská 858, 68725 Hluk;48.9898013;17.5157913
CZ 17800 ES;DRŮBEŽÍ SEN s.r.o.;Modlany č. p. 110, 41713 Modlany;50.65191625;13.897226563269129
CZ 17837 ES;MADETA a.s.;Mostecká 178, 36001 Otovice;50.2613026;12.8861675
CZ 17847 ES;ARTIFEX INSTANT, s.r.o.;Plzeňská 529, 36401 Toužim;49.643868299999994;13.167341294137927
CZ 179 ES;VOMA, s.r.o.;Moravská 94, 68801 Uherský Brod;49.0248363;17.6489224
CZ 17928 ES;Fakultní jatky, VETUNI;Palackého třída 1946/1, Královo Pole, 61200 Brno;49.2176437;16.597882
CZ 17936 ES;STEINEX a.s.;náměstí Na Městečku 119, 66471 Veverská Bítýška;49.2756613;16.4363963
CZ 17940 ES;Jiří Novák;Vídeňská 538/91, Štýřice, 63900 Brno;49.1738368;16.5969643
CZ 17944 ES;GASTRO ALDA s.r.o.;Slatina, Řípská 9a, 62700 Brno 27;49.1733566;16.6810318
CZ 18006 ES;COMRICO s.r.o.;Polní 126, 551 01 Jaroměř;49.4052421;14.7438463
CZ 18101 ES;VEJCE CZ s.r.o., PROVOZOVNA ČERNČICE, PROVOZ - VÝROBA VAJEC;Louny, Černčice, 44001 Louny 1;50.3552282;13.7982006
CZ 18106 ES;GASTROPLUS Louny s.r.o.;Louny, Rybalkova 2128;49.8861407;18.3290841
CZ 18141 ES;VEJCE CZ  s.r.o.;Obora č. p. 198, 44001 Obora;49.8901438;13.4158925
CZ 182 ES;KADLCEK s.r.o.;Kostelní 38, 68762 Dolní Němčí;50.3552725;15.9220475
CZ 184 ES;JACOM spol. s r.o.;Přerovská 761/2, 76901 Holešov;49.3351891;17.5704157
CZ 18467 ES;Vodňanská drůbež, a.s.;Skořenice č. p. 135, 56501 Skořenice;50.0210938;16.2332963
CZ 185 ES;KMOTR - Masna Kroměříž a.s.;Hulínská 2286/28, 76701 Kroměříž;49.3077564;17.4088275
CZ 18595 ES;Petr Hemerka;Řípská 1174/5, Slatina, 62700 Brno;49.1687129;16.6878221
CZ 186 ES;Pravčická a.s.;Pravčice č. p. 242, 76824 Pravčice;49.3212351;17.4958696
CZ 18656 ES;SEOS FRUIT s.r.o.;Loketská 262/10, Dvory, 36006 Karlovy Vary;50.2265656;12.8147721
CZ 18697 ES;Roman Kostomlatský;U Mlékárny 403/6, Úšovice, 35301 Mariánské Lázně;49.9554753;12.6950699
CZ 18700 ES;PRIMA - maso, uzeniny, velkoobchod;U Mlékárny 403/6, Úšovice, 35301 Mariánské Lázně;49.9554753;12.6950699
CZ 18796 ES;Zeelandia spol. s r.o., sklad;průmyslová zóna Kožlany;49.7439047;15.3381061
CZ 18811 ES;ASTUR-KA, s.r.o.;Charvatce č. p. 13, 41119 Martiněves;50.3222288;14.9989138
CZ 18816 ES;Jatky Libochovice s.r.o.;Husova 308, 41117 Libochovice;49.2477676;16.6677387
CZ 18831 ES;JOTIS, s.r.o.;Českolipská 864/3, Předměstí, 41201 Litoměřice;50.5379257;14.1487995
CZ 18836 ES;Chovaneček s.r.o.;Novobranská 87/14, Litoměřice-Město, 41201 Litoměřice;50.5354518;14.1326306
CZ 18995 ES;Řeznictví - Uzenářství Vašíček a spol.;Tabačov 154, 69102 Velké Bílovice;48.8453438;16.8959263
CZ 19115 ES;Oldřich Bečka;Příbram pod Bukovou horou, 40502 Verneřice;49.7439047;15.3381061
CZ 19138 ES;WHALLEY a.s.;Mikulášovická 552, 40778 Velký Šenov;50.9884726;14.376835
CZ 19198 ES;Řeznictví a jídelna U Vítků;Ringhofferova 657, 25169 Velké Popovice;49.9224232;14.6365396
CZ 19404 ES;Monika Menčíková;Šonov u Broumova, 54971 Šonov;49.7439047;15.3381061
CZ 19463 ES;KORČIÁN s.r.o.;Lesná č. p. 96, 67102 Lesná;48.9142691;15.8634212
CZ 19559 ES;Milan Strnad;Hostěradice č. p. 58, 67171 Hostěradice;49.8608638;14.4939588
CZ 19561 ES;OCEAN48 s.r.o.;Špitálka 824/15, Zábrdovice, 60200 Brno;49.1955049;16.6238295
CZ 19635 ES;I.Moravská distribuční společnost s.r.o.;Březhradská 148/3, Březhrad, 50332 Hradec Králové;50.173174;15.7975803
CZ 19636 ES;Allimex Trading, spol. s r.o.;Nepolisy č. p. 40, 50363 Nepolisy;50.1931438;15.4629213
CZ 19640 ES;Eis studio Pardubice s.r.o.;Kladská 916/65, Slezské Předměstí, 50003 Hradec Králové;50.2246285;15.8755658
CZ 19641 ES;Ing. Jiří Kadeřávek - Farma Věkoše;Na Kopečku 334/2, Věkoše, 50341 Hradec Králové;50.2317102;15.8317481
CZ 19644 ES;Maso Krejsa s.r.o.;Březhradská 148/3, Březhrad, 50332 Hradec Králové;50.173174;15.7975803
CZ 19651 ES;Josef Drda;Nádraží 1051, 66453 Újezd u Brna;49.1069541;16.7368586
CZ 19673 ES;Petr Vašák;Tuřanka 237/21, Slatina, 62700 Brno;49.1755429;16.6866032
CZ 198 ES;Drůbež CZ, s.r.o.;Kaštanová 467, 67972 Kunštát;49.5035913;16.5164313
CZ 19853 ES;DIANA SEVEN, a.s.;Voletinská 252, Poříčí, 54103 Trutnov;50.5750213;15.9488088
CZ 19885 ES;Minimlékárna AGM FARMERS spol. s r. o.;Voletinská 252, Poříčí, 54103 Trutnov;50.5750213;15.9488088
CZ 2005 ES;Radek Harvalík - Jatky Hradčany;Hradčany č. p. 11, 38481 Bošice;50.0907211;14.4019057
CZ 20057 ES;Uzenářství Ježek s.r.o.;Dělnická 21, Velebudice, 43401 Most;50.4839129;13.6496998
CZ 20076 ES;BILBO šmak s.r.o.;Maxima Gorkého 1165, 43401 Most;50.49875835;13.644088870144692
CZ 2034 ES;Zemědělské družstvo Roprachtice;Roprachtice č. p. 13, 51301 Roprachtice;50.647659;15.421118
CZ 205 ES;VÚVeL - experimentální porážka;Hudcova 296/70, Medlánky, 62100 Brno;49.2372951;16.5797647
CZ 20504 ES;Veletrhy Brno, a.s.;Výstaviště 405/1, Pisárky, 60300 Brno;49.1877268;16.5822648
CZ 20603 ES;Ekofarma Bošina;Vernéřovice č. p. 56, 54982 Vernéřovice;50.6178013;16.2016338
CZ 20616 ES;Karsit Agro, a.s.;Hustířanská 209, 55211 Velichovky;50.35614;15.8336363
CZ 20640 ES;EURONA s.r.o.;Lhota za Červeným Kostelcem č. p. 261, 54941 Červený Kostelec;50.4808564;16.07215599263102
CZ 207 ES;VLAMA, spol. s r.o.;Vlasákova 345, 25801 Vlašim;49.7121801;14.9030463
CZ 20706 ES;ŘEZNICTVÍ KRČMA;Lidická 581/61a, Drahovice, 36001 Karlovy Vary;50.2341244;12.8903595
CZ 208 ES;MADETA a. s.., závod Planá nad Lužnicí;Průmyslová 575, 391 02 Sezimovo Ústí II;48.900566;14.4425924
CZ 20924 ES;CzechPak Manufacturing, s.r.o.;Kateřinská 97, Nové Modlany, 41742 Krupka;50.3709813;14.9658662
CZ 20932 ES;DELOCAN CZ s.r.o.;Modlanská 1201/1a, Trnovany, 41501 Teplice;50.6496329;13.856021078062117
CZ 20934 ES;Mini Market;Pražská 37, 41761 Bystřany;49.0828408;13.9611198
CZ 2101 ES;Třemošenská uzenina;Brožíkova 862, 33011 Třemošná;49.8224225;13.3986763
CZ 2102 ES;Jatka Volary;Stögrova huť 522, 38451 Volary;48.9098815;13.8712819
CZ 2105 ES;D-K zemědělská a.s. - jatky;Kralovice č. p. 563, 33141 Kralovice;49.9740638;13.506355
CZ 21093 ES;Horáková Meat s.r.o. - bourárna masa;Kikrleho 1129/17, Slatina, 62700 Brno;49.1749411;16.6924831
CZ 2119 ES;Řeznictví a uzenářství;Bílovice 3, 79841 Kostelec na Hané;49.1005988;17.5480363
CZ 212 ES;František Matoušek;Kondrac č. p. 128, 25801 Kondrac;49.663534;14.8868309
CZ 2133 ES;Porážka , bourárna výrobna masných výrobků, prodejna Lešany;Lešany č. p. 172, 79842 Lešany;49.5009553;17.0297016
CZ 21335 ES;AXEM s.r.o.;Hostovická, 40001 Ústí nad Labem;50.0248382;15.8289605
CZ 21351 ES;Lužan s.r.o.;Náměstí Lužické 211/15, Rumburk 1, 40801 Rumburk;50.9508626;14.558626
CZ 2136 ES;VLS ČR, s.p., LS Obecnice;Obecnice č. p. 275, 26221 Obecnice;48.9365747;17.3522912
CZ 2139 ES;Porážka prasat Předmíř;Předmíř č. p. 54, 38742 Předmíř;49.4907416;13.7726418
CZ 2140 ES;Zemědělské družstvo Újezd u Uničova;Újezd u Uničova, 78396 Újezd;49.7751308;17.1872928
CZ 21430 ES;Kubík a.s.;Areál za Zlatou Přilbou, Pardubice - Popkovice, 53006 Pardubice;50.0565131;15.7795696
CZ 2144 ES;ZD Dub nad Moravou;Dub nad Moravou, 78375 Dub nad Moravou;49.4827851;17.2772155
CZ 2152 ES;Miroslav Prošek ml. - ŘEZNICTVÍ-UZENÁŘSTVÍ;Jiráskova 737, 46401 Frýdlant;50.164317;14.0945682
CZ 21571 ES;civakure;Topolová 635, Mladá, 28924 Milovice;50.2351133;14.8479335
CZ 21647 ES;AGRO-OVIS spol. s r.o.;Rožnov č. p. 1, 37881 Český Rudolec;49.0600372;15.2333597
CZ 2171 ES;DIEMA s.r.o.;Frýdek, Na Poříčí 1198, 73801 Frýdek-Místek 1;49.6759301;18.3538525
CZ 21740060 ES;DOBRO,spol.s r.o.;5. května 297, 25087 Mochov;49.9452366;15.6720734
CZ 21740071 ES;UNIKOM, a.s.;Karlov, Hrnčířská 193, 28445 Kutná Hora 1;49.9505208;15.2876767
CZ 21740082 ES;Tesco Stores ČR a.s.;Průmyslová 500, Postřižín, 25070 Postřižín;50.2453325;14.3822
CZ 21740161 ES;POLAR TRADING s.r.o.;U Cihelny 1074, 28163 Kostelec nad Černými lesy;49.9849313;14.8606125
CZ 21740183 ES;FANY Gastroservis s.r.o.;Průmyslová 536, 25250 Vestec;48.9769909;17.3096448
CZ 21740194 ES;FRESHFRUIT LOGISTIC, s.r.o.;Na Dlouhém 80, 25101 Říčany u Prahy;49.970162200000004;14.622411940132558
CZ 21740240 ES;Frost Logistics a.s.;Jesenická 619, Dolní Jirčany, 25244 Psáry;49.9531829;14.5298956
CZ 21740251 ES;Mrazírny Úžice;Pražská 264, 27745 Úžice;50.0000738;14.164215
CZ 21740262 ES;DIANA-MRÁZEK - EKO spol. s r.o.;Tř. 5. května 1082, 28911 Pečky;50.0813463;15.0217328
CZ 21740318 ES;LUKUL s.r.o.;Na Valech 729, 28912 Sadská;50.1316401;14.9889813
CZ 21740374 ES;JEDNOTA, spotřební družstvo v Nymburce;Maršála Koněva 639, 28802 Nymburk;50.1895576;15.0567258
CZ 21740396 ES;ASPIUS spol. s r.o.;K Třešňovce 1155, 25210 Mníšek pod Brdy;50.0608143;14.2816272
CZ 21740497 ES;SAHNEBŐHM Praha, spol. s r.o.;Jesenická 513, Dolní Jirčany, 25244 Psáry;50.0802163;16.943945
CZ 21740699 ES;HAVI Logistics s.r.o.;Vašíčkova 125, 27204 Kladno;50.1489818;14.0689299
CZ 21740712 ES;bio nebio s.r.o.;Bavoryně, Na Lhotkách 103, 26751 Zdice;49.8960503;13.9539404
CZ 21740756 ES;Food & Friends s.r.o.;Zahradní 360, 25261 Jeneč;49.1801208;15.4604363
CZ 21740824 ES;LESA s.r.o.;Pražská 29, 25066 Zdiby;49.6882207;14.0112302
CZ 21740879 ES;Amaso CZ,s.r.o., Jeneč;Zahradní 360, 25261 Jeneč;49.1801208;15.4604363
CZ 21740936 ES;Family Market s.r.o.;Zděbradská 72, Jažlovice, 25101 Říčany;49.96717285;14.62018380534921
CZ 21740958 ES;Ladislav Černý, Chýně;K Rybníčkům 521, 25303 Chýně;50.0650428;14.2358702
CZ 21740981 ES;Family Market s.r.o.Kropáčova Vrutice;Kropáčova Vrutice č. p. 111, 29479 Kropáčova Vrutice;50.3301388;14.7163075
CZ 21741016 ES;Velkosklad;Dělostřelecká 296, Příbram I, 26101 Příbram;49.7018639;14.0027344
CZ 21741027 ES;Centrální sklad Globus ČR,v.o.s.;Poděbradská 607, 250 90 Jirny;50.1255961;14.6865689
CZ 21741049 ES;LARYBA s.r.o.;Statenická 770, 25264 Velké Přílepy;50.157375099999996;14.305614110884056
CZ 21741106 ES;Kalle CZ s.r.o.;Skandinávská 995, 26753 Žebrák;49.8648702;13.8889574
CZ 21741229 ES;Lesaffre Česko, a.s.;Lhotecká 1538 1538/1538, Brandýs nad Labem, 25001 Brandýs nad Labem;50.2030421;14.6747549
CZ 21741285 ES;PEŠEK- RAMBOUSEK s.r.o.;U Ploché dráhy 1958, 27401 Slaný;50.2256001;14.1017506
CZ 21741353 ES;Velkoobchod  s potravinami;Vrutická 202, 27731 Velký Borek;50.3450726;14.52127
CZ 21741364 ES;Family Market s.r.o.;Na zelené 2352, Kročehlavy, 27201 Kladno;50.1392594;14.1245309
CZ 21741386 ES;ESA s.r.o.;Na Dlouhém 90, Jažlovice, 25101 Říčany;49.96979295;14.628840204684629
CZ 21741454 ES;Vlastimil Pitner;Ostrá č. p. 134, 28922 Ostrá;50.1837208;14.8860436
CZ 21741511 ES;Roline Internationale Spedition;K Vypichu 1303, 25219 Rudná;50.0174151;14.2037138
CZ 21741566 ES;AGLO Trading, s.r.o.;U Cihelny 1074, 28163 Kostelec nad Černými lesy;49.9849313;14.8606125
CZ 21741588 ES;AGRO Jesenice u Prahy a.s.;K Jahodárně 40, 25250 Vestec;49.9888201;14.499585
CZ 21741601 ES;Orkla Food Ingredients Česko s.r.o.;Nad Kovárnou 185, 25268 Kněževes;50.1187963;14.2698563
CZ 21741634 ES;COUNTRY LIFE s.r.o.;K Vypichu, 25219 Rudná;50.2816868;14.0856002
CZ 21741645 ES;SYPEX, spol. s r.o.;Libeň č. p. 106, 25241 Libeř;49.9364609;14.464265
CZ 21741667 ES;Zdeněk Hendrich s.r.o.;Samota 2687, Rakovník II, 26901 Rakovník;50.1145321;13.7355428
CZ 21741678 ES;UNIBRANDS CZ s.r.o.;Hovorčovická 128, Pakoměřice, 25065 Bořanovice;50.1789488;14.486975
CZ 21741690 ES;MASO VELEŇ S.R.O;Hlavní 205, 25063 Veleň;49.0382488;17.50058
CZ 21741702 ES;La Lorraine, a.s.;U Kožovy hory 2748, Kročehlavy, 27201 Kladno;50.1189548;14.1140978
CZ 21741803 ES;BUDA MONT spol.s.r.o.;Hlavní 7, 25101 Herink;49.7482702;13.5146162
CZ 21741814 ES;Milan Jelínek;Kostelec nad Labem č. p. 1146, 27713 Kostelec nad Labem;50.2283122;14.5768249
CZ 21741836 ES;Sklad vajec Alena Jakešová;Únětice č. p. 19, Únětice;49.58338785;13.47000715375384
CZ 21741870 ES;BURGER Czech s.r.o;Bezručova 515, 25091 Zeleneč;50.4956347;13.4444409
CZ 21741926 ES;CHEESY & Ko s.r.o.;Zahradní 360, 25261 Jeneč;49.1801208;15.4604363
CZ 21741937 ES;KBJ VELKOOBCHODY, s.r.o.;K Dálnici 1394, 25301 Hostivice;50.0824485;14.2716675
CZ 21741982 ES;MAKRO Cash&Carry ČR s r.o./Centrální sklad Kozomín;Kozomín č. p. 504, 27745 Kozomín;50.2478325;14.3719619
CZ 21742028 ES;Tako Foods s.r.o.;Zahradní 360, 25261 Jeneč;49.1801208;15.4604363
CZ 21742039 ES;sklad;Foersterova 371, 25082 Úvaly;50.07701;14.7187063
CZ 21742051 ES;Raben Logistics Czech s r.o.;Komerční 535, 25101 Nupaky;49.9870442;14.6041298
CZ 21742073 ES;Slovenské tradičné s.r.o;Zahradní 360, 25261 Jeneč;49.1801208;15.4604363
CZ 21742118 ES;Torme s.r.o;Zlatá 202, 250 83 Škvorec;50.0405804;14.7030911
CZ 21742129 ES;Klarika vobis s.r.o.;Nad Humny 75, 27351 Svárov;50.0598075;14.1560025
CZ 21742163 ES;Comp alfa, s.r.o.;Nad Kovárnou 185, 25268 Kněževes;50.1187963;14.2698563
CZ 21742196 ES;NURAN KEBAB s.r.o.;Zagarolská 161, 27751 Nelahozeves;50.2753863;14.3087275
CZ 21742208 ES;Tamda Foods Distribuční centrum;U Dálnice 1377, Hostivice;49.141419;16.6333138
CZ 21742242 ES;O.K. Trans Logistics, s.r.o.;Hlavní 182, 25303 Chýně;49.0922096;16.6303042
CZ 21742253 ES;cargo-partner ČR s.r.o.;K Amazonu 235, 25261 Dobrovíz;50.1064206;14.215331968295946
CZ 21742309 ES;Gibon Delivery Logistic s.r.o.;Zahradní 359, 25261 Jeneč;49.179713;15.4621406
CZ 21742387 ES;Country Grill ČR, s.r.o.;Veleliby č. p. 68, 28802 Dvory;50.2086239;15.025605
CZ 21742398 ES;ALDA Foods s.r.o.;Koleč č. p. 199, 27329 Koleč;50.1986901;14.2247275
CZ 21742422 ES;GEBRÜDER WEISS spol. s r.o.;Průmyslová 477, 25261 Jeneč;50.0926104;14.203491258702947
CZ 21742455 ES;SWEET DELIGHT.a.s.;Komerční 532, 25101 Nupaky;49.9863124;14.6026496
CZ 21742466 ES;Miroslava Grundzová;T. G. Masaryka 244, 27713 Kostelec nad Labem;50.2269613;14.5859663
CZ 21742499 ES;Orkla Foods Česko a Slovensko a.s.;Panenské Břežany č. p. 199, 25070 Panenské Břežany;49.7439047;15.3381061
CZ 21742501 ES;Mezisklad vajec a zázemí - Zbraslav;Staroknínská 321, 26203 Nový Knín;49.786747;14.282114
CZ 21742512 ES;Velkosklad potravin Lidl;Třinecká 1211, 27343 Buštěhrad;50.1546417;14.1612003
CZ 21742523 ES;Skladové centrum Hlubočinka;Sportovní 1190/1190, 25168 Sulice;49.7186926;15.6786205
CZ 21742556 ES;DSV Solutions s.r.o.;Průmyslová 482, 25261 Jeneč;50.0896664;14.2045377
CZ 21742567 ES;Farmářská uzenina;Potěhy č. p. 187, 28563 Potěhy;49.8691513;15.4241613
CZ 21742578 ES;Adetec Holding s.r.o.;Zahradní 359, 25261 Jeneč;49.179713;15.4621406
CZ 21742589 ES;Profi Meat s.r.o;Hovorčovická 128, Pakoměřice, 25065 Bořanovice;50.1789488;14.486975
CZ 21742611 ES;Meatster s.r.o.;Zahradní 360, 25261 Jeneč;49.1801208;15.4604363
CZ 21742624 ES;IVIČILI - sklad;Postupice č. p. 145, 25701 Postupice;49.7262188;14.7776125
CZ 21742635 ES;Gril servis s.r.o;Z Kopečka 80, 25084 Sibřina;50.0542375;14.6695
CZ 21742679 ES;BONSAN s.r.o.;Wolkerova 2766, Kročehlavy, 27201 Kladno;50.1276758;14.1083924
CZ 21742691 ES;ESA s.r.o.- chlazené depo Poděbrady;Skladištní 40/16, Poděbrady V, 29001 Poděbrady;50.155565;15.1186921
CZ 21742725 ES;Lokalmarket s.r.o.;K Třešňovce 1348, 25210 Mníšek pod Brdy;50.0608143;14.2816272
CZ 21742736 ES;Centrální sklad Modletice;Modletice č. p. 91, 25101 Modletice;49.976973400000006;14.600758894226555
CZ 21742747 ES;Distribuční sklad;Brandýská 775, 25090 Jirny;50.1379147;14.4325042
CZ 21742770 ES;Velká Pecka s.r.o. - Chrášťany;Severní 253, 25219 Chrášťany;50.0511814;14.25679
CZ 21742781 ES;SYMEONS s.r.o;Masarykova 125, 25088 Čelákovice;49.0977226;17.752115
CZ 21742815 ES;Hubka-Petrášek a vnuci s.r.o.;Bavoryně č. p. 227, 26751 Bavoryně;49.8993959;13.9630257
CZ 21742826 ES;PETMARK s.r.o;Průběžná 5, Hoštice, 25069 Vodochody;49.8472376;18.1812709
CZ 21742837 ES;ALLTRADE FOODS s.r.o.;Vídeňská 104, 25250 Vestec;49.9853063;14.4936975
CZ 21742848 ES;Závod na výrobu konzumních vajec Trnová u Dobříše;Trnová, 26301 Dobříš;50.0584531;15.7569583
CZ 21742859 ES;BOSS Production s.r.o.;Zahradní 360, 25261 Jeneč;49.1801208;15.4604363
CZ 21742860 ES;Boxxi logistics s.r.o.;Zahradní 360, 25261 Jeneč;49.1801208;15.4604363
CZ 21742871 ES;Bc. Daniel Kuklovský;Plzeňská 216, 26701 Králův Dvůr;49.9422813;14.02829
CZ 21742882 ES;Lahore Food s.r.o.;Zahradní 360, 25261 Jeneč;49.1801208;15.4604363
CZ 21770119 ES;FIMPED s.r.o.;Mírová 146/30, 28924 Milovice;50.2272543;14.8834342
CZ 21770153 ES;Crocodille ČR, spol. s.r.o., odštěpný závod Franchising;Tovární 386, 28129 Žiželice;50.1343608;15.4058325
CZ 21770164 ES;ALFA - FOOD s.r.o.;K Vinici 1378, Kolín V, 28002 Kolín;50.0374216;15.2221241
CZ 21770186 ES;HEROLD řeznické potřeby s.r.o.;Kuštova 2548, Rakovník II, 26901 Rakovník;50.100895;13.7162816
CZ 21770209 ES;HAS-Döner s.r.o.;Na Náměstí 18, 27716 Všetaty;50.2819026;14.5918563
CZ 21770210 ES;Original Shawarma;Boleslavská 23, Chrást, 27715 Tišice;50.3256926;14.93478
CZ 2178 ES;Jan RATAJ - řeznictví a uzenářství;Zdíkov č. p. 137, 38472 Zdíkov;49.08257425;13.696923931970574
CZ 218 ES;MADETA a.s.;Skrýšovská 1916, 39301 Pelhřimov;49.4186845;15.2235286
CZ 21810002 ES;Farma DRUHAZ, spol.s r.o.;Na Červeném Hrádku 793, 26401 Sedlčany;49.6540644;14.447909
CZ 21810057 ES;Jatky Bojmany s.r.o.;Bojmany č. p. 10, 28601 Žehušice;49.9631988;15.4381388
CZ 21810091 ES;Ing. Zdeněk Vojtěchovský;Ješín, 27324 Velvary;50.2637897;14.1907036
CZ 21810158 ES;Bruinsma Czech s.r.o.;Hradištko č. p. 700, 28912 Hradištko;50.1654685;14.9346584
CZ 21810169 ES;Tomáš Jelen;Žižice č. p. 16, 27401 Žižice;50.2469126;14.1547438
CZ 21810170 ES;Středočeská drůbež s.r.o.;Ke Hřbitovu 318, 28163 Vyžlovka;49.9891788;14.7938425
CZ 21810181 ES;Drůbeží porážka Lány;Lány parc.č. 1008, 27061 Lány;49.1661208;16.5807234
CZ 21810204 ES;Porážka drůbeže;Hoškovice, 29501 Mnichovo Hradiště;50.5323491;15.0024377
CZ 21810215 ES;FARMA MĚCHNOV a.s.;Měchnov č. p. 1, 25726 Divišov;49.7947321;14.8982787
CZ 21820058 ES;Porcovna čerstvé drůbeže;Kladruby č. p. 17, 25801 Kladruby;49.7214376;14.9474
CZ 21820081 ES;Vein s.r.o.;Pražská 47, Benátky nad Jizerou II, 29471 Benátky nad Jizerou;49.020974;14.499065
CZ 21820171 ES;MD MASO s.r.o;U školy 19, 25067 Klecany;50.1770022;14.4098408
CZ 21820182 ES;Basali.com s.r.o.;U Šestého 988, Dubí, 27203 Kladno;50.1562975;14.1369175
CZ 21820249 ES;HVK Maso s.r.o;Z Kopečka 80, 25084 Sibřina;50.0542375;14.6695
CZ 21836 ES;MILKI - TRANS s.r.o. - Moravské Grunt;Švábenice č. p. 119, 68323 Švábenice;49.2779173;17.1227733
CZ 21840061 ES;Eurowild s.r.o.;Chrudimská 1703, Čáslav-Nové Město, 28601 Čáslav;49.9130304;15.4030337
CZ 21840151 ES;Maxmilián;Hostín č. p. 5, 27732 Hostín;50.3419062;14.5901741
CZ 21840342 ES;Jiří Sternberg;Benešovská 1, 25701 Postupice;49.8518726;14.6751638
CZ 21840487 ES;Chladící zařízení;Olešovice 430, 25168 Kamenice;49.7439047;15.3381061
CZ 21840522 ES;Výkup zvěřiny a zpracování masa;Českolipská 2735, 27601 Mělník;50.3745266;14.466483
CZ 21840533 ES;Malokapacitní zpracovna zvěřiny;U Přehrady 471, 27353 Hostouň;50.1077606;14.2044241
CZ 21840544 ES;Myslivecký spolek Hubert Divišov;U Haltýře 299, 25726 Divišov;49.7898126;14.8708313
CZ 21840634 ES;Zařízení pro nakládání se zvěřinou LS Nouzov;Malé Kyšice č. p. 81, 27351 Malé Kyšice;50.0681513;14.0734138
CZ 21841051 ES;MS Svrkyně - Velké Přílepy;Svrkyně č. p. 93, 25264 Svrkyně;50.1723887;14.3011966
CZ 21841466 ES;Myslivecký spolek Bylanka - Chrášťany;282 01 Chrášťany 21;49.7439047;15.3381061
CZ 21841477 ES;Myslivecký spolek TUCHORAZ;281 63 Přehvozdí 62/2;49.7439047;15.3381061
CZ 21841499 ES;Lesy ČZU - honitba Bohumile;nám. Smiřických 1, 281 63 Kostelec nad Černými lesy;49.9957938;14.8624988
CZ 21841501 ES;Lesy ČZU - honitba Radlice;nám. Smiřických 1, 281 63 Kostelec nad Černými lesy;49.9957938;14.8624988
CZ 21841512 ES;Lesy ČZU - honitba Stříbrná Skalice - les;nám. Smiřických 1, 281 63 Kostelec nad Černými lesy;49.9957938;14.8624988
CZ 2185 ES;Žihelský statek, a.s., jatky;Černá Hať, 33141 Mladotice;50.0034099;13.3131767
CZ 21850231 ES;LAKTOS,a.s.;Krásná Hora nad Vltavou č. p. 125, 26256 Krásná Hora nad Vltavou;49.6037976;14.2762175
CZ 21850309 ES;Kozí zahrádka s.r.o.;Zahrádka č. ev. 4, 26255 Petrovice;49.4283529;14.6208432
CZ 21850310 ES;Bio Vavřinec s.r.o.;Okrouhlice č. ev. 27, 25601 Benešov;49.7910306;14.7509612
CZ 21850398 ES;BENEA s.r.o.;Křižíkova 1529, 25601 Benešov;49.7725201;14.6792317
CZ 21850433 ES;APOSTOLOV, s.r.o.;Zájezd č. p. 41, 27343 Zájezd;50.165369;14.2198504
CZ 21850455 ES;Mlékárna - výrobna sýrů;Bukol č. p. 41, 27745 Vojkovice;50.3150665;14.3939206
CZ 21850488 ES;LAKTOS,a.s.;Krásná Hora nad Vltavou č. p. 279, 26256 Krásná Hora nad Vltavou;49.6076304;14.2847493
CZ 21850501 ES;Mlékárna Zlatníky;Libeňská 60, Zlatníky, 25241 Zlatníky-Hodkovice;50.3646525;14.6350138
CZ 21850534 ES;Mlékárna Ohaře;Ohaře č. p. 160, 28130 Ohaře;50.0957155;15.2951276
CZ 21850613 ES;Sýrárna a mlékárna Slapy;Slapy č. p. 425, 25208 Slapy;49.8133713;14.3956712
CZ 21850624 ES;mlékárna;Strojetice č. p. 91, 25765 Strojetice;49.6526663;15.0643763
CZ 21850668 ES;FARNEMA s.r.o.;Kostelní Lhota č. p. 7, 28912 Kostelní Lhota;50.1292334;15.0312683
CZ 21850770 ES;Budulínkův Mls;Hořín č. p. 107, 27601 Hořín;50.3432879;14.4646555
CZ 21850781 ES;Výrobna Mozzarelly;Hole č. p. 11, 25264 Svrkyně;49.7439047;15.3381061
CZ 21850826 ES;Rodinná sýrárna Liblice;Liblice č. p. 172, 27732 Liblice;50.3152518;14.58883
CZ 21850860 ES;Čerstvě nadojeno s.r.o.;Nový Knín č. p. 153, 26203 Nový Knín;49.7974669;14.3034285
CZ 21850871 ES;ZRUČné dobroty;Zámek 1, 28522 Zruč nad Sázavou;49.8584825;13.762302815599657
CZ 21850893 ES;Sýrárna Háje;Háje č. p. 1, 26301 Hřiměždice;49.6711619;14.0516148
CZ 21850927 ES;Sýrárna JAGA;Severní 391, 28907 Libice nad Cidlinou;50.1325557;15.1810737
CZ 21850972 ES;FARMA U SVATÉ ANNY;Brázdimská 936/23, Brandýs nad Labem, 25001 Brandýs nad Labem-Stará Boleslav;50.1882419;14.6348947
CZ 21851007 ES;AGRO PODLESÍ, a.s.;Červené Janovice č. p. 55, 28542 Červené Janovice;49.8350082;15.2525596
CZ 21851029 ES;Sýrožrouti s.r.o.;Letců R. A. F. 2163, 28802 Nymburk;50.1887718;15.0289229
CZ 21851041 ES;Adéla Blechová;Palackého 20, 25229 Dobřichovice;48.7652519;14.0359096
CZ 21870008 ES;ATLANTIK PRODUKT Třešňák s.r.o.;Kňovická 1249, 26401 Sedlčany;49.6649764;14.420769
CZ 21870132 ES;MAKRO Cash & Carry ČR s.r.o.;Makro ČR s.r.o., 25101 Říčany u Prahy;49.7439047;15.3381061
CZ 21870200 ES;Dita Marešová;Sluhy č. p. 13, 25063 Sluhy;50.1913459;14.557761
CZ 21870288 ES;Prague Fish s.r.o.;Tř. 5. května 1082, 28911 Pečky;50.0813463;15.0217328
CZ 21870312 ES;HOPI CEE FISH HUB s.r.o.;Zděbradská 74, Jažlovice, 25101 Říčany;49.9685246;14.6165161
CZ 21880010 ES;Václav Matoušek;Mračská 1, 25722 Čerčany;49.8465838;14.7051113
CZ 21880087 ES;OVUS-podnik živočišné výroby, spol. s r.o.;Těhul 169, Kvíc, 27401 Slaný;50.2047738;14.0690938
CZ 21880199 ES;Josef Dvořák;Náves sv. Petra a Pavla 14, Zlatníky, 25241 Zlatníky-Hodkovice;49.9585976;14.481235
CZ 21880201 ES;Petr Kubát;Jezero č. p. 18, 25601 Struhařov;49.7742238;14.7807799
CZ 21880223 ES;Jaroslav Mrázek;Dobré Pole u Vitic, 28163 Vitice;49.7439047;15.3381061
CZ 21880234 ES;Bohunka Brýnová - Kokoland společenství;Blanická 82, 25701 Postupice;49.7270926;14.7794863
CZ 21880267 ES;Dvůr Kostomlaty s.r.o.;9. května 263, 28921 Kostomlaty nad Labem;49.1525401;14.9971247
CZ 21880278 ES;Bc.Ondřej Bačina - AGROSSYN;Hoštická 14, 25069 Klíčany;50.2013225;14.4315524
CZ 21880289 ES;Unikom,a.s.-třídírna a balírna vajec Markovice;Markovice č. p. 410, 28601 Žleby;49.8951525;15.4451275
CZ 21880290 ES;Jan Král;Břežany II č. p. 23, 28201 Břežany II;50.0928892;14.8027983
CZ 21880324 ES;Nguyen Xuan HAI - třídírna a balírna křepelčích vajec;Bučovice č. p. 19, 25901 Votice;49.6353013;14.5561136
CZ 21880335 ES;Farma od Želivky, s.r.o.;Hulice č. p. 10, 25763 Hulice;49.7079463;15.08539
CZ 21880346 ES;Třídírna a prodejna vajec-Dobřejovice;U zámku 218, Dobřejovice;49.9834725;14.5780613
CZ 21880357 ES;Velkostatek Tetín s.r.o.;sady Míru 344, Leč, 26727 Liteň;49.8911388;14.1574338
CZ 21880368 ES;Tomáš Paták - třídírna a balírna vajec;Sledovice. parc. č. 36/1, 257 54 Vojkov;49.7439047;15.3381061
CZ 219 ES;Bohušovická mlékárna a.s.;Bohušovice nad Ohří, Brňany 125, 41156 Bohušovice nad Ohří;50.4873976;14.1476892
CZ 21910014 ES;JATKY Český Brod a.s.;Jateční 316, 28201 Český Brod;50.0705788;14.8660224
CZ 21910070 ES;JATKY TISMICE, s.r.o.;Tismice č. p. 14, 28201 Tismice;50.0576199;14.8208485
CZ 21910148 ES;Jiří Klán - Řeznictví a uzenářství;Praskolesy 27, 26754 Praskolesy;49.8660276;13.9335638
CZ 21910160 ES;Jan Konderla;Čelivo č. p. 20, 25701 Postupice;49.6928312;14.8043679
CZ 21910171 ES;JATKA Jeníkov;Jeníkov č. p. 64, 25765 Čechtice;49.7414413;15.9564363
CZ 21910182 ES;TIME s.r.o.;Potěhy č. p. 209, 28563 Potěhy;49.8700033;15.4219795
CZ 21910205 ES;Jatky Verner;Karlovice č. p. 1, 28504 Úžice;49.8864992;14.9701263
CZ 21910249 ES;Jaroslav Novák st.-Řez. a uzen.U Nováků;Kořenice č. p. 64, 28002 Kořenice;49.9779339;15.1400517
CZ 21910261 ES;Vladimír Goldšmíd;budova bez č.p.v areálu jatek na parc.č.4/7 , Charvatce, 29445 Jabkenice;49.7439047;15.3381061
CZ 21910306 ES;Czernin AGRO  s.r.o.;Činěves č. p. 56, 28901 Činěves;50.2303159;15.2124924
CZ 21910328 ES;Jan Klepiš - řeznictví a uzenářství;Žíšov č. p. 13, 28504 Vavřinec;49.9030313;15.0645038
CZ 21910407 ES;FIALA Milovice s.r.o.;Mírová 146/30, 28924 Milovice;50.2272543;14.8834342
CZ 21910429 ES;Leoš Holub;Červený Hrádek č. p. 13, 28504 Bečváry;49.1226652;15.5414937
CZ 21910474 ES;Václav Holý;Malovarská 275, 27324 Velvary;50.2784747;14.2286529
CZ 21910496 ES;KUKBURG JATKA KUCHAŘ;Karla IV. 73, Kuchař, 26716 Vysoký Újezd;50.0342794;15.7799227
CZ 21910508 ES;Maso domů - OCG s.r.o.;Karlovarská třída 62, 27301 Kamenné Žehrovice;50.1291575;14.0209575
CZ 21910519 ES;LOUDY s.r.o.;Seletice č. p. 160, 28934 Seletice;50.3177386;15.1007299
CZ 21910531 ES;MASNA Rosovice s.r.o.;Rosovice č. p. 264, 26211 Rosovice;49.7537307;14.1123497
CZ 21910542 ES;Šulc Ivo;Čečelická 211, 27716 Všetaty;50.285955;14.5931638
CZ 21910553 ES;MARKO Family Farm s.r.o.;Ouběnice č. p. 86, 26301 Dobříš;49.7439047;15.3381061
CZ 21910564 ES;Porážka jatečných zvířat;parc.č. 164 - zemědělský areál;49.7439047;15.3381061
CZ 21910575 ES;Velkostatek Tetín - JATKY;náměstí Kněžny Ludmily 1, 26601 Tetín;49.9494976;14.10086889939367
CZ 21910586 ES;BIOFARMA DRÁB, s.r.o.;Dolní Bezděkov u Kladna parc. č. 199/16, 27362 Bratronice;50.0848301;14.0374313
CZ 21910597 ES;Mlékárna a jatky Ekofarma Kosařův mlýn, s.r.o.;Nový Knín č. p. 153, 26203 Nový Knín;49.7974669;14.3034285
CZ 21910609 ES;Jan Počepický;Vlčkovice č. p. 1, 25703 Neustupov;49.6318396;14.7160343
CZ 21910610 ES;Faremní areál Fox Meadows, Přívlaky;Samopše, 28506 Samopše;49.8610352;14.9159348
CZ 21910621 ES;Statek Slapy, družstvo;Slapy č. p. 425, 25208 Slapy;49.8133713;14.3956712
CZ 21912 ES;FITaFER, s. r. o.;Rašovice č. p. 70, 51721 Týniště nad Orlicí;49.8814032;15.1010727
CZ 21914 ES;Farma Třebešov;Třebešov č. p. 1, 51601 Třebešov;50.16896;16.2073688
CZ 21920059 ES;TORAFLEISCH  s r.o.;Radimovice č. p. 14, 25169 Petříkov;50.6265738;15.07999
CZ 21920161 ES;PRAVE Rakovník, akciová společnost;Na Spravedlnosti 1893, Rakovník II, 26901 Rakovník;50.100739;13.7479748
CZ 21920228 ES;Pavel Šubrt;Družstevní 267, 25741 Týnec nad Sázavou;49.4278299;14.6841518
CZ 21920262 ES;Miroslav Doležal;Záboří nad Labem 10, 28574 Záboří nad Labem;49.7439047;15.3381061
CZ 21920284 ES;ŘEZNICTVÍ -  UZENÁŘSTVÍ HORKÝ JAROMÍR;Svobody 267, Dolní Bučice, 28571 Vrdy;49.9247938;15.465305
CZ 21920330 ES;Petr Moudrý;Nečín č. p. 194, 26213 Nečín;49.7006795;14.2336904
CZ 21920374 ES;Jan Klepiš - řeznictví a uzenářství;Václavské náměstí 188, 28504 Uhlířské Janovice;50.1464083;13.6331654
CZ 21920431 ES;Maso Čáslav s.r.o.;Pod Nádražím 1796, Čáslav-Nové Město, 28601 Čáslav;49.9141701;15.403123
CZ 21920442 ES;Zdeněk Absolon s.r.o.;Dlouhá Lhota č. p. 9, 25756 Maršovice;49.7395586;14.5955191
CZ 21920509 ES;MASI-CO s.r.o.;Zahradní 466, 25064 Měšice;50.1884018;13.806008
CZ 21920587 ES;Jatka Janovice, spol. s r.o.;Červené Janovice č. p. 55, 28542 Červené Janovice;49.8350082;15.2525596
CZ 21920598 ES;MASO  BOUSOV s.r.o.;Horní Bousov č. p. 9, 29404 Dolní Bousov;50.4604197;15.1135509
CZ 21920633 ES;Ondřej Zlámal, Kodetova;Kodetova 243, 25265 Tursko;50.1901656;14.3174056
CZ 21920644 ES;Miloš Křeček KK, s.r.o.;Sedlecká 99/99, 25069 Klíčany;49.7623864;13.3498942
CZ 21920655 ES;Zdeněk Hendrich s.r.o.;Čsl. armády 346, 27051 Lužná;49.7835171;14.2078632
CZ 21920666 ES;1. jílovská bourárna;Čs. armády 547, 25401 Jílové u Prahy;49.8940163;14.499965
CZ 21920677 ES;Ing. Luboš Vrtilka;Skřivaň č. p. 66, 27021 Pavlíkov;50.0236462;13.7618675
CZ 21920699 ES;Libor Procházka;Hlavní 12, 27351 Horní Bezděkov;49.748587;13.514484
CZ 21920701 ES;Ing. Karel Horák;Choťovice č. p. 134, 28905 Choťovice;50.1406269;15.3266721
CZ 21920712 ES;RENA FOOD s.r.o. bourárna červeného masa;Čechova 908, 29401 Bakov nad Jizerou;50.4863926;14.9427913
CZ 21920723 ES;Václav Vilímovský;Vlašimská 276, 25763 Trhový Štěpánov;49.7127151;15.0078888
CZ 21920745 ES;Bourárna masa s expedicí;Zehuby č. p. 23, 28601 Žleby;49.8713801;15.4782838
CZ 21920778 ES;Masovýroba;Jestřebice č. p. 11, 25789 Heřmaničky;49.6225744;14.6168349
CZ 21920802 ES;maso-food s.r.o;Pražská 268, 25162 Mukařov;49.24828985;13.544105494923521
CZ 21920813 ES;ONDEPO service s.r.o.;Masarykova 93, 25163 Velké Popovice;50.1612575;13.9886588
CZ 21920835 ES;I N T E G R O a.s.;Velká Chmelištná parc. č. 408, 27034 Velká Chmelištná;49.7439047;15.3381061
CZ 21920846 ES;Jaroslava Juhász /JaMi;Pražská 95, 28912 Sadská;50.356974;13.7981043
CZ 21920857 ES;Maso Market Servis;Komerční 546, 25101 Nupaky;49.9885009;14.5982103
CZ 21920868 ES;Bourárna a jatka;Minartice č. p. 8, 25753 Vojkov;49.6678624;14.5319345
CZ 21920879 ES;Pavel Provazník;Komerční 549, 25101 Nupaky;49.8519869;18.2986977
CZ 21920880 ES;Maso z pastvin s.r.o.;Hradové Střimelice č. p. 38, 28163 Stříbrná Skalice;49.9019538;14.8160988
CZ 21920891 ES;BUFFALO FARM s.r.o.;Kralupy nad Vltavou parc. č. st. 587, 27801 Kralupy nad Vltavou;49.7439047;15.3381061
CZ 21920903 ES;Maso z Kozmic s.r.o.;Kozmice č. p. 79, 25601 Kozmice;49.8263213;14.79654
CZ 21930016 ES;MASNÉ KRÁMY s.r.o.;Pražská 1934, 27401 Slaný;50.2282559;14.104876
CZ 21931589 ES;Stanislav Chvapil;Řisuty č. p. 71, 27378 Řisuty;50.2168676;14.0061338
CZ 21931590 ES;Roman Sova;Podlešín, 27325 Podlešín;50.2181865;14.1557685
CZ 21931815 ES;Jiří Kozojed - Řeznictví a uzenářství;Ke Dvoru 340, 25241 Dolní Břežany;49.9602834;14.4563927
CZ 21931837 ES;Maso Dvořáčkovi s.r.o.;Kněžičky č. p. 7, 28908 Kněžičky;50.1748257;15.3457691
CZ 21931859 ES;JUPITER center, s.r.o.;Janov č. p. 76, 27006 Janov;50.2107511;13.6389537
CZ 21932030 ES;Pivovar Bohdaneč s.r.o.;Bohdaneč č. p. 3, 28525 Bohdaneč;49.7782968;15.2233707
CZ 21940051 ES;Lahůdky Vojkov, s.r.o.;Vojkov č. p. 20, 25753 Vojkov;49.6526838;14.5204088
CZ 21940309 ES;JMS spol.s.r.o.;Toušeňská 432, 25081 Nehvizdy;50.1321726;14.7280988
CZ 21940376 ES;GT, s.r.o.;Semice č. p. 140, 28917 Semice;50.1639353;14.8753267
CZ 21940387 ES;Vladimír Goldšmíd;Hřbitovní 226/14, 27732 Čečelice;50.2918463;14.617475
CZ 21940398 ES;LE&CO - Ing. Jiří Lenc, s.r.o.;Průmyslová zona, 25090 Jirny;49.8949327;13.9490718
CZ 21940411 ES;Martin Růzha;Pražská 226/6, 27601 Mělník;50.3502956;14.4779889
CZ 21940422 ES;Maspoma CZ spol. s r.o.;Benešovská 279, 25726 Divišov;49.7900451;14.8695562
CZ 21940444 ES;Jan Vrábík;Václavské náměstí 122, 27001 Kněževes;50.146766;13.6367863
CZ 21940499 ES;ŘEZNICTVÍ A UZENÁŘSTVÍ - Michal  Vtelenský;Lhotecká 292, 27714 Dřísy;50.2509675;14.6453
CZ 21940523 ES;PK ham spol. s r.o.;Tř. 5. května 1024, 28911 Pečky;50.0878141;15.0291819
CZ 21940545 ES;Lahůdky Příbram s.r.o.;Lhota u Příbramě č. p. 79, 26101 Lhota u Příbramě;49.7101612;13.9800383
CZ 21940556 ES;PROAGRO Nymburk a.s.;Jateční 344, 28903 Městec Králové;50.2059671;15.3033086
CZ 21940578 ES;RS maso CZ, s.r.o.;Kozomín č. p. 500, 27745 Kozomín;50.2362888;14.3707625
CZ 21940590 ES;TAUC spol. s r.o.;Vojtěcha Dundra 1385, Švermov, 27309 Kladno;50.1654075;14.1148338
CZ 21940646 ES;Kukburg Capital a.s. - Vonoklasy výrobna;Lesní 100, 25228 Vonoklasy;49.9462963;14.2747138
CZ 21940679 ES;BURGR JAKO KRÁVA s.r.o.;Náměstí 339, 28123 Starý Kolín;50.0099206;15.2940303
CZ 21940680 ES;Křupavá kachna;Bukov č. p. 1, 27004 Hořovičky;49.4533863;16.2215613
CZ 21940691 ES;Baker`s House s.r.o.;Vojkovice č. p. 120, 27744 Vojkovice;50.2970257;14.370333850000002
CZ 21940703 ES;Pavel Šťástka;Prostřední Lhota č. p. 24, 26203 Chotilsko;49.7538189;14.3374817
CZ 21940714 ES;MINAVI s.r.o.;Bukov č. p. 1, 27004 Hořovičky;49.4533863;16.2215613
CZ 21940725 ES;Max Food SE;Za Tratí 235, 25219 Chrášťany;50.0373414;14.2492815
CZ 21940770 ES;TP Invest s.r.o.;Nad Zastávkou 757, 25246 Vrané nad Vltavou;49.9197657;14.3785371
CZ 21940826 ES;LAHŮDKY-PALMA spol.s.r.o;Hlavní 291, 25166 Senohraby;49.7503579;13.5152388
CZ 21940837 ES;PELMEN.CZ;Sklenářka 1507/2a, 26801 Hořovice;49.8429663;13.8938363
CZ 21940859 ES;Karel Čech;Nádražní 125, 27371 Zlonice;49.52451465;12.937436428911047
CZ 21940871 ES;DOBROTY KAČENA;Tyršovo náměstí 31, 26724 Hostomice;49.8258526;14.0452563
CZ 21940882 ES;AD Výroba potravin s.r.o.;Bukov u Hořoviček parc. č. st. 43/1, 27004 Hořovičky;49.7439047;15.3381061
CZ 21940893 ES;Petr Kratochvíl;Dělnická 749, 25301 Hostivice;49.7779175;17.7559013
CZ 21940905 ES;KEBAB KURD s.r.o.;Buštěhradská 260, Dubí, 27203 Kladno;50.1502026;14.1522863
CZ 21940938 ES;Výrobna uzeného drůbežího masa;Nádražní 401, 25763 Trhový Štěpánov;49.2556816;13.9133992
CZ 21940983 ES;ŘEZNICTVÍ - UZENÁŘSTVÍ L. HOLUB;Červený Hrádek č. p. 14, 28504 Bečváry;49.1230124;15.5395863
CZ 21940994 ES;Masná výrobna;Nádražní 401, 25763 Trhový Štěpánov;49.2556816;13.9133992
CZ 21941007 ES;Meat Import s.r.o.;U Šestého 988, Dubí, 27203 Kladno;50.1562975;14.1369175
CZ 21941018 ES;Na Staré Rychtě;náměstí Obránců míru 60, 28101 Velim;50.0597084;15.1080948
CZ 21941041 ES;Biltong s.r.o.;Pražská 95, 25230 Řevnice;50.356974;13.7981043
CZ 21941052 ES;Uzenářství u Baštů;Zalužany č. p. 55, 26284 Zalužany;49.5445461;14.0850035
CZ 21941085 ES;Hostinec U Jarošů;Svojšice č. p. 121, 28107 Svojšice;50.0032592;15.0446917
CZ 21941108 ES;Akonzerva s.r.o.;Zahradní 359, 25261 Jeneč;49.179713;15.4621406
CZ 21941119 ES;Red Meat;Náměstí Karla Buriana 55, 27031 Senomaty;50.097939;13.6546718
CZ 21941120 ES;MALIK TRADING.CO s.r.o.;Šillingerova 93, 26761 Cerhovice;49.8533788;13.8365563
CZ 2195 ES;JATKA Vodňany a.s.;U Jatek 348, Vodňany II, 38901 Vodňany;49.1568988;14.1739918
CZ 2197 ES;Bivoj a.s.;Jateční 2884/23a, Předměstí, 74601 Opava;49.9310888;17.92305
CZ 21970054 ES;Vladislav Kalaš;Bělokozly č. p. 16, 28506 Sázava;49.8499838;14.8988475
CZ 21970098 ES;GURMÁN KLUB, s.r.o.;Karlovarská třída 532, 27301 Kamenné Žehrovice;50.1288538;14.0244813
CZ 21970245 ES;Jatka Vysoký Chlumec;Vysoký Chlumec, 26252 Vysoký Chlumec;49.6170362;14.39212910497212
CZ 21970818 ES;GALAXXY FOOD s.r.o.;Trpoměchy č. p. 42, 27401 Slaný;50.2490911;14.0610376
CZ 21970829 ES;PVA Produkt s.r.o.;Třinecká 1220, 27343 Buštěhrad;50.1518818;14.1561494
CZ 21990810 ES;Robert Mikoláš - Farma Mikolášovi;Dolní Požáry č. p. 1, 25742 Krhanice;49.8552913;14.57169
CZ 21995646 ES;AGRO Jesenice u Prahy, a.s.;Hodkovice u Zlatníků, 25241 Zlatníky-Hodkovice;49.7439047;15.3381061
CZ 21P02282 ES;Fat Brothers s.r.o.;Komenského 40, 28141 Ratboř;49.3994716;15.5891469
CZ 21P02743 ES;RABBIT Trhový Štěpánov a.s., řeznictví RABBIT Kolín;Kutnohorská 94, Kolín IV, 28002 Kolín;50.0271226;15.2031132
CZ 220 ES;Mlékárna Olešnice a.s.;Tržní 376, 67974 Olešnice;49.5592063;16.4264888
CZ 22057 ES;Jiří Jelínek - Výrobna studených pokrmů;Lidická 1871/32, Černá Pole, 60200 Brno;49.2026147;16.6075051
CZ 221 ES;Jaroměřická mlékárna, a.s.;Kaunicova 198, 67551 Jaroměřice nad Rokytnou;49.0926883;15.8809922
CZ 222 ES;TIPAFROST, a.s.;Žďárského 188, 67401 Kožichovice;49.2062028;15.9071795
CZ 223 ES;BEL Sýry Česko a.s.;Pražská 218, 67526 Želetava;49.9544287;16.1590162
CZ 22319 ES;Deli Farm;Karlštejnská 121, Černošice;49.9222801;14.2490438
CZ 22321 ES;BILLA, spo. s r.o.;Řevnická 1109, 25210 Mníšek pod Brdy;49.86839335;14.266769268910904
CZ 22329 ES;Lidl Průhonice;Uhříněveská 850, 25243 Průhonice;50.0043195;14.56601812037962
CZ 22330 ES;Petr Prošek;Velvarská 411, 25262 Horoměřice;50.1316972;14.3398156
CZ 22340 ES;BILLA Vestec;Vídeňská, 25250 Vestec;50.0177084;14.4678239
CZ 22351 ES;EUROENTER  FOOD s.r.o.;Hora Svatého Šebestiána č. p. 4, 43182 Hora Svatého Šebestiána;50.5110629;13.2519307
CZ 22353 ES;Jaroslav Kuzma;Čejkovice č. p. 11, 43801 Libědice;49.7905926;15.3509088
CZ 22403 ES;Uzeniny Beta-Prodejna Brandýs n/L;Pražská 70, 25001 Brandýs nad Labem;50.0197668;15.730847
CZ 22405 ES;ŠUPINKA & PLOUTVIČKA;Západní 192, 25163 Kunice;49.9347261;14.6684148
CZ 22435 ES;Kaufland  Česká republika v.o.s.;Zápská 2600, Brandýs nad Labem, 25001 Brandýs nad Labem-Stará Boleslav;50.178537500000004;14.66869680744569
CZ 22436 ES;DELMART s.r.o Čestlice;U Makra 123, 25101 Čestlice;50.006255;14.5730063
CZ 22442 ES;JIP východočeská, a.s.;Hovorčovická 128, Pakoměřice, 25065 Bořanovice;50.1789488;14.486975
CZ 22448 ES;BILLA spol.s.r.o.,fil.č.104;Obchodní 1919/12, 25101 Říčany;50.0056585;14.6540324
CZ 22450 ES;BILLA,spol.s.r.o;Škvorecká 2000, 25082 Úvaly;50.0670596;14.7363099
CZ 22675 ES;Andrej Tlustý - Masná výrobna;Pekařská 88, 69144 Lednice;49.1917374;16.5964334
CZ 22678 ES;Ing. Bc. Dalibor Cichý, MBA - faremní minimlékárna Kozí ráj;Svatoborská 365/17, 69701 Kyjov;49.00864369999999;17.121629660275737
CZ 228 ES;Tavírna sýrů Salix s.r.o.;Chotusice č. p. 11, 28576 Chotusice;49.9490776;15.3941438
CZ 22941 ES;Living spoon, s. r. o.;Mladé Buky č. p. 264, 54223 Mladé Buky;50.6030988;15.8533438
CZ 22946 ES;Lev Hides s. r. o.;Kladská 539, Poříčí, 54103 Trutnov;50.559555;15.96759
CZ 22952 ES;Roman Kroupa - Sýrárna Dolní Dunajovice;Rudé armády 21, 69185 Dolní Dunajovice;50.1813876;14.0511687
CZ 22953 ES;Farma Pálava s.r.o. - Faremní mlékárna;Mušlov 1705/30, 69201 Mikulov;48.7991632;16.6858848
CZ 22956 ES;BETULA PENDULA s.r.o.;Zahradní 400/1, 66441 Troubsko;49.1735008;16.5075497
CZ 22999 ES;Lenka Klíčová - minimlékárna Božice;Božice č. p. 380, 67164 Božice;48.8342701;16.2868963
CZ 23165 ES;AG MAIWALD a.s. - Drůbežárna Velký Dvůr;Velký Dvůr 861, 69123 Pohořelice;48.9640027;16.5260499
CZ 23166 ES;Slunce Impex s.r.o. - Balkánské speciality;Bayerova 581/11, Veveří, 60200 Brno;49.2066137;16.6017916
CZ 23273 ES;Jatka Kolář;Čertyně č. p. 31, 38232 Dolní Třebonín;48.8874549;14.3918125
CZ 233 ES;Mlékárna Čejetičky, spol. s.r.o.;Nádražní 14, Čejetičky, 29301 Mladá Boleslav;50.4062559;14.8908697
CZ 23365 ES;Marek Chalupa - Edosushi;Na Rybníkách 216, 66499 Silůvky;49.1035836;16.469363
CZ 23373 ES;ZD Vícov - sklad masa a uzenin;Vyhnálov 741/63, Mistřín, 69604 Svatobořice-Mistřín;48.9681371;17.0870409
CZ 23380 ES;Zuzana Moučková - kozí farma Drysice - minimlékárna;Drysice č. p. 110, 68321 Drysice;49.3361868;17.0541668
CZ 242 ES;Jatka Ivančice, s.r.o.;U jatek 1020/3, 66491 Ivančice;49.0983095;16.3810185
CZ 243 ES;Agro MONET, a.s.;Těšany, 66454 Těšany;49.0392378;16.7708089
CZ 246 ES;Steinhauser, s.r.o.;Karasova 378, 66601 Tišnov 1;49.3424505;16.422182
CZ 247 ES;HADAČ a ZAPLETAL, s.r.o.;Na Mýtě 1180, 66501 Rosice;49.1834557;16.3804068
CZ 25074 ES;POCTIVÁ MORAVSKÁ - sociální podnik, a.s.;Velkomoravská 4265/87c, 69501 Hodonín;48.8491333;17.1047669
CZ 25075 ES;Dušan Klimeš - Sýrárna Mikulov;Brněnská 339/10, 69201 Mikulov;48.8085217;16.6370181
CZ 25204 ES;hamham.cz s. r. o.;Československé armády 408/51, 50003 Hradec Králové;50.2124869;15.836895
CZ 25213 ES;EUROICE food s.r.o.;Březhradská 148/3, Březhrad, 50332 Hradec Králové;50.173174;15.7975803
CZ 25230 ES;Bidfood Czech Republic s. r. o.;Spravedlnost 905, Chlumec nad Cidlinou IV, 50351 Chlumec nad Cidlinou;50.1695876;15.4496903
CZ 25608 ES;Miroslav Mecerod - Vinotéka Slunce;Dělnická 203, 66501 Rosice;49.1820835;16.3938682
CZ 25620 ES;Steinhauser, s.r.o. - jatky Skalice nad Svitavou;Skalice nad Svitavou č. p. 169, 67901 Skalice nad Svitavou;49.4865487;16.6018267
CZ 25627 ES;Luboš Valtr - Sklad a bourárna masa;Ke Hřišti 353, 66408 Blažovice;49.1690161;16.7835225
CZ 25966 ES;ESA s.r.o. - sklad Ostrava;Lihovarská 692/40c, Kunčičky, 71800 Ostrava;49.8103855;18.3109415
CZ 26044 ES;Oleg Šuťak - pojízdná prodejna;SNP 484/72, Charvátská Nová Ves, 69006 Břeclav;48.7682324;16.8437841
CZ 26101 ES;BILLA,spol.s.r.o,fil.154;Revoluční 1412, 25092 Šestajovice;50.1154785;14.6770298
CZ 26102 ES;Mnichovické řeznictví;Masarykovo náměstí 31, 25164 Mnichovice;49.4306142;15.2239812
CZ 26221 ES;mcePharma s. r. o.;Budovatelská 1187/36, 74301 Bílovec;49.7526029;18.0156191
CZ 272 ES;ZÁTOR - AGROZAT s.r.o., Jatky Světlá Hora;Světlá č. p. 331, 79331 Světlá Hora;49.2112026;17.3326264
CZ 283 ES;JABOR, spol. s r.o. - Řeznictví uzenářství JATKA Borkovany;Borkovany č. p. 206, 69175 Borkovany;49.02717;16.8113463
CZ 299 ES;Jihočeská masna, s.r.o.;Pražská tř. 530, České Budějovice 3, 37004 České Budějovice;48.9916243;14.4756555
CZ 3003 ES;Fjord Bohemia s.r.o.;Čakovice, Za Avií 2, 19600 Praha 96;50.1498626;14.5124517
CZ 302 ES;Maso Jičín  s. r.o.;Konecchlumského 1075, Valdické Předměstí, 50601 Jičín;50.4302577;15.3708495
CZ 3021 ES;HELEB spol. s r.o.;Kutnohorská 288/82, Dolní Měcholupy, 11101 Praha 10;49.8165504;18.1859343
CZ 3059 ES;Řeznictví Marešovi s r.o.;9. května 22/26, 25092 Šestajovice;50.1106088;14.6792363
CZ 3066 ES;Zámecká výrobna uzenin spol.s.r.o;Říčany u Prahy, Modletice 1, 25170 Říčany u Prahy;48.9762252;15.4560174
CZ 3080 ES;Novák maso - uzeniny;Pod Lihovarem 2055/4, 25101 Říčany;49.9984039;14.6570697
CZ 3084 ES;HOPI s.r.o.;Zděbradská 74, Jažlovice, 25101 Říčany;49.9685246;14.6165161
CZ 3086 ES;Penny Market Obchodní společnost s.r.o.;Družstevní 353, 25090 Jirny;50.3659151;14.9611495
CZ 3089 ES;NĚMCOVA SELSKÁ MLÉKÁRNA RADONICE,společnost s ručením omezeným;Vinořská 254, 25073 Radonice;50.1430897;14.5909592
CZ 309 ES;FrostFood a.s.;Kasárna č. ev. 41, 51761 Rokytnice v Orlických horách;48.8927388;15.9989012
CZ 310 ES;Devro s.r.o.;Víchovská 830, Hrabačov, 51401 Jilemnice;50.6239577;15.4972045
CZ 314 ES;Slovácká Fruta, a.s.;Na Drahách 814, 68604 Kunovice;49.0500544;17.4677219
CZ 3141 ES;NEKTON- Vrňata s.r.o.;Plavecká 382, 25242 Jesenice;49.97284;14.5158875
CZ 3146 ES;Madeta  a.s.;Krajní 680, 25242 Jesenice;49.9669927;14.5283199
CZ 3149 ES;VINACORP, s.r.o.;Nádražní 272, 25301 Hostivice;49.1503363;15.0021036
CZ 316 ES;Jatka Zbiroh spol. s r.o.;Bezručova 347, 33808 Zbiroh;50.0963604;13.476986
CZ 31740005 ES;Velkoobchodní sklad  Soběslav;Na Pískách 473, Soběslav II, 39201 Soběslav;49.2557461;14.7287865
CZ 31740038 ES;FLOSMAN a.s.;Dubina č. p. 551, 39143 Mladá Vožice;49.5194682;14.8087073
CZ 31740162 ES;ALIMPEX FOOD a.s.;Vřesová 518/9, České Budějovice 4, 37001 České Budějovice;48.9824812;14.511559
CZ 31740184 ES;ML Kratochvíl spol. s r.o.;Bohunice č. p. 35, 38422 Bohunice;49.1291802;13.9720579
CZ 31740195 ES;GOLDIM spol.s r.o.;Zátkova 498, Soběslav II, 39201 Soběslav;49.2527246;14.7248579
CZ 31740230 ES;DUTCH BUDDY;Dolní Novosedly č. p. 21, 39701 Dolní Novosedly;49.3292931;14.1972676
CZ 31740241 ES;Velkosklad České Budějovice;Trocnovská 110/2, České Budějovice 4, 37004 České Budějovice;48.9847554;14.4891922
CZ 31740252 ES;VRTAL s.r.o.;Vrbenská 97/16, České Budějovice 5, 37006 České Budějovice;48.9749638;14.5075975
CZ 31740274 ES;WSmeat s.r.o.;Střížovická 251, 37862 Kunžak;49.1237449;15.1861645
CZ 31740285 ES;MADETA a.s., sklad sušeného mléka;Rudolfovská tř. 246/83, České Budějovice 4, 37001 České Budějovice;48.98002;14.4946272
CZ 31740296 ES;MASUZ s.r.o.;Václavská 436, Strakonice II, 38601 Strakonice;49.251401;13.9174559
CZ 31740308 ES;VAREPO s.r.o.;Průmyslová 205, Červené Záhoří, 39137 Chotoviny;49.4703965;14.6664287
CZ 31740319 ES;Distribuční a logistický sklad;Hlinsko č. p. 47, 37001 Rudolfov;49.4932417;17.5762165
CZ 31740353 ES;CORNET cz s.r.o.;Chýnovská 535, 39111 Planá nad Lužnicí;49.3590653;14.7117884
CZ 31740386 ES;AGRO - CB, spol. s r.o.;Nádražní 385, 37816 Lomnice nad Lužnicí;49.8376424;18.2854095
CZ 31740421 ES;Bidfood Czech Republic s.r.o.;Planá č. p. 100, 37001 Planá;48.9435693;14.4567534
CZ 31740500 ES;ALDA Foods s.r.o.;Dražice č. p. 51, 39131 Dražice;50.3033488;14.8421525
CZ 318 ES;Kostelecké uzeniny a.s.;Skyřická 1, Velebudice, 43401 Most;50.4827039;13.6590961
CZ 31810025 ES;Malá porážka drůbeže;Nestanice, 38901 Libějovice;49.1025976;14.1982754
CZ 31810036 ES;Borovany - porážka drůbeže;Vodárenská 97, 37312 Borovany;48.9046098;14.642267
CZ 31820037 ES;Expres Dönner und Fleisch s.r.o.;K Jatkám 1504, 38801 Blatná;49.4208371;13.8863976
CZ 31840130 ES;Zařízení pro nakládání se zvěřinou Chvalšiny;Chvalšiny č. p. 251, 38208 Chvalšiny;48.8544879;14.2067467
CZ 31840141 ES;Stycore s.r.o.;Žižkova 483, Veselí nad Lužnicí II, 39181 Veselí nad Lužnicí;49.1861826;14.7092679
CZ 31840208 ES;Dove Network a.s., provozovna Penzion Dobré časy;Nežárecká 117, Jindřichův Hradec IV, 37701 Jindřichův Hradec;49.1289364;14.9972459
CZ 31840220 ES;Objekt pro výkup a zpracování zvěřiny;Dešná u Dačic, 37873 Dešná;49.7439047;15.3381061
CZ 31840310 ES;Pavel Friedberger;Soběslav, 39201 Soběslav;49.2554067;14.7256832
CZ 31840400 ES;Objekt pro uchování a zpracování zvěřiny;Družstevní parc. č. 463/3, 378 56 Studená;49.7337712;14.6667679
CZ 31840691 ES;Bourárna zvěřiny a hovězího masa LS Chvalšiny;Chvalšiny č. p. 251, 38208 Chvalšiny;48.8544879;14.2067467
CZ 31850175 ES;Josef Ciboch;Vrcovice, 39701 Vrcovice;49.3398138;14.1708987
CZ 31850186 ES;Sýrárna a bourárna Statek Horní Dvorce s.r.o.;Horní Dvorce č. p. 22, 37853 Zahrádky;49.1846738;15.2410518
CZ 31850232 ES;Mlékárna Mláka;Mláka č. p. 81, 37901 Novosedly nad Nežárkou;49.0610878;14.84398
CZ 31850276 ES;GOLDIM spol.s.r.o.;V Lukách 923, Soběslav III, 39201 Soběslav;49.2669429;14.7066057
CZ 31850287 ES;Mlékárna Chrášťovice;Chrášťovice č. p. 101, 38601 Chrášťovice;49.330187;13.9017449
CZ 31850298 ES;Minimlékárna ŠKAREZ Fidlerovi;Škarez 2.díl č. p. 11, 38301 Šumavské Hoštice;49.0334595;13.8852294
CZ 31850322 ES;Farma Struhy s.r.o.;Struhy č. p. 39, 39701 Vlastec;50.2842313;14.939895
CZ 31850355 ES;Mlékárna Meziříčí;Meziříčí č. p. 81, 38241 Malonty;49.4275058;14.5580952
CZ 31850401 ES;Rodinná farma Výrov s.r.o.;Výrov č. p. 21, 38301 Husinec;49.9613691;13.4608226
CZ 31850445 ES;FARMA V MARINKÁCH;Malý Ratmírov č. p. 32, 37701 Blažejov;49.1576798;15.1320531
CZ 31850489 ES;MINIMLÉKÁRNA Farma Vlkov;Vlkov č. p. 17, 37341 Vlkov;49.3229213;16.20229
CZ 31850580 ES;Jan Klimeš;Hněvkovice na levém břehu Vltavy č. p. 6, 37501 Týn nad Vltavou;49.1952493;14.4425693
CZ 31870076 ES;Šupina a Šupinka s.r.o.;Valy 155, Třeboň I, 37901 Třeboň;49.0019588;14.7701456
CZ 31870098 ES;Fakulta rybářství a ochrany vod, Ústav akvakultury a ochrany vod, Zpracovna ryb;Husova tř. 458/102, České Budějovice 2, 37005 České Budějovice;48.9849397;14.4540069
CZ 31870100 ES;Zpracovna ryb a prodejna Na sádkách, Čejetice;Čejetice, 38601 Čejetice;49.2515434;14.0158684
CZ 31870111 ES;Zpracovna ryb Hroby;Hroby č. p. 33, 39155 Radenín;49.3894483;14.8456813
CZ 31880112 ES;Ing. Ondřej Čížek;Malovice č. p. 20, 38411 Malovice;49.092295;14.2241683
CZ 31910374 ES;Václav Šoul;Lidmovice č. p. 31, 38901 Skočice;49.1773967;14.1282187
CZ 31910396 ES;Farma Strážný s.r.o. - Jatky Hliniště;Hliniště č. p. 45, 38443 Strážný;49.1483022;16.6201899
CZ 31910408 ES;Farma Semice;K Píseckým horám 176, Semice, 39701 Písek;49.2889954;14.1790433
CZ 31910419 ES;Jatka Besednice;Družstevní 336, 38281 Besednice;50.1621488;13.9859138
CZ 31910420 ES;Pavel Štefan;p.č. 71/6, 378 21 Višňová;50.2457488;14.3279638
CZ 31910453 ES;Jan Chmelík;Rodvínov č. p. 16, 37701 Rodvínov;49.170116;15.0592763
CZ 31910464 ES;Jatka ZEMSPOL DEŠNÁ;KU: 625698 Dešná u Dačic, parc. č. 233 a 234;49.7439047;15.3381061
CZ 31910475 ES;Zdeněk Misař;Jilem č. p. 69, 37853 Jilem;49.175153;15.2623341
CZ 31930466 ES;RODINNÁ FARMA ČUNÁT;Osek č. p. 11, 39901 Osek;50.2686065;15.3657211
CZ 31940175 ES;Masná výroba a uzenářství Bohunice s.r.o.;Bohunice č. p. 35, 38422 Bohunice;49.1291802;13.9720579
CZ 31940210 ES;Bourárna Netěchovice;Netěchovice č. p. 14, 37501 Týn nad Vltavou;49.2521059;14.4455367
CZ 31940276 ES;Farmářská masna;Čížová č. p. 35, 39831 Čížová;49.3561022;14.0967982
CZ 31940333 ES;Zemědělské družstvo Bělčice - bourárna, výrobna;Blatenská 296, 38743 Bělčice;49.4991452;13.8744682
CZ 31940344 ES;Standovo Jerky;Plavská 490, 37007 Roudné;48.9316502;14.4834697
CZ 31940434 ES;Tomáš Bárta;Chvalšiny č. p. 18, 38208 Chvalšiny;48.8554247;14.2126559
CZ 31940445 ES;ARIAN Döner produktion s.r.o.;Netolická 405, 38402 Lhenice;48.9960647;14.1552819
CZ 31940456 ES;Řeznictví MAUZ;Na brodech 384, 37501 Týn nad Vltavou;49.2277568;14.4115063
CZ 31940478 ES;Jerky-s JENS;Majdalena č. p. 141, 37803 Majdalena;48.9505525;14.8667043
CZ 31970202 ES;AWETA;Průmyslová 377/2, České Budějovice 6, 37001 České Budějovice;48.9704596;14.4859154
CZ 31970257 ES;Výrobna Lahůdek;Slapy č. p. 66, 39176 Slapy;49.387962;14.6173194
CZ 31970280 ES;Penzion Frankův Dvůr;Jemčinská 125, Jindřichův Hradec IV, 37701 Jindřichův Hradec;49.142689;14.9936319
CZ 3224 ES;ZEMAN maso - uzeniny;Masarykova 1458/29, 26801 Hořovice;49.8371013;13.8963437
CZ 32740028 ES;ACCOM Czech, a.s.;Nádražní 359, 33141 Kralovice;49.5252046;12.9364426
CZ 32740073 ES;GASTRO Vaizová s.r.o., chladírenský a mrazírenský sklad;Horní Bělá, Tlucná 59, 33152 Dolní Bělá;49.8765938;13.2865488
CZ 32740208 ES;ALIMPEX FOOD a.s.;Lochotínská 1064/30, Severní Předměstí, 30100 Plzeň;49.752444;13.3740089
CZ 32740242 ES;Family Market s.r.o.;Plzeňská 1078, 33027 Vejprnice;49.736219;13.3039813
CZ 32740286 ES;MCH ANGUS s.r.o.;Maršovy Chody č. p. 1, 34801 Částkov;49.7539387;12.6504767
CZ 32740309 ES;ZKD Plzeň, velkoobchodní sklad Litice;Klatovská 612/183, Litice, 32100 Plzeň;49.7078202;13.3608588
CZ 32740365 ES;prostor pro skladování;Myslinka č. p. 58, 33023 Myslinka;49.7436323;13.2176289
CZ 32740376 ES;foodora MARKET;Zikmunda Wintra 1208/7, Jižní Předměstí, 30100 Plzeň;49.7361065;13.3692925
CZ 32740512 ES;JIP východočeská a.s., velkoobchod;Libušínská 630/78, Božkov, 32600 Plzeň;49.728178;13.4214095
CZ 32770087 ES;Výrobna šnečího kaviáru;Bystřice nad Úhlavou č. p. 85, 34022 Nýrsko;49.3034773;13.1507057
CZ 32810048 ES;Porážka drůbeže;Tyršova 560, 33141 Kralovice;48.9824206;16.5207597
CZ 32820016 ES;ENES FLEISCH s.r.o.;Koryta č. p. 68, 33901 Bezděkov;49.3873718;13.2212599
CZ 32830006 ES;Králičí farma Trnčí;Trnčí č. p. 27, 34012 Ježovy;49.479168;13.2151477
CZ 32840681 ES;Farmářská prodejna, zpracovna zvěřiny;Vícenice č. p. 7, 33901 Klatovy;49.4467682;13.2994919
CZ 32840692 ES;Ing. Josef Kopačka;Petrovice u Sušice č. p. 105, 34201 Petrovice u Sušice;49.2207672;13.4414641
CZ 32840816 ES;Bidfood Kralupy s.r.o., sběrné středisko zvěřiny;Dýšina č. p. 408, 33002 Dýšina;49.7676539;13.4936342
CZ 32850211 ES;Zemědělská výroba Milknatur, a.s.;Na Vypichu 636, 33021 Líně;49.7065373;13.249992
CZ 32850255 ES;ŠUMAVSKÝ STATEK DLOUHÁ VES, malá mlékárna;Dlouhá Ves č. p. 98, 34201 Dlouhá Ves;49.19775065;13.510003494548531
CZ 32850266 ES;Minimlékárna Milda;Kvášňovice, 34101 Kvášňovice;49.412204;13.6444779
CZ 32850277 ES;Mlékárna Boubín;Boubín, 34101 Horažďovice;49.3005361;13.6960197
CZ 32850299 ES;Sýrárna Jarov;Jarov č. p. 164, 33501 Jarov;49.52092;13.5121514
CZ 32850345 ES;MINIMLÉKÁRNA farma SRBY;Srby u Horšovského Týna, 34601 Srby;49.7439047;15.3381061
CZ 32850367 ES;Helena Biskupičová;Milčice č. p. 63, 34101 Myslív;50.1080442;14.9880826
CZ 32850378 ES;Farma u Františky s.r.o.;Souměř č. p. 54, 34802 Stráž;49.6794829;12.7590206
CZ 32850402 ES;Farma Babina;Babina č. p. 97, 33101 Plasy;49.9365026;13.4262591
CZ 32850446 ES;Podbrdská minimlékárna;Hůrky č. p. 79, 33701 Hůrky;49.7473038;13.6876749
CZ 32850491 ES;Zdeňka Märzová;Podzámčí č. p. 33, 34506 Kdyně;49.4094406;13.0412262
CZ 32850503 ES;MÁDHAVA;Rokycanská 174/7, Lobzy, 31200 Plzeň;49.7484306;13.4068766
CZ 32850514 ES;Minimlékárna Weber;Brnířov č. p. 12, 34506 Brnířov;49.382898;13.0468995
CZ 32870055 ES;MAKRO Plzeň;Obchodní 1129/2, Skvrňany, 30100 Plzeň;49.7286208;13.3206849
CZ 32880078 ES;Farma Lomec;Lomec u Klatov, 33901 Lomec;49.7439047;15.3381061
CZ 32880090 ES;HAXA s.r.o., třídírna vajec;Otín č. p. 22, 33901 Klatovy;49.3630871;15.9067208
CZ 32880102 ES;ČESKÁ VEJCE FARMS, s.r.o., třídírna Vejprnice;Tyršova 682, 33027 Vejprnice;49.0846621;14.7172926
CZ 32880124 ES;Chov a třídírna vajec;Bezděkov u Klatov parc. č. st. 353, 33901 Bezděkov;49.7439047;15.3381061
CZ 32880135 ES;Farma pro chov nosnic Brod nad Tichou;Brod nad Tichou č. p. 105, 34815 Brod nad Tichou;49.7439047;15.3381061
CZ 32880146 ES;AB Bor Plus, s.r.o., třídírna vajec;Čečkovice č. p. 42, 34802 Bor;49.7832556;15.6618945
CZ 32880157 ES;Farma pro chov nosnic Myslív u Všerub;Myslív u Všerub, 34401 Všeruby;49.7439047;15.3381061
CZ 32910094 ES;Maso Vojenice s.r.o.;Vojenice, 33808 Zbiroh;50.2174404;16.1302816
CZ 32910106 ES;ZOD Mrákov;Mrákov č. p. 21, 34501 Mrákov;49.4078538;12.957345
CZ 32910117 ES;MASO WEST s.r.o.,  Jatka Dehtín;Klatovy 1, Dehtín 3, 33901 Klatovy 1;49.3965118;13.2891091
CZ 32910195 ES;Václav Vacík;Roupov č. p. 28, 33453 Roupov;49.5385414;13.248321
CZ 32910207 ES;FARMA LOUŽNÁ s.r.o.;Loužná č. p. 51, 34101 Myslív;49.3945305;13.5687215
CZ 32910229 ES;Porážka FADIS OSIVA;Domažlická 36, Velké Předměstí, 34601 Horšovský Týn;49.5205834;12.9471368
CZ 32910230 ES;Faremní porážka Hyršov 2;Hyršov č. p. 2, 34506 Všeruby;49.3320731;13.0256168
CZ 32910252 ES;Jatky BioEko farm;Velký Bor u Horažďovic, 34101 Velký Bor;49.7439047;15.3381061
CZ 32910263 ES;Jatky Chodská Lhota;farma Chodská Lhota;49.7439047;15.3381061
CZ 32910274 ES;Faremní miniporážka - Jatky Pazdera;Na Můstku 222, 33561 Spálené Poříčí;49.6115505;13.6049256
CZ 32910285 ES;strejc maso s.r.o.;Hřbitovní 1246, 33023 Nýřany;50.5193818;13.6531722
CZ 32910296 ES;Porážka s malou kapacitou fa. RUDOLTICE;Rudoltice u Černíkova, 34506 Černíkov;49.7439047;15.3381061
CZ 32910308 ES;Porážka Ledce;Ledce u Plzně parc. č. st. 232, 33014 Ledce;49.7439047;15.3381061
CZ 32910319 ES;Jatka AB Bor;Čečkovice č. p. 42, 34802 Bor;49.7832556;15.6618945
CZ 32910320 ES;Hovězí porážka Skočice u Přeštic;Skočice st. p. 163, 33401 Přeštice;49.5615527;13.2987582
CZ 32920163 ES;Jaroslav Kesner;Terešov č. p. 5, 33808 Terešov;49.243614;17.0155485
CZ 32920174 ES;Jaromír Šnajdr;Volduchy č. p. 63, 33822 Volduchy;49.7757799;13.6198127
CZ 32920231 ES;Jiří Zelený, Farma Drouhavec;Drouhavec č. p. 3, 34142 Velhartice;49.26625;13.427068
CZ 32920242 ES;ALFA - grilované kachny;Nádražní 53, Staňkov II, 34561 Staňkov;50.0450328;15.7432609
CZ 32920253 ES;Maso Kašperk;Náměstí 2, 34192 Kašperské Hory;49.3783925;13.9366107
CZ 32920264 ES;Bourárna Sedlečko;Sedlečko č. p. 66, 34101 Nalžovské Hory;49.6912767;14.5277196
CZ 32920275 ES;EKO FARMA Uher spol. s r.o.;Rybník č. p. 8, 34525 Rybník;49.89128;16.4735838
CZ 32920286 ES;Ekofarma Bezpravovice;Podskalí 92, 33901 Chudenice;49.2659721;14.0023171
CZ 32920297 ES;Faremní bourárna masa LZ dehtín (časově oddělený režim);Dehtín č. p. 3, 33901 Klatovy;49.4473909;13.2838556
CZ 32920309 ES;Faremní porcovna kuřat LZ KLATOVY (časové oddělení);Maxima Gorkého 682, Klatovy II, 33901 Klatovy;49.4013979;13.303454
CZ 32920321 ES;čerstvé maso - bourárna;Hadrava č. p. 1, 34022 Chudenín;49.3110473;13.1247524
CZ 32930502 ES;MAJER - ŘEZNICTVÍ A UZENÁŘSTVÍ s.r.o.;Sídliště 996, 33011 Třemošná;49.8160938;13.3952588
CZ 32930603 ES;Kreisinger a spol. s r.o.;Skořická ul. 634, 33843 Mirošov;49.6877058;13.660460114638292
CZ 32932010 ES;DELICAT výroba;Smetanova 515, 34901 Stříbro;49.2529795;15.1946405
CZ 32932098 ES;Radek Čejka;Masarykova 16, 34506 Kdyně;50.1635751;13.9882863
CZ 32940086 ES;MASO WEST s.r.o.;Maxima Gorkého 682, Klatovy II, 33901 Klatovy;49.4013979;13.303454
CZ 32940110 ES;Hypermarket GLOBUS Chotíkov;Chotíkov, 33017 Chotíkov;49.7912587;13.3219954
CZ 32940121 ES;Vladislav Jirgl;Manětín č. p. 263, 33162 Manětín;49.9890451;13.2293075
CZ 32940233 ES;UDÍRNA - PLZÁK Z PLZNĚ;Dřevěná 101/7, Vnitřní Město, 30100 Plzeň;49.7472;13.3793925
CZ 32940244 ES;Masná výroba Planá;Jateční 575, 34815 Planá;49.1951384;14.7079792
CZ 32940312 ES;HABANSON, s.r.o.;Tymákov č. p. 36, 33201 Tymákov;49.7190128;13.5102651
CZ 32940345 ES;AB Bor, masná výrobna;Čečkovice č. p. 53, 34802 Bor;49.7297468;12.784542
CZ 32940356 ES;LM MASO s.r.o.;Nebřeziny č. p. 78, 33101 Plasy;49.9219188;13.4131275
CZ 32940367 ES;EUROPEC SE;Nad Tratí 502, 33601 Blovice;49.5771869;13.531057826227322
CZ 32940378 ES;masná výrobna;Luční 67, 33601 Blovice;49.0746013;17.45967
CZ 32940413 ES;bourárna čerstvého masa;5. května 429, 33022 Zbůch;48.7906258;14.7770778
CZ 32940468 ES;Takyho sušené maso;Prvomájová 21/33, Křimice, 32200 Plzeň;49.7551541;13.304014
CZ 32953394 ES;Řeznictví Dobřany;tř. 1. máje 152, 33441 Dobřany;49.8441276;13.364555
CZ 32960134 ES;Bidfood Czech Republic s.r.o., depo Plzeň - Dýšina;Dýšina č. p. 408, 33002 Dýšina;49.7676539;13.4936342
CZ 32960145 ES;Mrazírna FRIZA;Dýšina č. p. 297, 33002 Dýšina;49.7652144;13.4973609
CZ 330 ES;MASOZÁVOD PETRÁVEČ s.r.o.;Petráveč č. p. 55, 59401 Petráveč;49.3270688;16.0434813
CZ 3308 ES;P+M Kasarda Kolínské uzeniny, s.r.o.;U Kostelíčka 60, Kolín V, 28002 Kolín;50.0318872;15.2063009
CZ 3315 ES;Maso - Třebovle s.r.o.;Třebovle č. p. 15, 28163 Třebovle;50.0311978;14.9607492
CZ 3323 ES;PRAGOSON s.r.o.;Horní Kruty č. p. 1, 28146 Horní Kruty;49.9186625;14.9593494
CZ 333 ES;Kostelecké uzeniny a.s.;Kostelec č. p. 60, 58861 Kostelec;49.3563362;15.489785
CZ 3332 ES;POLAR Transport Václav Vlasák;U Cihelny 1074, 28163 Kostelec nad Černými lesy;49.9849313;14.8606125
CZ 3342 ES;Hügli Food s r.o.;Nádražní 426, 28144 Zásmuky;49.09005535;14.72889046903231
CZ 338 ES;Jatka Lišov - Petr Číhal s.r.o.;Lazna 1051/18f, 37372 Lišov;49.0125798;14.6122422
CZ 340 ES;Karlovarské uzeniny s.r.o.;Buchenwaldská 937/11, Rybáře, 36005 Karlovy Vary;50.2355613;12.8562916
CZ 3402 ES;Orkla Foods Česko a Slovensko a.s.;Mělnická 133, 27732 Byšice;50.2891251;14.8141863
CZ 3408 ES;VIDORA, s.r.o.;Na Náměstí 18, 27716 Všetaty;50.2819026;14.5918563
CZ 3410 ES;Vepřová porážka Ing. Kohout V. a synové;Křivousy č. p. 6, 27745 Vojkovice;50.3049275;14.3719755
CZ 3413 ES;KAP Neratovice, s.r.o.;Byškovice č. p. 141, 27711 Neratovice;50.2535476;14.48821
CZ 3415 ES;Bidfood Czech Republic s.r.o.;V Růžovém údolí 553, Mikovice, 27801 Kralupy nad Vltavou;50.235475050000005;14.28884489417278
CZ 342 ES;VÁHALA a spol. s r.o. výroba a prodej masných a lahůdkářských výrobků;Pod Humny 308, 75366 Hustopeče nad Bečvou;49.5275316;17.8761173
CZ 344 ES;Řeznictví a uzenářství u Dolejších s.r.o.;Na Javorce 303, 25206 Davle;49.8965801;14.39936
CZ 3446 ES;Kohout Michal - Řeznictví a uzenářství;Palackého 121, 27746 Veltrusy;50.1682838;14.1064212
CZ 345 ES;JATKY POHOŘELICE, spol. s r.o.;Brněnská 287, 69123 Pohořelice;49.1821653;16.3944071
CZ 3456 ES;Uzenářství Vítek;Chrást č. p. 64, 29301 Mladá Boleslav;50.1170178;14.9032208
CZ 3462 ES;Řeznictví Dvořák s.r.o.,Masarykovo náměstí 285, Mnichovo Hradiště;Masarykovo náměstí 285, 29501 Mnichovo Hradiště;50.5220351;14.9742488
CZ 3464 ES;Tomáš MÜLLER;Husovo náměstí 30, 29428 Chotětov;50.1043011;13.7282407
CZ 3469 ES;Řeznictví Dvořák s.r.o.;Smetanova 691, 29401 Bakov nad Jizerou;50.4807938;14.9419888
CZ 350 ES;Josef Erhart - Řeznictví a uzenářství;Doubravice č. p. 30, 37006 Doubravice;50.0663099;15.7452553
CZ 352 ES;Lesy České republiky,s.p. -  Poněšická obora;Karla Čapka 1171, 37341 Hluboká nad Vltavou;49.06036505;14.43298094701009
CZ 3546 ES;Josef RAJDL;Maršála Koněva 1987, 28802 Nymburk;50.1907657;15.0505297
CZ 3558 ES;Uzenářství Jaromír Dvořák s.r.o.;Příčovy č. p. 25, 26401 Příčovy;49.6722692;14.3922994
CZ 360 ES;MASO-UZENINY KOŠATA s.r.o.;Odrava č. p. 68, 35002 Odrava;50.101967;12.4879751
CZ 364 ES;MVDr. Zdeněk Herman;Purkyňova 1, 35301 Velká Hleďsebe;50.77885715;15.074737752889014
CZ 3652 ES;Uzenářství Vávra, s.r.o.;Rudolfovská tř. 464/103, České Budějovice 4, 37001 České Budějovice;48.9815953;14.5016084
CZ 3655 ES;Mrazírny Eurofrost s.r.o.;Hlinsko č. p. 47, 37001 Rudolfov;49.4932417;17.5762165
CZ 3657 ES;Hypermarket Globus České Budějovice;České Vrbné 2327, České Budějovice 2, 37011 České Budějovice;49.00129235;14.450834367967655
CZ 3665 ES;JEDNOTA SD - výrobna;Hlinecká 745, 37501 Týn nad Vltavou;49.2265161;14.4273554
CZ 370 ES;Jatka Mostky;Mostky č. p. 4, 38241 Kaplice;48.7218822;14.5170635
CZ 3700 ES;MAKRO Cash & Carry ČR s.r.o.;České Budějovice 10, Hrdějovice 396, 37010 České Budějovice 10;49.7439047;15.3381061
CZ 3702 ES;VLS ČR, s.p., ZNZ Květušín;Boletice, 38208 Boletice;48.8247496;14.2170574
CZ 3703 ES;Masozávod Dolní Třebonín;Dolní Třebonín č. p. 194, 38201 Dolní Třebonín;48.8565759;14.3967818
CZ 3704 ES;MADETA a. s.;Chvalšinská 234, 381 14 Český Krumlov;48.816584;14.3025663
CZ 371 ES;Foitl reznictví a uzenárství v.o.s.;námestí J. V. Kamarýta 70, 38232 Velešín;48.828963;14.4624828
CZ 3767 ES;"""AGRO-LA"", spol.s r.o.";Jiráskovo předměstí 630, Jindřichův Hradec III, 37701 Jindřichův Hradec;49.1302338;15.0184628
CZ 3770 ES;Jednota, spotrební družstvo v Jindrichove Hradci, Výrobna lahůdek;Jarošovská 939, Jindřichův Hradec II, 37701 Jindřichův Hradec;49.1528951;15.0163139
CZ 3804 ES;Mlékárna Žirovnice spol. s r.o.;Nádražní 341, 39468 Žirovnice;49.015306;14.7597604
CZ 383 ES;Jaroslav Vomáčka;Svor č. p. 138, 47151 Svor;50.7934059;14.5821675
CZ 386 ES;VÁŠA spol.s r.o.;Potoční 2, Mimoň II, 47124 Mimoň;50.7509514;14.2002894
CZ 390 ES;Agrokomplex, spol. s r.o.;Areál ÚOS, 40725 Verneřice;49.7439047;15.3381061
CZ 391 ES;POLABSKÉ MLÉKÁRNY a.s.;5. května 2467, 40747 Varnsdorf;50.9176938;14.6074238
CZ 3948 ES;Mlékárna Vlčí Jámy;Vlčí Jámy, 38451 Lenora;50.3987317;12.778797772922555
CZ 3949 ES;Pstruhařství Mlýny;Žár č. p. 25, 38473 Vacov;48.8066803;14.7085094
CZ 3959 ES;Karel STANĚK - ŘEZNICTVÍ - UZENÁŘSTVÍ;V lukách 385, 38701 Volyně;49.5608788;16.4255675
CZ 3962 ES;Govardhan - mlékárna;Dolní Poříčí č. p. 14, 38601 Horní Poříčí;49.2848894;13.7940581
CZ 3964 ES;Jakub Špatný - KOFA;Bílsko u Vodňan, 38773 Bílsko;49.7439047;15.3381061
CZ 3967 ES;Blatenská ryba, spol. s r.o.;Na Příkopech 747, 38801 Blatná;49.422889;13.8811674
CZ 3968 ES;Ivan Švehla, Řeznictví a uzenářství;Nuzín č. p. 23, 38719 Čestice;49.1567084;13.824819
CZ 3972 ES;Ondrej Schmidt;Tyršova 1235, Vodňany II, 38901 Vodňany;49.1532316;14.1756949
CZ 3973 ES;S.V.G., spol.s r.o.;V Lipkách 96, Strakonice II, 38601 Strakonice;49.2556201;13.8927536
CZ 399 ES;Biopark s.r.o.;Lipová č. p. 270, 40781 Lipová;49.9602029;16.1660054
CZ 400 ES;HELIX - LIBEREC spol. s r.o.;Dolní Podluží č. p. 235, 40755 Dolní Podluží;50.8748275;14.5868138
CZ 402 ES;HAMÉ s.r.o.;Cerony 572, 68703 Babice u Uher.Hradiště;49.1188398;17.4716723
CZ 403 ES;Zemědělské družstvo Rosice u Chrasti;Synčany, 53862 Rosice;49.9269735;15.9618761
CZ 415 ES;Řeznictví - uzenářství Francouz, s. r. o.;Morašice, Skupice 8, 53803 Heřmanův Městec;49.92456;15.7218663
CZ 4157 ES;PRIMA DELIKA s.r.o.;Rybáře, Sedlecká 1, 36010 Karlovy Vary 10;50.1289149;14.4525991
CZ 41740006 ES;ALIMPEX FOOD a.s.;Pěkovice č. p. 44, 36461 Teplá;49.7439047;15.3381061
CZ 41740040 ES;AGRO MASTER, s.r.o.;Sokolovská 276, 35601 Staré Sedlo;50.0612963;15.6953999
CZ 41740163 ES;JIP východočeská a.s.;Tovární 242/12, 36225 Nová Role;50.2703442;12.7769163
CZ 41810059 ES;Drůbeží porážka - Dolina;Dolina č. p. 12, 35708 Krajková;50.98864435;14.316540669246548
CZ 41810060 ES;Probitas spol. s r.o.;Šafářské Domky 500, Klášter, 36461 Teplá;49.9708287;12.8818687
CZ 41840007 ES;VLS ČR, s.p., LS Dolní Lomnice - Lučiny;Lučiny č. p. 17, 36272 Doupovské Hradiště;50.2330304;13.0142164
CZ 41840018 ES;VLS ČR, s.p., LS Valeč;Chyše, Valeč, 36455 Chyše;49.7439047;15.3381061
CZ 41840063 ES;Zvěřina BERBERA s.r.o.;Tachovská Huť, objekt na stav.parcele č.414;49.9343868;12.6030795
CZ 41850042 ES;Nežichovká mlékárna;Nežichov č. p. 8, 36401 Toužim;50.0104755;13.0161828
CZ 41850064 ES;MINIMLÉKÁRNA BOR;Bor č. p. 98, 36001 Sadov;49.2126303;14.200783
CZ 41850121 ES;Sýrárna Abertamy;Farní 28, 36235 Abertamy;49.6861438;18.3491888
CZ 4187 ES;RABBIT Trhový Štěpánov a.s.;RABBIT Trhový Štěpánov a.s., Hroznětín, 36233 Hroznětín;50.3093823;12.872995
CZ 41880023 ES;OLI-AGRO s.r.o.;Nadlesí, 35731 Loket;50.7688724;14.4811165
CZ 419 ES;Zemedelské družstvo vlastníku Mrákotín;Prosetín u Hlinska, 53973 Prosetín;49.7439047;15.3381061
CZ 41910061 ES;Hovězí porážka Hlinky;Hlinky, 36001 Stanovice;49.1918502;16.5757565
CZ 41910072 ES;ZEPHYR;Poustka u Františkových Lázní, 35002 Poustka;49.7439047;15.3381061
CZ 41910083 ES;Jatka Kámen;Kámen č. p. 51, 35801 Kraslice;49.7118463;15.5228938
CZ 41910094 ES;Jatky Milhostov;Milhostov č. p. 87, 35002 Milhostov;50.1599202;12.4584444
CZ 41920039 ES;Hovězí výroba Dolní Rychnov;Bergmannova 73, 35604 Dolní Rychnov;50.1626517;12.63675
CZ 41920062 ES;ing. Dušan Michálek;Sokolovská 1036/124e, Rybáře, 36005 Karlovy Vary;50.2348959;12.8478977
CZ 41920073 ES;DCH Bohemia Trade a.s.;Sokolovská 1036/124e, Rybáře, 36005 Karlovy Vary;50.2348959;12.8478977
CZ 41940042 ES;Josef Pelant;Žalmanov č. p. 83, 36471 Stružná;50.190798;12.983349
CZ 41940109 ES;ŘEZNICTVÍ S BISTREM ABERTAMY;Farní 28, 36235 Abertamy;49.6861438;18.3491888
CZ 41940121 ES;Řeznictví-uzenářství Šindelová;Šindelová č. p. 116, 35801 Šindelová;50.3187585;12.6028061
CZ 41960055 ES;UNDERCLIFF s.r.o.;Nádražní 325/84, 35733 Loket;50.192996;12.7491322
CZ 41960123 ES;Tur-com;Západní 395, 36233 Hroznětín;50.3088059;12.8611769
CZ 4228 ES;TANY, spol. s r.o.;Československých legií 563, 34022 Nýrsko;49.289095599999996;13.136871793333347
CZ 423 ES;Zpracovna ryb, Úsilné;Úsilné č. p. 150, 37010 Úsilné;49.009473;14.4972285
CZ 4233 ES;Minimlékárna JOMA;Dolní Lhota u Klatov, 34021 Janovice nad Úhlavou;49.7439047;15.3381061
CZ 4237 ES;SPAK Foods s.r.o. - výrobna majonéz;Nádražní 623, Sušice II, 34201 Sušice;49.5637367;17.7412856
CZ 425 ES;Zpracovna ryb Třeboň;Sádecká 230, Třeboň II, 37901 Třeboň;48.9968427;14.7716899
CZ 4274 ES;KVARDA spol.s r.o., Řeznictví u Kvardů;Plzenecká 220/2, Východní Předměstí, 32600 Plzeň;49.7361672;13.3895067
CZ 42740007 ES;TAMDA ÚSTÍ  s.r.o.;Havířská 352/17, Všebořice, 40010 Ústí nad Labem;50.6891483;13.982357114431725
CZ 42740018 ES;Sklad potravinové banky Džbánsko, z.s.;Dobříčany č. p. 92, 43801 Liběšice;50.302603;13.6062651
CZ 42740029 ES;SAMBULAR s.r.o.;Srbická T4, 41501 Teplice;50.6606811;13.8560881
CZ 42740030 ES;Výrobna delikates a antipast;Pražská 673, Miřetice u Klášterce nad Ohří, 43151 Klášterec nad Ohří;49.9339825;14.2804463
CZ 42740041 ES;CHYKO UZENINY s.r.o.;Aléská 267, Pražské Předměstí, 41801 Bílina;50.5420578;13.7761198
CZ 42740074 ES;Verner Tomáš;Brloh č. p. 76, 44001 Louny;50.3203088;13.8246534
CZ 42740096 ES;Ivo Dvořák;Zahradní 329, 43111 Jirkov;49.4365454;12.9205796
CZ 42740118 ES;Family Market Louny;Postoloprtská 2767, 44001 Louny;50.3525708;13.7627313
CZ 42740129 ES;TEMPO PACK s.r.o.;K vápence 448, Řetenice, 41503 Teplice;50.63410795;13.798515586698091
CZ 42740140 ES;Autoexpert s.r.o.;Radovesická 925, Teplické Předměstí, 41801 Bílina;50.5611551;13.7845666
CZ 42740151 ES;Depo Roudnice;Roudnická 207, 41301 Dobříň;50.4322855;14.2879748
CZ 42770280 ES;REVI plus s.r.o.;Želetická 706/9, Předměstí, 41201 Litoměřice;50.5246122;14.1378151
CZ 42770303 ES;ANOSA FOOD s.r.o.;Textilní 3403/4, Ústí nad Labem-centrum, 40001 Ústí nad Labem;50.6580996;14.0044585
CZ 42770314 ES;RAST plus s.r.o.;Teplice, Novosedlická č.p. 2888, PSČ 415 01;50.66015155;13.808289734250202
CZ 42770325 ES;J.K. Trade  s.r.o.;Kratochvílova 1511, 41301 Roudnice nad Labem;50.4188596;14.2609038
CZ 42770336 ES;kebab.cz  s.r.o.;Doubravská 853, Trnovany, 41501 Teplice;50.64887425;13.840957485861917
CZ 42810038 ES;Černíkův dvůr;Vidhostice č. p. 30, 44101 Vroutek;50.156032;13.372851
CZ 42840323 ES;Zvěřinový závod;Lipská 2023, 43003 Chomutov;50.4641019;13.4011397
CZ 42840334 ES;Varnsdorfské uzeniny s.r.o.;Klostermannova 1436, 40747 Varnsdorf;50.9116075;14.6331513
CZ 42840356 ES;Farma Doupov;Mašťov č. p. 301, 43156 Mašťov;50.2734502;13.291226
CZ 42840817 ES;Zpracování zvěřiny a masná výroba Klíny;Klíny č. p. 41, 43601 Klíny;50.6435854;13.5414361
CZ 42850100 ES;Biofarmahampl;Arnoltice č. p. 124, 40714 Arnoltice;50.8487927;14.2390483
CZ 42850177 ES;Korbačíky od Pepína;Plynárenská 280, Prosetice, 41501 Teplice;50.6353699;13.8424033
CZ 4288 ES;Bidfood Dýšina a.s.;Dýšina č. p. 408, 33002 Dýšina;49.7676539;13.4936342
CZ 42880046 ES;XAVEROV, a.s., farma Dvérce;Nepomyšl, 43971 Nepomyšl;50.2169236;13.3108512
CZ 42910129 ES;Statek Oblík;Raná č. p. 28, 43924 Raná;49.7965813;15.96468
CZ 42910130 ES;Josef Koliba;Dobrná č. p. 130, 40741 Dobrná;50.7743275;14.2903213
CZ 42910152 ES;Daniel Kudla;Studánka č. p. 2, 40752 Varnsdorf;49.1913992;16.6043928
CZ 42910163 ES;EKOFARMA BABINY;Babiny II č. ev. 21, 40002 Homole u Panny;50.6410877;14.1786475
CZ 42910174 ES;Jatka - Biofarma  Třmeňák;Prunéřov - Třmeňák, 43201 Kadaň;49.7439047;15.3381061
CZ 42910185 ES;JIŘÍ SKALICKÝ;Bílý Újezd č. p. 35, 41131 Velemín;50.5466261;13.9760883
CZ 4292 ES;ŘEZPOF spol. s r.o.;Koterovská 590/172, Koterov, 32600 Plzeň;49.7209663;13.4154989
CZ 42920164 ES;BioFarma Františkov;Františkov nad Ploučnicí č. p. 320, 40723 Františkov nad Ploučnicí;50.7224203;14.3343413
CZ 42940199 ES;Delius s.r.o.;Ležky č. p. 70, 44101 Lubenec;50.1246644;13.3552407
CZ 42940201 ES;Chovaneček s.r.o.;Hlinná č. p. 61, 41201 Hlinná;50.5737742;14.1092309
CZ 42940212 ES;RASTENBERGER s.r.o.;Chelčického 627, 41301 Roudnice nad Labem;50.0451007;15.7328708
CZ 42940245 ES;Výrobna masných výrobků;Lipská 2023, 43003 Chomutov;50.4641019;13.4011397
CZ 42940278 ES;Farma Doupov - prodej masa;Mašťov č. p. 301, 43156 Mašťov;50.2734502;13.291226
CZ 42940289 ES;Maso Jičín s.r.o.;Chelčického 627, 41301 Roudnice nad Labem;50.0451007;15.7328708
CZ 42940290 ES;Halkas Doner s.r.o. - DONERKEBAB;náměstí Svobody 16, Mstišov, 41703 Dubí;49.8686037;12.7382668
CZ 4305 ES;ČESKÝ GRUNT s.r.o. - bourárna;Pernarec č. p. 156, 33036 Pernarec;49.8412375;13.1036788
CZ 431 ES;VAIGL A SYN spol. s r.o.;Droužkovická 291, 43141 Údlice;50.4323564;13.4548959
CZ 4310 ES;Tomáš Macáš - bourárna;9. května 1094, 33011 Třemošná;49.8110838;13.4021638
CZ 433 ES;Rybníkářství Pohořelice a.s.;Mušov, 69122 Pasohlávky;48.9037492;16.5862088
CZ 435 ES;Zpracovna ryb Klatovy a.s.;Říční lázně 423, Klatovy III, 33901 Klatovy;49.4042403;13.2630026
CZ 4357 ES;Řeznictví a uzenářství Herejk s.r.o.;Přešín č. p. 64, 33563 Čížkov;49.5592121;13.6481984
CZ 4360 ES;Maso Brejcha s.r.o.;Hradišťský Újezd č. p. 20, 33601 Blovice;49.5730888;13.577905
CZ 438 ES;LÍŠNO a.s.;Konopiště č. p. 24, 25601 Benešov;49.7712739;14.6512451
CZ 4402 ES;Jaroslav Anýž bourárna;Chotětín č. p. 16, 33808 Zbiroh;49.8580705;13.729826
CZ 4451 ES;Mlékárna Stříbro s.r.o.;Revoluční 845, 34901 Stříbro;49.7562239;12.9912402
CZ 4463 ES;JEDNOTA, spotřební družstvo v Tachově;Zámecká 2076, 34701 Tachov;49.7970008;12.6308267
CZ 452 ES;MAVE Jičín ,a.s.;Lháň č. p. 21, 50713 Radim;50.4739138;15.4083688
CZ 453 ES;BOHEMIA VITAE Jindřichův Hradec, a.s., provoz Drůbežárna J. Hradec;Jiráskovo předměstí 630, Jindřichův Hradec III, 37701 Jindřichův Hradec;49.1302338;15.0184628
CZ 4533 ES;ALIMPEX FOOD a.s.;Nádražní 253, 47123 Zákupy;49.2442164;13.53604925567701
CZ 454 ES;MAVELA a.s. Dynín;Dynín, 37364 Dynín;49.1377644;14.6294224
CZ 455 ES;Mydlářka a.s.;Benešov u Prahy, 25601 Benešov;49.7797683;14.6826261
CZ 4552 ES;GLOBUS ČR, k.s.;Černovická 5430, 43003 Chomutov;50.4568673;13.3924182
CZ 4560 ES;BEST CASING s.r.o.;Průmyslová 1, Vernéřov, 43151 Klášterec nad Ohří;50.399751;13.2216678
CZ 4561 ES;Jitka Sládečková;Zásada u Kadaně, 43201 Kadaň;49.7439047;15.3381061
CZ 4574 ES;Alena Freijeová - kozí farma;Kojetín č. p. 20, 43201 Radonice;49.6560456;15.6580261
CZ 459 ES;PROAGRO Nymburk a.s.;Městec Králové, 28903 Městec Králové;50.2105852;15.3002845
CZ 4602 ES;Josef Drda;Jirkov č. p. 50, 46822 Železný Brod;50.4902333;13.4474133
CZ 4603 ES;J & F PLUS s.r.o.;Oldřichov v Hájích č. p. 281, 46331 Oldřichov v Hájích;50.8494097;15.0837446
CZ 4612 ES;Řeznictví a uzenářství u Krejcarů, bourárna;Pěnčín č. p. 11, 46345 Pěnčín;49.5655831;17.0149041
CZ 4615 ES;David Šoukal;Loučná nad Nisou č. p. 53, 46811 Janov nad Nisou;50.7614363;15.1636188
CZ 462 ES;Vajax Písek;Vrcovice č. p. 64, 39701 Vrcovice;49.327984;14.1610858
CZ 463 ES;Strakonice;Nebřehovická 522, Přední Ptákovice, 38601 Strakonice;49.240265;13.9200302
CZ 4641 ES;Mgr. Josef Drda;Alšovice č. p. 124, 46821 Pěnčín;50.6803388;15.236855
CZ 4652 ES;VK - maso, s.r.o.;Ladova 147, 41118 Budyně nad Ohří;50.4029637;14.1290723
CZ 4657 ES;Jindřich Fiala;Podolí 344, Vrbice, 41119 Mšené-lázně;49.1884938;16.7270725
CZ 4685 ES;Mondelez CR Biscuit Production s.r.o.;8.května 189/15, 41002 Lovosice;50.5117986;14.0530242
CZ 475 ES;Jiří Papst;Oudoleň č. p. 96, 58224 Oudoleň;49.6588256;15.7548985
CZ 4752 ES;Krušnohorské uzeniny J+J Radoš s.r.o.;Osecká 179/19, 43511 Lom;50.5949667;13.6596673
CZ 478 ES;DŽV Rychnov nad Kněžnou a.s.;Semechnice, 51801 Semechnice;50.2609044;16.1452186
CZ 479 ES;AGRICOL s.r.o.;T. Novákové 521, Horní Předměstí, 57201 Polička;49.719575;16.2662725
CZ 4827 ES;NAZAR-DÖNERPRODUKTION s.r.o.;Školní 289, Mstišov, 41703 Dubí;49.9959806;14.1554491
CZ 4833 ES;Ludmila Randáčková;Zahrádky 349, Sobědruhy, 41510 Teplice;50.656784099999996;13.853496381997681
CZ 485 ES;Jaroslav Bareš - ŘEZNÍK UZENÁŘ;Lužec nad Cidlinou č. p. 9, 50362 Lužec nad Cidlinou;50.21395;15.4132888
CZ 4852 ES;MART-IN s.r.o;Převozní 51/15, Neštědice, 40332 Povrly;50.6684849;14.1484722
CZ 4859 ES;GLOBUS ČR, k.s.;Tyršova 869, 40004 Trmice;50.6506912;14.0009262
CZ 486 ES;ZEVOS a.s.;Velehradská 1923, 68603 Staré Město;49.0849123;17.4430193
CZ 4873 ES;MAKRO Cash & Carry ČR s.r.o.;Ústí nad Labem-centrum, Žižkova 3363/78, 40001 Ústí nad Labem 1;50.65120555;14.012457200450147
CZ 488 ES;AGROS Vyškov - Dědice a.s.;Jízdárenská 590/2a, Dědice, 68201 Vyškov;49.2907738;16.9870312
CZ 4884 ES;DORANT s.r.o.;Všebořická 603/46, Bukov, 40001 Ústí nad Labem;50.6826566;13.999857
CZ 489 ES;Podnik pro výrobu vajec v Kosičkách, s.r.o.;Podnik pro výrobu vajec v Kosičkách, s.r.o., 50365 Kosičky;50.1794665;15.5555692
CZ 4898 ES;VAT 33 s.r.o.;Údolí 100, Skorotice, 40340 Ústí nad Labem;50.6874544;14.0130206
CZ 4901 ES;Zemedelská a.s. Krucemburk,akciová spolecnost;Koželužská 385, 58266 Krucemburk;49.6853534;15.8437663
CZ 4902 ES;FRIGOSERVIS s.r.o.;Břevnická 1823, 58001 Havlíčkův Brod;49.6166678;15.5880995
CZ 4904 ES;Petr Šanda - ŘEZNICTVÍ - UZENÁŘSTVÍ;Riegrova 46, 58282 Golčův Jeníkov;49.7132576;16.2629013
CZ 4905 ES;Řeznictví Stejskal s.r.o.;Krále Jana 275, 58301 Chotěboř;49.7172478;15.6700498
CZ 4906 ES;Centrální výrobna Habry, s.r.o.;Žákovská 321, 58281 Habry;49.7579076;15.4819675
CZ 493 ES;Bernartice, sklad a balírna vajec ZD Agroholding;Bernartice č. p. 111, 79057 Bernartice;49.6758338;15.1302825
CZ 4930 ES;CATUS spol. s r.o.;Kyjovská 1598, 58001 Havlíčkův Brod;49.6121105;15.5988279
CZ 4931 ES;COOP družstvo HB;Partyzánská 33, 58301 Chotěboř;49.7103194;15.6839625
CZ 498 ES;Zemědělská Cítov a.s.;Cítov č. p. 1, 27704 Cítov;50.3726263;14.3960738
CZ 5010 ES;Řeznictví Švanda s.r.o.;Rváčovská 1698, 53901 Hlinsko;49.7624822;15.8958284
CZ 5013 ES;Řeznictví a uzenářství Oldřich Čejka, s.r.o.;Palackého náměstí 142, 53973 Skuteč;49.8434113;15.9957075
CZ 502 ES;AGROPODNIK Hodonín a.s., závod 01, třídírna vajec;Vacenovická 1271, 69602 Ratíškovice;48.9312263;17.1667163
CZ 505 ES;AVIAN - M.Z. s.r.o.;Lipník nad Bečvou I-Město, Smetanova 184, 75131 Lipník nad Bečvou;49.9599688;15.9116613
CZ 5051 ES;JATKY JEZDINSKÝ, s.r.o.;Žlunice č. p. 29, 50734 Žlunice;50.3028362;15.3822348
CZ 5054 ES;Farma Nový Dvůr Kořínkovi;Volanice č. p. 94, 50703 Volanice;50.3482751;15.3859913
CZ 507 ES;BOHEMILK a.s.;Podzámčí 385, 51773 Opočno;50.27642;16.0922275
CZ 510 ES;Zemedelské družstvo RADELO;Velký Ratmírov, 37701 Velký Ratmírov;49.1781482;14.9382629
CZ 5107 ES;Pejskar & spol., spol. s r.o.;Žďárská 296, 54954 Police nad Metují;49.5204813;15.9081513
CZ 511 ES;Ladislav Pecha - Soukromé jatky;Nová Ves č. p. 43, 37802 Číměř;49.6811588;17.0122275
CZ 513 ES;Zemedelské družstvo Pluhuv Ždár;Pluhův Žďár, 37824 Pluhův Žďár;49.22427445;14.892345464094774
CZ 5132 ES;ZEPO Bohuslavice a.s.;Bohuslavice č. p. 67, 54906 Bohuslavice;50.3198725;16.0875474
CZ 515 ES;ZP Hospríz, a.s.;Hospříz č. p. 62, 37701 Hospříz;49.1278571;15.0803382
CZ 5157 ES;GLOBUS;Poděbradská 293, Trnová, 53009 Pardubice;50.0584299;15.7525566
CZ 51740018 ES;ICE'N'GO! CZ s.r.o.;Pražská 2116/12a, 46601 Jablonec nad Nisou;50.7217376;15.1681188
CZ 51740029 ES;CBA NUGET s.r.o.;Bílý Kostel nad Nisou č. p. 500, 46331 Bílý Kostel nad Nisou;50.8208101;14.9221675
CZ 51740030 ES;Bohumil Havlíček;Švermova 268/76, Liberec X-Františkov, 46010 Liberec;50.7599188;15.0290146
CZ 51740041 ES;Potravinová banka Libereckého kraje, z. s.;Pionýrů 976/15, Liberec VI-Rochlice, 46006 Liberec;50.752223;15.063685
CZ 51740052 ES;ACCOM Czech, a.s.;Zahradní 445/45, Liberec XI-Růžodol I, 46001 Liberec;50.7780197;15.0463895
CZ 51740063 ES;JIP východočeská a. s.;Šrámkova 132, Liberec XX-Ostašov, 46010 Liberec;50.7626354;15.0092602
CZ 51740074 ES;Batlička s.r.o.;Hrubý Rohozec č. p. 7, 51101 Turnov;50.5995101;15.1560788
CZ 51740085 ES;JIP východočeská, a.s.;Branská 918, 51401 Jilemnice;50.6027236;15.5215804
CZ 51740120 ES;Alena Michalková - Řeznictví;náměstí 1. máje 138, 46331 Chrastava;50.6586525;14.725391
CZ 51740131 ES;Amix Production, s.r.o.;Vesecko 495, Daliměřice, 51101 Turnov;50.6054294;15.149535
CZ 51740142 ES;BONASERA a.s.;Špidlenova 436, 51301 Semily;50.6020951;15.33426
CZ 51740153 ES;Dáme Market;1. máje 871/13, Liberec III-Jeřáb, 46007 Liberec;50.7661479;15.0533471
CZ 51740164 ES;Libe Tirol s.r.o.;U Přehrady 5129/67, Mšeno nad Nisou, 46602 Jablonec nad Nisou;50.7356592;15.1816047
CZ 51770055 ES;MADETA  a.s.;Liberec XI-Růžodol I, Zahradní 445, 46001 Liberec 1;49.3880615;16.1154839
CZ 51770112 ES;Mražené potraviny KRISTIÁN s.r.o.;Příšovice č. p. 157, 46346 Příšovice;50.5754827;15.0719207
CZ 51810016 ES;PROMINENT CZ s.r.o.;Brniště č. p. 4, 47129 Brniště;50.7207976;14.7104987
CZ 51820084 ES;Řeznictví a uzenářství Karapetjan s.r.o.;Rádlo č. p. 222, 46803 Rádlo;50.7066563;15.1310775
CZ 51820095 ES;vinataga s.r.o., Porcovna drůbežího masa;Příšovice č. p. 157, 46346 Příšovice;50.5754827;15.0719207
CZ 51840031 ES;VLS ČR, s.p., LS Dolní Krupá;Ploužnice č. p. 293, 47124 Ralsko;50.6312138;14.7538888
CZ 51840042 ES;Jitravský Dvorec;Jítrava č. p. 5, 46353 Rynoltice;50.7927275;14.8451338
CZ 51850144 ES;TOMPELI s.r.o.;Huntířov č. p. 100, 46822 Skuhrov;50.4617966;15.8139379
CZ 51850245 ES;Farma Jeřmanice;Pastevní, Jeřmanice, 46312 Jeřmanice;49.7439047;15.3381061
CZ 51850289 ES;Farma Volavec s.r.o., Mlékárna Radostná pod Kozákovem;Volavec č. p. 4, 51263 Radostná pod Kozákovem;50.5683193;15.2424948
CZ 51850379 ES;WEISSER STERN - Výrobna pařených sýrů Františkov;Nová 332/20, Liberec X-Františkov, 46010 Liberec;50.7644936;15.0322762
CZ 51850414 ES;Farma Bzí;Bzí č. p. 160, 46822 Železný Brod;50.6592857;15.2362166
CZ 51880013 ES;Světlosoft s.r.o.;Radvánovice č. p. 108, 51101 Karlovice;50.5539051;15.2210788
CZ 51910062 ES;Biofarma Pod Hájkem s.r.o., Malofaremní porážka;Horní Branná č. p. 497, 51236 Horní Branná;50.6058433;15.5752054
CZ 51910073 ES;Ekofarma Tanvald - František Berka;Pod Špičákem 675, 46841 Tanvald;50.7443223;15.2752479
CZ 51910084 ES;Jatky Radek Vajs;Soběslavice č. p. 67, 46345 Soběslavice;50.6047344;15.0386739
CZ 51920131 ES;MIKADA s.r.o.;Potoční 2, Mimoň II, 47124 Mimoň;50.7509514;14.2002894
CZ 51930581 ES;Globus ČR, v.o.s., HM Globus Liberec;Sousedská 600, Liberec XI-Růžodol I, 46001 Liberec;50.777596;15.029464
CZ 51930682 ES;OLDRISKA s.r.o., Statek Dolní Oldřiš;Dolní Oldřiš č. p. 23, 46401 Bulovka;51.01105455;15.148199187480978
CZ 51940166 ES;Řeznictví a uzenářství NOVÝ s.r.o.;V Luzích 1621/12, 46602 Jablonec nad Nisou;50.7268488;15.17996
CZ 51940188 ES;PATE MANGALICA;Stará Lomnice 830, 51251 Lomnice nad Popelkou;50.5414329;15.3601909
CZ 51940199 ES;VysušTo;náměstí T. G. Masaryka 671, 46851 Smržovka;50.7390863;15.244305
CZ 51940212 ES;Usušený;U Vodního hradu 1394/28, 47001 Česká Lípa;50.6838525;14.5386488
CZ 51940223 ES;Krakonošova spižírna, Penzion Pohledničky;Horní Štěpanice č. p. 41, 51401 Benecko;50.6527145;15.5358272
CZ 51940234 ES;LORDY s.r.o.;Na Hutích 2962/44, 46601 Jablonec nad Nisou;50.7169176;15.1871712
CZ 51940245 ES;MASS.NA;Ruprechtická 681/172, Liberec XIV-Ruprechtice, 46014 Liberec;50.7889437;15.0682633
CZ 51940256 ES;North Czechia Jerky, s.r.o.;Hálkova 1126/2, Liberec I-Staré Město, 46001 Liberec;50.7719988;15.0719208
CZ 51940267 ES;Turnovská pivnice Na Lukách;Na Lukách 669, 51101 Turnov;50.5917696;15.1568996
CZ 51960056 ES;SEABERG s.r.o.;Příšovice č. p. 10, 46346 Příšovice;50.5760265;15.0718107
CZ 51960078 ES;Iveta Krulichová;Nádražní 92, Dolní Chrastava, 46331 Chrastava;49.0311431;16.6166591
CZ 51960090 ES;TOSUN s.r.o., mrazírenský sklad;Na Stebni 1726, 51101 Turnov;50.5841794;15.1605825
CZ 51970462 ES;TOSUN s.r.o.;Antonína Dvořáka 336, 51101 Turnov;50.5844888;15.15913
CZ 51970697 ES;MIR KEBAB CZ;náměstí T. G. Masaryka 1316, 46851 Smržovka;50.7392826;15.2427438
CZ 5205 ES;Jan Kolowrat Krakowský;U Broumaru 223, 51773 Opočno;50.2704788;16.1267188
CZ 5206 ES;ZOPOS a.s. Přestavlky;Chleny č. p. 80, 51745 Chleny;50.077906;16.2412211
CZ 525 ES;ZÁRUBA FOOD a.s.;Vrbenská 481/27, České Budějovice 4, 37006 České Budějovice;48.9777352;14.5072523
CZ 5252 ES;Správa Krkonošského národního parku, Lesní správa Rokytnice nad Jizerou;Dolní Rokytnice č. p. 454, 51244 Rokytnice nad Jizerou;50.7336163;15.4469531
CZ 52770304 ES;EXPRES MENU, s.r.o.;Petříkovická 518, Poříčí, 54103 Trutnov;50.5756263;15.9615013
CZ 52810028 ES;VOSPOL, spol. s r.o.;Čánka, 51773 Opočno;50.2600841;16.0861736
CZ 52820041 ES;PERENA, spol. s r.o.;Boženy Němcové 127, Chlumec nad Cidlinou IV, 50351 Chlumec nad Cidlinou;50.1603567;15.4664152
CZ 52840403 ES;Radoslava Kordeková;Brod č. p. 27, 55212 Heřmanice;50.3884801;15.9089438
CZ 52850189 ES;Potravinářská divize;Třída B. Smetany 1332, 50401 Nový Bydžov;50.2497613;15.4929738
CZ 52850279 ES;Baum Hospitality s.r.o.;Komenského 234, Trutnov;48.8906629;14.876408
CZ 52850291 ES;Sýrárna Broumov s.r.o.;Smetanova, Broumov;49.2304207;17.6657853
CZ 52870035 ES;Zpracovna sladkovodních ryb Stračov;Stračov, 50314 Stračov;50.3014027;15.6417423
CZ 52910142 ES;Jiří Andrysek;Mlékosrby č. p. 7, 50351 Mlékosrby;50.1948676;15.5064738
CZ 52920187 ES;Naše hospodářství;Osice č. p. 43, 50326 Osice;50.1440963;15.6845013
CZ 52920200 ES;bioBÝK;Jetřichov č. p. 225, 54983 Jetřichov;50.6165576;16.2652674
CZ 52920222 ES;PK ham spol. s r.o.;Třebešov č. p. 1, 51601 Třebešov;50.16896;16.2073688
CZ 52940101 ES;MASO KAZDA s.r.o.;Regnerova 258, 54232 Úpice;50.5092913;16.01865
CZ 52940112 ES;Fine Gusto Nature s.r.o.;Březhradská 148/3, Březhrad, 50332 Hradec Králové;50.173174;15.7975803
CZ 52940167 ES;Restaurace Bazén;Pec pod Sněžkou č. p. 324, Pec pod Sněžkou;50.6952048;15.7363202
CZ 52960046 ES;Mrazírny Maso Jičín;Konecchlumského 839, Valdické Předměstí, 50601 Jičín;50.4319094;15.3713239
CZ 530 ES;Spektrum, spol.s r.o.;U Jatek 294, 58813 Polná;49.4892241;15.7235794
CZ 531 ES;Petr Čech;Horní Město 773, 58832 Brtnice;49.3045331;15.6731262
CZ 5328 ES;AGRICOL s.r.o.;T. Novákové 521, Horní Předměstí, 57201 Polička;49.719575;16.2662725
CZ 535 ES;MAREČEK, s.r.o.;Revoluční 39/15, 58901 Třešť;49.2894177;15.483293
CZ 5352 ES;Zvičinské uzeniny a lahůdky s.r.o.;Dolní Brusnice č. p. 78, 54472 Dolní Brusnice;50.4549181;15.720766
CZ 53740009 ES;Emka plus s.r.o.;Smetanova 1003, 53973 Skuteč;49.8502861;15.9931673
CZ 53740032 ES;SENS Foods;Jaselská 1755, 53501 Přelouč;50.0351472;15.5828945
CZ 53740054 ES;DLC Qanto Svitavy;Pražská p.č. 1009/1, Město, 56802 Svitavy;49.0175897;14.7558262
CZ 53740065 ES;Logistické centrum Šmídl Vysoké Mýto (hala H 3);Voštice 931, Litomyšlské Předměstí, 56601 Vysoké Mýto;49.7439047;15.3381061
CZ 53740076 ES;Sklad masa;Klostermanova 516, 56401 Žamberk;50.0770617;16.4466802
CZ 53740087 ES;SKLAD EXTRIFIT;Cerekvice nad Loučnou č. p. 7, 56953 Cerekvice nad Loučnou;49.89783;16.2183863
CZ 53740100 ES;ČOKO KLASIK družstvo;náměstí 17. listopadu 2061, 56002 Česká Třebová;49.8844125;16.4501713
CZ 53770260 ES;TOLUP s.r.o.;Slatiňany, U Cukrovaru, 53821 Slatiňany;49.9196167;15.8130079
CZ 53770327 ES;Phoenix lékárenský velkoobchod s.r.o.;Fibichova 143, Pražské Předměstí, 56601 Vysoké Mýto;49.9574696;16.1558132
CZ 53770350 ES;The Fish Company s.r.o.;Ohrazenická 281, Polabiny, 53009 Pardubice;50.0500058;15.762924
CZ 53770372 ES;sklad chlazených výrobků;Rváčovská 293, 53901 Hlinsko;49.7622588;15.8933275
CZ 53770406 ES;EXTRIFIT, s.r.o.;Dolní Újezd č. p. 672, 56961 Dolní Újezd;49.8320134;16.2594912
CZ 53770417 ES;Potravinová banka Pardubice;Chotovice č. p. 31, 57001 Chotovice;49.8502125;16.1705075
CZ 53770428 ES;Mlékárna Hlinsko, a.s.;Havlíčkova 629, 53901 Hlinsko;49.7552438;15.9029338
CZ 53770439 ES;NIKA Logistics a.s.;Průmyslová 387, Pardubičky, 53003 Pardubice;50.0202542;15.8079724
CZ 53770440 ES;Lékárna.CZ;Píšťovy 864, Chrudim III, 53701 Chrudim;49.9306807;15.8075898
CZ 5378 ES;Alois Mejsnar;Kunčice nad Labem, 54371 Kunčice nad Labem;50.5838538;15.6227751
CZ 53810030 ES;Krůty Rychnov;Rychnov, Krouna;49.7730727;16.0716878
CZ 53810074 ES;Zemědělská a.s. Vysočina;Svobodné Hamry, 53901 Vysočina;49.7741456;15.8335656
CZ 53830009 ES;Farma Tégl;Holešovice u Chroustovic, 53863 Chroustovice;49.7439047;15.3381061
CZ 53840044 ES;Pavel Šmidrkal;Sádka 148, 53341 Lázně Bohdaneč;50.0816976;15.6631113
CZ 53840055 ES;Zemědělská společnost J+V s.r.o.;Lukavice, 53821 Lukavice;49.8786064;15.8275892
CZ 53840066 ES;AGROS-Kojice, spol. s r.o.;Kojice 176, 533 12 Chvaletice;50.0396838;15.38709
CZ 53840099 ES;Zpracovna zvěřiny Záchlumí;Bohousová č. p. 45, 56186 Záchlumí;50.0925125;16.3820262
CZ 53840369 ES;Wild food s.r.o.;Na Lánech 30, Lány, 57001 Litomyšl;49.8781988;16.301345
CZ 53850258 ES;České ghíčko;Masarykovo náměstí 181, Litomyšlské Předměstí, 56601 Vysoké Mýto;49.004474;14.7709467
CZ 53850292 ES;Sýrárna;Dolní Hedeč, 56169 Králíky;50.0750542;16.7827231
CZ 53850304 ES;Minimlékárna Juliana;Tuněchody č. p. 63, 53701 Tuněchody;49.9777438;15.839445
CZ 53850315 ES;Školní mlékárna a školní chadící zařízení;Dolní Třešňovec č. p. 17, 56301 Lanškroun;49.9231082;16.6122094
CZ 53850348 ES;Mléko Tuněchody;Tuněchody č. p. 63, 53701 Tuněchody;49.9777438;15.839445
CZ 53850359 ES;Minimlékárna Březiny;Březiny u Poličky, 57201 Březiny;49.7439047;15.3381061
CZ 53850371 ES;Faremní mlékárna na Ranči v Bělečku;Bělečko č. p. 21, 53401 Býšť;50.1533912;15.9590126
CZ 53850382 ES;MILTRA Europe s.r.o.;Městečko Trnávka č. p. 292, 56941 Městečko Trnávka;49.7161237;16.72339987704168
CZ 53850393 ES;Minimlékárna Květná;Květná č. p. 40, 57201 Květná;49.7369413;16.34404
CZ 53850405 ES;GHÍ OD SRDCE;České Heřmanice č. p. 99, 56552 České Heřmanice;49.9316101;16.2554713
CZ 53850427 ES;Mlékárna Řetová;Řetová, 56141 Řetová;49.9452274;16.3812667
CZ 53880082 ES;LIMI - MARTIN PRCHAL;Žižín č. p. 3, 53002 Pardubice;50.0197666;15.8469224
CZ 53880116 ES;OVOTRADE s.r.o. - sklad Libišany;Libišany č. p. 192, 53345 Libišany;50.1574743;15.7588167
CZ 53880127 ES;VEMA, akciová společnost - chov drůbeže;Dašická 911, Chrudim IV, 53701 Chrudim;49.9608063;15.7993488
CZ 53880138 ES;DAYS MENU s.r.o.;Hostovice č. p. 74, 53002 Pardubice;50.0042518;15.8645371
CZ 53910233 ES;Klášterecké masné pochoutky, a. s.;Klášterec nad Orlicí č. p. 162, 56182 Klášterec nad Orlicí;50.1115338;16.5378863
CZ 53910255 ES;ŘEZNICTVÍ SLOUPNICE s.r.o.;Dolní Sloupnice č. p. 191, 56553 Sloupnice;49.9195925;16.3058425
CZ 53910266 ES;Michal Sedláček;Osík č. p. 125, 56967 Osík;49.8479401;16.288495
CZ 53910277 ES;Rodinná farma Bílkovi s.r.o.;Na Písku 107, 56942 Chornice;50.0049823;14.3552518
CZ 53910288 ES;Aleš Pištora - Naše řeznictví;Jaroslav č. p. 3, 53401 Jaroslav;50.0121938;16.0770549
CZ 53920188 ES;FOSTRADE s.r.o.;Písečná č. p. 136, 56170 Písečná;50.4560295;13.902354
CZ 53920199 ES;JUSTMEAT s.r.o.;Nabočany č. p. 1, 53862 Nabočany;49.9442563;15.8821
CZ 53920201 ES;JIP - VÝROBA MASA;Hradišťská 407, Polabiny, 53352 Pardubice;50.0628239;15.7665681
CZ 53920212 ES;VETLABFARM s.r.o.;Jakubovice č. p. 55, 56301 Dolní Čermná;49.9559836;16.5576439
CZ 53940135 ES;Konzervárna Pardubice;Štrossova 239, Bílé Předměstí, 53003 Pardubice;50.035081;15.7883623
CZ 53940258 ES;Ježkovy krabičky s.r.o.;Semtín č. p. 100, 53353 Pardubice;49.6685295;14.6570584
CZ 53940269 ES;Provozovna Vysoké Mýto;V Kasárnách 911, Litomyšlské Předměstí, 56601 Vysoké Mýto;49.9448911;16.1601222
CZ 53960047 ES;JIP východočeská, a.s.;Hradišťská 407, Polabiny, 53352 Pardubice;50.0628239;15.7665681
CZ 53960058 ES;Exver Food, s.r.o.;Lihovar 173, 53344 Staré Ždánice;50.1141801;15.7324387
CZ 53970060 ES;BAPA s.r.o.;Živnostenská 858, 56151 Letohrad;50.0364175;16.50947
CZ 543 ES;ŘEZNICTVÍ KRATOCHVÍL s.r.o.;Kamenice č. p. 147, 58823 Kamenice;49.3667254;15.7771288
CZ 5433 ES;TORO VM a.s.;Ležáků 722, Litomyšlské Předměstí, 56601 Vysoké Mýto;49.9444614;16.1503775
CZ 5453 ES;Zemědělský podnik Město Albrechtice a.s.;Zámecká 83/1, 79395 Město Albrechtice;50.1633788;17.5707899
CZ 5466 ES;MASO V+W, s.r.o.;Červený dvůr 1128/33, Pod Cvilínem, 79401 Krnov;50.0697613;17.7379038
CZ 5496 ES;MILKOV, s.r.o.;Lomnice č. p. 17, 79302 Lomnice;49.8734413;17.4162638
CZ 5544 ES;Beskydské uzeniny, a.s.;Příborská 520, Místek, 73801 Frýdek-Místek;49.6703176;18.334045
CZ 5545 ES;Beskydské uzeniny, a.s.;Fryčovice č. p. 658, 73945 Fryčovice;49.6611138;18.2256888
CZ 5548 ES;V PRON, s.r.o.;Lískovec č. p. 297, 73801 Frýdek-Místek;49.7111326;18.3313044
CZ 5553 ES;Marta Wojtasová;Koperníkova 185, 73553 Dolní Lutyně;49.8989438;18.4290425
CZ 5617 ES;Mgr. Dalibor Socha;Příbor, 74258 Příbor;49.635923;18.1422459
CZ 563 ES;Těšínské jatky,s.r.o.-výrobní závod Na Olšinách, Český Těšín;Na Olšinách 361/1, 73701 Český Těšín;49.751845;18.61791
CZ 5630 ES;Leoš Viznar;Bernartice nad Odrou, 74101 Bernartice nad Odrou;49.6096135;17.9475401
CZ 5660 ES;VLS ČR, s.p., LS Velký Újezd - Slavkov;Slavkov u Města Libavá, 75131 Lipník nad Bečvou;49.7439047;15.3381061
CZ 5666 ES;Globus CR;Pražská 248/39, Řepčín, 77900 Olomouc;49.6014881;17.2232302
CZ 5702 ES;OZS-ZEMPOL s.r.o., drůbeží porážka;Komenského 763, 74901 Vítkov;49.1044523;16.7609161
CZ 5711 ES;Řeznictví Na Hůrce – Gróman s.r.o.;Na Hůrce 28, 74756 Dolní Životice;49.8967088;17.7878438
CZ 5722 ES;Hypermarket Globus Opava;Těšínská 2830/83, Předměstí, 74601 Opava;49.9294041;17.9407519
CZ 5751 ES;Mlékárna Kunín, s.r.o. - provozovna Martinov;Martinovská 3291/46, Martinov, 72300 Ostrava;49.8529934;18.1860213
CZ 5753 ES;KIMBEX, s.r.o.;Šalounova 326/40, Vítkovice, 70300 Ostrava;49.8105672;18.2658043
CZ 5755 ES;PENSAM s.r.o., výroba masa a uzenin, provozovna Ostrava -  Polanka;K Vydralinám 114/5, Polanka nad Odrou, 72525 Ostrava;49.7850494;18.159476
CZ 5759 ES;Řeznictví Tichý s.r.o.;Mlýnská 36, Chabičov, 74792 Háj ve Slezsku;49.5766476;18.7666363
CZ 5790 ES;MAKRO Cash & Carry ČR s r.o.;Místecká 755/280, Hrabová, 72000 Ostrava;49.7754975;18.2682638
CZ 5805 ES;VLS ČR, s.p., LS Potštát;Horní Předměstí, 75362 Potštát;50.3381371;12.5222064
CZ 5875 ES;Bludovská a.s.;Třemešek u Šumperka, 78701 Šumperk 1;49.7439047;15.3381061
CZ 5901 ES;Mlékárna Valašské Meziříčí, spol. s r.o.;Zámecká 2/57, Krásno nad Bečvou, 75701 Valašské Meziříčí;49.47988;17.9665363
CZ 5907 ES;Jan Černocký - Řeznictví a uzenářství;Smetanova 1304, 75501 Vsetín;49.3348563;17.9977363
CZ 5911 ES;V.K.P., spol. s r.o.;Dolní Bečva č. p. 598, 75655 Dolní Bečva;49.45019;18.2079625
CZ 5921 ES;Ľuboslav Ďurčo;Zašová č. p. 526, 75651 Zašová;49.4700775;18.0417613
CZ 5922 ES;Ing. Tomáš Ondruch;Valašská Bystřice, 75627 Valašská Bystřice;49.414608;18.1093955
CZ 5944 ES;JACOBS DOUWE EGBERTS OPS CZ s.r.o..;Sokolská 582/85, 75701 Valašské Meziříčí;49.4694963;17.9615463
CZ 5951 ES;Pavel Růžička;Pamětice č. p. 76, 67961 Pamětice;49.549426;16.6429992
CZ 5959 ES;Eva Sedláková;Šošůvka č. p. 45, 67913 Šošůvka;49.4092675;16.7518575
CZ 5972 ES;Řeznictví VRBAS, s.r.o.;náměstí Míru 113, 67974 Olešnice;49.5585487;16.4230136
CZ 599 ES;Ing. Miloslav Šefler;U Jatek 126, 34101 Horažďovice;49.3154905;13.706667
CZ 600 ES;Uzeniny Příbram, a.s.;Jinecká 315, Příbram I, 26101 Příbram;49.7018194;14.011962
CZ 6004 ES;Strejček, s.r.o. - Přípravna masa a masná výrobna;Palackého náměstí 76/12, Řečkovice, 62100 Brno;49.2516244;16.5824749
CZ 6005 ES;STEINEX a.s.;Zámecká 2019/13, 66434 Kuřim;49.2969363;16.520451
CZ 601 ES;Měcholupská zemědělská, a. s.;Předslav č. p. 101, 33901 Předslav;49.4374946;13.3574009
CZ 6010 ES;BOMASO, a.s.;Kikrleho 1129/17, Slatina, 62700 Brno;49.1749411;16.6924831
CZ 6017 ES;Zelenka s.r.o.;Topolová 910, 66701 Židlochovice;49.0277157;16.6200864
CZ 602 ES;Moravia Lacto a.s.;Jiráskova 2430/94, 58601 Jihlava;49.4080628;15.5702371
CZ 605 ES;Jatky Žlutice;Lomnice 184, 36452 Žlutice;50.0888649;13.1712756
CZ 6054 ES;Řeznictví a uzenářství Flajšingr;náměstí Míru 26, 66701 Židlochovice;49.5564838;16.4214038
CZ 6070 ES;ZELPo - K, spol. s r.o.;Vysoké Popovice č. p. 185, 66484 Vysoké Popovice;49.1828828;16.2872653
CZ 6073 ES;MILPACK s.r.o.;Litostrovská 808, 66501 Rosice;49.1856376;16.3765778
CZ 6074 ES;Cortina Development spol. s r.o.;Jihlavská 556/2d, 66441 Troubsko;49.1768669;16.5076519
CZ 608 ES;STATEK BOR ZEOS, spol. s r. o. - jatky s malou kapacitou;Šemnice, 36272 Šemnice;50.2395051;12.9721518
CZ 6081 ES;Modios spol. s r.o.;Tyršova 683, 66442 Modřice;49.1310788;16.6000675
CZ 610 ES;REGENT PLUS Žlutice spol. s r.o.;Žlutice, 36452 Žlutice;50.0845871;13.1595547
CZ 6103 ES;Zdeněk Žůrek;Rybáře 56, 69154 Týnec;48.7776207;17.0141691
CZ 6104 ES;Luděk Janůš;U Jánského dvora 190/49, 69003 Břeclav 3;48.7710885;16.8929269
CZ 6123 ES;FRUJO, a. s.;Tvrdonice č. p. 710, 69153 Tvrdonice;48.7784474;16.9446937
CZ 6131 ES;Jednota, spotřební družstvo v Mikulově;Žižkova 818/55, 69301 Hustopeče;48.9465266;16.7238594
CZ 6152 ES;ZEMAS, a.s.;Želetice u Kyjova, 69637 Želetice;49.7439047;15.3381061
CZ 6154 ES;Savencia Fromage & Dairy Czech Republic, a.s.;Velkomoravská 2714/28, 69501 Hodonín;48.8518263;17.1103487
CZ 6159 ES;MASPRO, s.r.o.;Hodonín, Křičkova 3867/28, 69503 Hodonín 1;48.859421;17.1110288
CZ 61740053 ES;Velkosklad potravin LIDL;Stránecká Zhoř č. p. 139, 59442 Stránecká Zhoř;49.3795388;15.9366575
CZ 61740187 ES;Ježkův statek, s.r.o.;U Kult. domu 714, 39470 Kamenice nad Lipou;49.3011986;15.0735592
CZ 61740277 ES;Natural Jihlava JK s.r.o.;Humpolecká 286/28, Staré Hory, 58601 Jihlava;49.4172598;15.5605427
CZ 61740301 ES;AMVEL s.r.o.;Znojemská 839/80, 58601 Jihlava;49.3851488;15.5931207
CZ 61740334 ES;AMVEL s.r.o. Mrazírny;Horní Město 6, 58832 Brtnice;49.2997099;15.6698881
CZ 61740345 ES;EMI Food s.r.o.;Dolní Cerekev č. p. 297, 58851 Dolní Cerekev;49.3458104;15.4628869
CZ 61740390 ES;LOG Point 112 s.r.o.;Pávovská 5889/92, 58601 Jihlava;49.4306583;15.6062595
CZ 61810051 ES;KRŮTA MORAVA, s.r.o.;Udeřice, 67555 Bačice;49.7439047;15.3381061
CZ 61810073 ES;Josef Tříska;Rohozná u Jihlavy, 58844 Rohozná;49.348784;15.4013721
CZ 61810084 ES;František Němec;Netín č. p. 110, 59444 Netín;49.4141163;15.9396662
CZ 61810095 ES;Tamara Sopková;Kalhov č. p. 24, 58842 Kalhov;49.4806584;15.4408222
CZ 61810107 ES;Jan Kubec;Holýšov č. p. 16, 39501 Mezilesí;49.5481508;14.9355245
CZ 61810118 ES;INTEGRA, a.s.;Lípa č. p. 121, 58257 Lípa;49.555825;15.5368875
CZ 61820007 ES;FARAGONIS, s.r.o.;Chelčického 315, 67602 Moravské Budějovice;50.0339602;15.2052113
CZ 61830008 ES;Josef Vaníček;Hojovice č. p. 64, 39501 Hojovice;49.3338768;14.9205472
CZ 61830019 ES;Jan Karásek;Dlouhé na Moravě, 59255 Dlouhé;49.7439047;15.3381061
CZ 61840065 ES;Michaela Příhodová;Okarec č. p. 43, 67502 Okarec;49.2156306;16.0915506
CZ 61850156 ES;FARMA RODINY NĚMCOVY s.r.o.;Netín č. p. 78, 59444 Netín;49.4136775;15.9521513
CZ 61850167 ES;Jana Provazníková;Krasolesí 7, Košetice okr. Pelhřimov, 39422 Košetice;49.7439047;15.3381061
CZ 61850178 ES;Dvorský statek s.r.o.;Olešenka č. p. 10, 58222 Olešenka;49.5481401;15.7670012
CZ 61850213 ES;FARMA ÚHOŘILKA s.r.o.;Úhořilka č. p. 12, 58253 Úhořilka;49.5249025;15.5307638
CZ 61850224 ES;Antonín Mokrý;Pošná č. p. 26, 39501 Pošná;49.4576545;15.0404584
CZ 61850235 ES;Agroveles, s.r.o.;Výčapy č. p. 189, 67401 Výčapy;49.1395367;15.8792033
CZ 61850279 ES;Miloslav Zedníček;Gabrielka č. p. 35, 39470 Kamenice nad Lipou;49.2866807;15.0647426
CZ 61850280 ES;LUKA, a.s.;Vysoké Studnice č. p. 120, 58821 Vysoké Studnice;49.3903259;15.7277979
CZ 61850347 ES;Agromilk, družstvo vlastníků;Ovesná Lhota č. p. 78, 58291 Ovesná Lhota;49.7197715;15.3811606
CZ 61850358 ES;LAPEK, a.s.;Staňkova 230, Telč-Štěpnice, 58856 Telč;49.1852898;15.4652011
CZ 61850392 ES;KOOPERACE, a.s.;Výčapy č. p. 189, 67401 Výčapy;49.1395367;15.8792033
CZ 61850437 ES;NAŠE FARMY Pá-Pá s.r.o.;Rožná č. p. 208, 59252 Rožná;49.4778691;16.2313166
CZ 61850460 ES;Mlékárna Buřenice David Kolman;Buřenice;49.7439047;15.3381061
CZ 61850538 ES;AGRAS Bohdalov, a.s.;Bohdalov č. p. 278, 59213 Bohdalov;49.4760596;15.8740846
CZ 61850594 ES;Rolnická společnost Lesonice a.s.;Lesonice č. p. 165, 67544 Lesonice;49.1083899;15.7619336
CZ 61850617 ES;Markéta Mokrá;Pošná č. p. 26, 39501 Pošná;49.4576545;15.0404584
CZ 61850628 ES;Ing. Dagmar Řezníková - sýrárna Danka;Červená Lhota č. p. 28, 67507 Červená Lhota;49.2839594;15.806714393900496
CZ 61850639 ES;SVRATECKO, a.s.;Unčín č. p. 69, 59242 Unčín;49.6130701;16.2316325
CZ 61850729 ES;Farma Ostrovec, s.r.o.;Pozďatín č. p. 2, 67503 Pozďatín;49.2417249;16.041887
CZ 61850730 ES;EU-RENOVA s.r.o.;Bratříků 4346, 58001 Havlíčkův Brod;49.608914;15.5875912
CZ 61870271 ES;Ondřej Pána;Častrov č. p. 87, 39463 Častrov;49.3092385;15.1845864
CZ 61870338 ES;Kinského rybárna;Bezručova 39/4, Žďár nad Sázavou 2, 59101 Žďár nad Sázavou;49.5758022;15.9382056
CZ 61870349 ES;Zemědělské družstvo Hrotovice, družstvo;Milačka 603, 67555 Hrotovice;49.1132637;16.0536701
CZ 61880047 ES;Vejce z Bystřice, s.r.o.;Vítochov, 59301 Bystřice nad Pernštejnem;49.5673013;16.2539984
CZ 61910142 ES;Jaroslav Točík;Nový Rychnov, 39404 Nový Rychnov;49.383575199999996;15.364512521267772
CZ 61910153 ES;Maso H+S spol.s r.o.;Skrýšovská 250, 39301 Pelhřimov;49.4179455;15.2242383
CZ 61910175 ES;"ZVOZD ""Horácko"", družstvo";Kněžice u Třebíče, 67529 Kněžice;49.2660997;15.6710728
CZ 61910221 ES;JAPEC s.r.o.;U Koupaliště 352, 59202 Svratka;49.71031;16.0229688
CZ 61910298 ES;Výrobně-obchodní družstvo Nová Cerekev;Chmelná u Pelhřimova, 39301 Nová Cerekev;49.7439047;15.3381061
CZ 61910300 ES;Zemědělské obchodní družstvo Božejov;Ústrašín, 39301 Ústrašín;49.3829813;15.1669777
CZ 61910311 ES;Agropodnik Košetice, a.s.;Košetice č. p. 212, 39422 Košetice;49.5562186;15.1196064
CZ 61910322 ES;"Zemědělské družstvo ""Kalich""";Kamenice nad Lipou, 39470 Kamenice nad Lipou;49.2948536;15.0747315
CZ 61910333 ES;Zemědělské družstvo Lukavec;Lukavec u Pacova, 39426 Lukavec;49.7439047;15.3381061
CZ 61910399 ES;Alois Stloukal;Mjr. Šandery 48, 67571 Náměšť nad Oslavou;49.2062302;16.1594645
CZ 61910445 ES;Jiří Votava;Rozsochatec č. p. 7, 58272 Rozsochatec;49.6759938;15.632145
CZ 61910456 ES;Jatka Perknov s.r.o.;Mlýnská 3331, 58001 Havlíčkův Brod;49.6206723;15.540183
CZ 61910489 ES;Zdeněk Mareček;Želiv č. p. 164, 39444 Želiv;49.5295822;15.2216254
CZ 61910490 ES;Josef Sklenář;Sasov č. p. 2, 58601 Jihlava;49.382237;15.6000654
CZ 61910502 ES;Jatky Fryšava s.r.o.;Fryšava pod Žákovou horou č. p. 40, 59204 Fryšava pod Žákovou horou;49.6302188;16.0398525
CZ 61910535 ES;Mitrovský dvůr, a.s.;Mitrov č. p. 9, 59253 Strážek;49.4396245;16.2177728
CZ 61910546 ES;Iveta Kuzdasová;Strměchy č. p. 55, 39301 Pelhřimov;49.4454614;15.3067436
CZ 61910568 ES;Jaroslav Macek;Třesov parc. č. 70/3, 67502 Třesov;49.7439047;15.3381061
CZ 61910580 ES;Jiří Mátl;Kozlov č. p. 148, 58821 Kozlov;49.4172173;15.6893996
CZ 61910591 ES;SPV Pelhřimov Jatka Plevnice;Plevnice č. p. 42, 39301 Olešná;49.4448103;15.2848487
CZ 61910603 ES;Vladimír Bartoš;Staré Bříště č. p. 52, 39601 Staré Bříště;49.4877968;15.3602782
CZ 61910614 ES;Ing. Lenka Kovačevičová Jatky Mohelno;Mohelno č. p. 413, 67575 Mohelno;49.1168089;16.1896477
CZ 61920132 ES;Karel Prchal;Okružní 357/3, 58812 Dobronín;49.4789508;15.6516976
CZ 61920187 ES;Jiří Malec;Oslavice č. p. 213, 59401 Oslavice;49.3382543;15.9945728
CZ 61920211 ES;Karel Zims;Dopravní 1638, 67602 Moravské Budějovice;49.0555094;15.8012286
CZ 61920244 ES;Kamil Bronec;Střížov č. p. 93, 58301 Chotěboř;49.3434519;15.7019064
CZ 61920299 ES;ZERAS a.s.;Radostín nad Oslavou č. p. 224, 59444 Radostín nad Oslavou;49.4645163;15.970915
CZ 61930762 ES;ecoproduct s.r.o.;Jelcovy Lhotky č. p. 5, 39301 Pelhřimov;49.4507815;15.3169254
CZ 61930874 ES;Luboš Mynář;Benešovo náměstí 17, 59451 Křižanov;49.3888387;16.1112221
CZ 61931437 ES;A G R O Hybrálec, s.r.o.;Ústí č. p. 108, 58842 Ústí;49.4698292;15.4182766
CZ 61940190 ES;Řeznictví a uzenářství Jan Pavlíček s.r.o.;Masarykovo nám. 966, 67571 Náměšť nad Oslavou;49.2056942;16.1573344
CZ 61940202 ES;EZON s.r.o.;Nový Rychnov č. p. 263, 39404 Nový Rychnov;49.3811389;15.3657575
CZ 61940224 ES;AGENTURA RR s.r.o.;Krátká 1021, 67571 Náměšť nad Oslavou;49.2091238;16.1562416
CZ 61940257 ES;NIKA INTERNATIONAL, a.s.;K Hoře 1704, 67602 Moravské Budějovice;49.0586458;15.801812
CZ 61940336 ES;Hospodářský dvůr POŘÍČÍ, s.r.o.;Kletečná č. p. 72, 39601 Humpolec;49.5059472;15.2988771
CZ 61940358 ES;Petr Dvořáček;Koroužné č. p. 56, 59301 Koroužné;49.5289938;16.3488224
CZ 61940392 ES;Farmářskej krámek s.r.o.;Na Kariánce 315, 39470 Kamenice nad Lipou;49.2958933;15.0766655
CZ 61940426 ES;SVUS Pharma a.s.;Kostelec č. p. 60, 58861 Kostelec;49.3563362;15.489785
CZ 61970205 ES;Natura Food Additives, a.s.;Termesivy č. p. 128, 58001 Havlíčkův Brod;49.6084869;15.6104116
CZ 61970283 ES;JH GROUP, spol. s r.o.;Hamry 1596, 58001 Havlíčkův Brod;49.6093041;15.6123269
CZ 625 ES;Ladislav Bukvic - řeznictví a uzenářství s.r.o.;Husova 43, 46822 Železný Brod;49.0193775;14.4984807
CZ 6252 ES;KROMILK, a.s.;Štěchovice 1357/14, 76701 Kroměříž;49.3009566;17.3831109
CZ 6254 ES;Drůbežárna Holešov spol. s r.o.;Holešov, 76901 Holešov;49.3270151;17.5709312
CZ 62740009 ES;Daniela Ševčíková;Hřbitovní 371, 66442 Modřice;49.1258226;16.6138625
CZ 62740021 ES;Food&Friends;Masná 27/9, Trnitá, 60200 Brno;49.1840256;16.6265368
CZ 62740054 ES;JASO - DISTRIBUTOR, spol. s.r.o. - Velkoobchodní sklad;Střelice č. p. 726, 66447 Střelice;49.1628799;16.4929769
CZ 62740098 ES;DKS Morava s.r.o. - Provozní sklady;U Svitavy 8/3, Černovice, 61800 Brno;49.174799;16.6343078
CZ 62740122 ES;POLAR GASTRO s.r.o.;Masná 496/7d, Trnitá, 60200 Brno;49.1840129;16.6286843
CZ 62740177 ES;JAPO - transport s.r.o.;Vintrovna 395/25, 66441 Popůvky;49.1827893;16.4830174
CZ 62740278 ES;AGF Food Logistics, a.s., DC Brno Modřice;Chrlická 522, 66442 Modřice;49.13401;16.6290338
CZ 62740289 ES;Potravinová banka pro Brno a Jihomoravský kraj, z.s.;Řípská 960/9a, Slatina, 62700 Brno;49.1733566;16.6810318
CZ 62740380 ES;AUTODOPRAVCE PAVEL MRÁKA,spol.s r.o.;Na Výhoně 3035, 69501 Hodonín;48.8659163;17.1383613
CZ 62740391 ES;GASTRO - MENU EXPRESS a.s.;Pražákova 510/51, Horní Heršpice, 61900 Brno;49.1659437;16.6009468
CZ 62740414 ES;Josef Esterka - sklad;Velkomoravská 4265/87c, 69501 Hodonín;48.8491333;17.1047669
CZ 62740515 ES;VELKÁ PECKA s.r.o.;Trnkova 3118/119c, Líšeň, 62800 Brno;49.1949733;16.6718247
CZ 62740548 ES;Emma potraviny spol. s r.o.;Košinova 1732/75, Královo Pole, 61200 Brno;49.2217212;16.6009006
CZ 62740571 ES;Akkermann, s.r.o. - Produktoff;Cejl 492/23, Zábrdovice, 60200 Brno;49.1974435;16.6176973
CZ 62740582 ES;KEBAB FOOD CZ s.r.o.;Havlíčkova 1598/63, 68001 Boskovice;49.4987701;16.6652038
CZ 62740605 ES;KEBABSTUFFCZ s.r.o.;Pamětice č. p. 66, 67961 Pamětice;49.5495179;16.6456475
CZ 62740650 ES;foodora MARKET;Heršpická 800/6, Štýřice, 63900 Brno;49.1807113;16.6027123
CZ 62740683 ES;FAMILY MARKET s.r.o.;Veveří 269, 66481 Ostrovačice;49.2178963;16.4125838
CZ 62740739 ES;TLT International s.r.o. - Brno;Masná 27/9, Trnitá, 60200 Brno;49.1840256;16.6265368
CZ 62740773 ES;KEBABSTUFFCZ s.r.o.;Blanenská 1902/73, 66434 Kuřim;49.3136903;16.5319639
CZ 62740807 ES;JIP východočeská, a.s.;Na Výhoně 3682, 69501 Hodonín;48.867348;17.1386237
CZ 62740874 ES;Süleyman Cicek - Bahar Kebab;Na Mlékárně 242, 66601 Tišnov;49.3428323;16.4247715
CZ 62740885 ES;Krobelus s r.o.;Masarykova 118, 66442 Modřice;49.5109146;12.80995
CZ 62740896 ES;AUTODOPRAVA Kotlán s.r.o.;Havránkova 30/11, Dolní Heršpice, 61900 Brno;49.157601;16.6218692
CZ 62740975 ES;KEBAB & GYROS CZ s.r.o.;Havlíčkova 1598/63, 68001 Boskovice;49.4987701;16.6652038
CZ 62769000 ES;COLLADO s.r.o. – RD s provozovnou;Hovorany č. p. 405, 69612 Hovorany;48.9554113;16.9915525
CZ 62770428 ES;Lenka Vlasáková - Bujónka;Za Humny 3302/20, Boršov, 69701 Kyjov;49.0251535;17.1254247
CZ 62770439 ES;Šneci z Rybníčku;Rybníček č. p. 95, 68201 Rybníček;49.2734382;17.0755908
CZ 62770451 ES;Jiří Szotkowski - šnečí farma Vlkoš;Vlkoš č. p. 255, 69641 Vlkoš;48.9914754;17.1650356
CZ 62770462 ES;WormUP s.r.o.;Husova 1994/1, 67801 Blansko;49.3547828;16.6524754
CZ 62770473 ES;Crunchy s.r.o.;Palackého třída 182/40, Královo Pole, 61200 Brno;49.2207307;16.5968921
CZ 62770507 ES;Devro s.r.o., závod Slavkov u Brna;Okružní 1438, 68401 Slavkov u Brna;49.1507583;16.8920829
CZ 62770518 ES;Grig Distribuce s.r.o.;Ptašínského 312/9, Ponava, 60200 Brno;49.2116296;16.6006092
CZ 62770529 ES;DACOM Pharma s.r.o.;Šardice č. p. 371, 69613 Šardice;48.9621319;17.027626
CZ 62770530 ES;MASO JURAČKA s.r.o.;Olší č. p. 55, 59261 Olší;49.4212263;16.2900236
CZ 62810030 ES;Ludvík Dvořák - PORCOVNA DRŮBEŽE;Bezručova 431/14, 69106 Velké Pavlovice;48.9063875;16.815795
CZ 62810041 ES;BOVINEX, s.r.o. - Porážka krůt;Areál zemědělského družstva Ostrov u Macochy, 67914 Ostrov u Macochy;49.7439047;15.3381061
CZ 62850315 ES;Markéta Palánová - Sýrárna;Jezeřany-Maršovice č. p. 43, 67175 Jezeřany-Maršovice;49.0311854;16.4385629
CZ 62850348 ES;STATEK 3SRDCE;Rychtářov č. p. 186, 68201 Vyškov;49.3314399;16.9113695
CZ 62850359 ES;Michala Kotůlková - Farma Amálka;Karolín č. p. 13, 67902 Rájec-Jestřebí;49.4059538;16.6673025
CZ 62850360 ES;Kaštánek & Spitz s.r.o.;24. dubna 338, 66443 Želešice;49.1175232;16.5848251
CZ 62850382 ES;Sir Morava s.r.o. - mlékárna;Těšany č. p. 446, 66454 Těšany;49.0489516;16.765384
CZ 62850393 ES;Petra Kuncová - Minimlékárna Senetářov;Senetářov č. p. 100, 67906 Senetářov;49.3524801;16.8047713
CZ 62850427 ES;Wolfberry s.r.o. Ostrovačice;Kníničská 178, 66481 Ostrovačice;49.2106136;16.412703
CZ 62850450 ES;Ing. Pavel Mizera - Výrobna potravin a potravinových doplňků;Kuklenská 336/17, Židenice, 61500 Brno;49.1941008;16.6338549
CZ 62850461 ES;ZEMAS a.s. - minimlékárna Násedlovice;Farma skotu, 69636 Násedlovice;49.7439047;15.3381061
CZ 62850494 ES;STATEK JINAČOVICE, s.r.o.;Jinačovice č. p. 109, 66434 Jinačovice;49.2650913;16.5274063
CZ 62850540 ES;Matěj Kostelanský - Malovýrobna sýrů;Kuželov č. p. 112, 69673 Kuželov;48.8606781;17.4868234
CZ 62850551 ES;Ondřej Pavlinec - malá výrobna sýrů;Velká nad Veličkou č. p. 421, 69674 Velká nad Veličkou;48.8671969;17.5249571
CZ 62850595 ES;Day Spa Shop s.r.o.;Cejl 40/107, Zábrdovice, 60200 Brno;49.2009948;16.6259352
CZ 62850629 ES;Di Criscio s.r.o. – výrobna mozzarelly a burraty;Oblekovická 73/23, Oblekovice, 67181 Znojmo;48.8365784;16.0712582
CZ 62850674 ES;Hilar s.r.o. – výrobna sýrů;Záhumenní 314/95, 69618 Lužice;48.8368625;17.066925
CZ 62850685 ES;Tomáš Kouřil;Javorník č. p. 14, 69674 Javorník;49.6871489;15.0268208
CZ 62870058 ES;DELIMAX, a.s.;Bratislavská 1647/3, 69501 Hodonín;48.8427908;17.1265098
CZ 62870126 ES;Trnečka Smoked Fish;Pekařská 422/42, Staré Brno, 60200 Brno;49.1917949;16.6003657
CZ 62870137 ES;Rybářství Hodonín, s.r.o. - Zpracovna ryb;U Elektrárny 4087/6, 69501 Hodonín;48.8454168;17.1147001
CZ 62870148 ES;Future Farming Kaly s.r.o. - Zpracovna ryb;Kaly č. p. 66, 59455 Kaly;49.379236;16.352436
CZ 62870193 ES;OCEAN48 s.r.o.;Plynárenská 499/1, Zábrdovice, 60200 Brno;49.1972346;16.6262888
CZ 62880127 ES;Farma Labuty s.r.o.;Labuty č. p. 104, 69648 Labuty;49.0485349;17.2082228
CZ 62880138 ES;Moravská vejce s.r.o. - Chov křepelek Milotice;Na Pískách 357, 69605 Milotice;48.96935;17.1302713
CZ 62880149 ES;Ing. Petr Marcinčák - Třídírna vajec;Novosedly na Moravě, 69182 Novosedly;48.8375768;16.4931959
CZ 62880150 ES;KOLBY a.s. - Třídírna vajec - Pouzdřany;Česká č. ev. 51, 69126 Pouzdřany;49.282725;16.5641638
CZ 62910334 ES;ZÁMECKÉ UZENINY HLOHOVEC a.s.;K zámečku 194, 69143 Hlohovec;48.7770316;16.756619
CZ 62910356 ES;e-jídlo.cz, s. r. o. - Výrobna specialit;Němčičky č. p. 274, 69107 Němčičky;48.930161;16.8222101
CZ 62910367 ES;Zdravé stravování s.r.o.;Jiřího z Poděbrad 978, 69662 Strážnice;48.8968344;17.3201865
CZ 62910378 ES;JIRONI FOOD;Vídeňská 297/99, Štýřice, 63900 Brno;49.1730257;16.5994391
CZ 62910389 ES;Maso Klouda, s.r.o.;Křtěnovská 29, 67974 Olešnice;49.5557304;16.4213836
CZ 62910547 ES;MASO BÍLOVICE s.r.o.;Žižkova 600, 66401 Bílovice nad Svitavou;49.2465947;16.6723871
CZ 62910604 ES;SNAILEX s.r.o.;Morašice č. p. 34, 67171 Morašice;48.9572857;16.2102704
CZ 62940168 ES;W&T meat s.r.o.;třída Generála Píky 2005/7, Černá Pole, 61300 Brno;49.218251;16.6143144
CZ 62940247 ES;Eva Rašovská - Paštiky Rašovská;Sobůlky č. p. 113, 69701 Sobůlky;49.0222625;17.0784513
CZ 62940292 ES;Lenka Meinerová – Sušárna potravin;Šebetov č. p. 101, 67935 Šebetov;49.5430675;16.7210363
CZ 62940337 ES;Marek Pavlík - Marisovo maso;Husitská 3422/1, 66902 Znojmo;48.866578;16.0354444
CZ 62940382 ES;gwendoline s.r.o.;Dyjákovičky č. p. 127, 66902 Dyjákovičky;48.7855026;16.0909188
CZ 62940427 ES;ALEMAR Service s.r.o.;Průmyslová 479, 66463 Žabčice;49.0106372;16.5930887
CZ 6306 ES;Mlékárna Otinoves s.r.o.;Otinoves č. p. 201, 79861 Otinoves;49.4167849;16.8659058
CZ 6326 ES;Uzeniny Zajíček s.r.o.;Vrahovická 517/168, Vrahovice, 79811 Prostějov;49.479088;17.1444655
CZ 6351 ES;Tomáš Havlíček - HAVLÍČKOVO řeznictví a uzenářství;Karlovo nám. 14/8, Vnitřní Město, 67401 Třebíč;49.2163315;15.8795854
CZ 6359 ES;BIOFARMA DoRa s.r.o.;Ratibořice č. p. 1, 67551 Jaroměřice nad Rokytnou;49.1315636;15.9060734
CZ 6402 ES;TRADECO, spol. s r. o.;Průmyslová 1152, 68601 Uherské Hradiště;49.0584488;17.4602163
CZ 6405 ES;ZEMASPOL Uherský Brod a.s.;Uherský Brod, 68801 Uherský Brod;49.02179;17.643615
CZ 6409 ES;Soško s.r.o.;Nedakonice č. p. 498, 68738 Nedakonice;49.0302413;17.3752663
CZ 6455 ES;Bedřich Vlach, řeznictví a uzenářství;Osvobození 8, Vícemilice, 68501 Bučovice;49.0164701;16.7770563
CZ 6505 ES;IDEMA FOODS spol. s r.o.;K Pasekám 4963, 76001 Zlín;49.23133;17.6537588
CZ 6511 ES;Ritter a syn s.r.o.;Na Výsluní 821, 76601 Valašské Klobouky;49.2562039;15.1931621
CZ 6512 ES;Sanytrák s.r.o.;Dolní Lhota u Luhačovic, Horní Lhota 191, 76323 Dolní Lhota u Luhačovic;49.1493826;17.8026775
CZ 6513 ES;Řeznictví Singer s.r.o.;Lhotsko č. p. 8, 76312 Lhotsko;49.2142225;17.8800625
CZ 6527 ES;Leoš Novák, spol. s r.o.;Na Vrchovici 41, Kudlov, 76001 Zlín;49.2035651;17.68314
CZ 6581 ES;Moravia ZNOJMO s.r.o.;Evropská 366/55, Oblekovice, 67181 Znojmo;48.8305526;16.0712925
CZ 6586 ES;Jednota Moravský Krumlov;Tylova 659, 67201 Moravský Krumlov;49.0450207;16.3093523
CZ 6601 ES;LACRUM Velké Meziříčí, s.r.o.;Hornoměstská 383/60, 59401 Velké Meziříčí;49.3564593;16.0044001
CZ 6604 ES;Uzenářství a lahůdky Sláma s.r.o.;Růžová 225, 59501 Velká Bíteš;49.2882813;16.2311687
CZ 6606 ES;Bidfood Czech Republic s.r.o.;Průmyslová 2050, 59401 Velké Meziříčí;49.3415163;16.0353238
CZ 662 ES;Vepřová porážka Ing. Kohout V. a synové;Křivousy č. p. 6, 27745 Vojkovice;50.3049275;14.3719755
CZ 663 ES;Antonín Matek-Řeznictví, uzenářství;Labská 856, 27713 Kostelec nad Labem;50.2295663;14.5836775
CZ 6634 ES;Rybářství Kolář, a.s. Zpracovna ryb;Příkopy 333/55, 59401 Velké Meziříčí;49.3684213;16.0164188
CZ 6636 ES;AG FOODS Group a.s.;Košíkov č. p. 72, 59501 Velká Bíteš;49.2692075;16.2381288
CZ 665 ES;KAP Neratovice s.r.o.;Byškovice č. p. 141, 27711 Neratovice;50.2535476;14.48821
CZ 6674 ES;Norma, k.s.;Tiskařská 599/12, Malešice, 10800 Praha 10;50.0789536;14.5368049
CZ 6699 ES;Refi - CZ s.r.o.;Zdiměřická 1412/1, Chodov, 14900 Praha 4;50.0227661;14.5149781
CZ 6723 ES;MAKRO Cash & Carry ČR s.r.o. - Stodůlky;Jeremiášova 1249/7, Stodůlky, 15500 Praha 5;50.0414572;14.3153984
CZ 6795 ES;MAKRO Cash & Carry ČR s.r.o. - Černý Most;Chlumecká 2424, Horní Počernice, 19800 Praha 9;50.1119918;14.5781465
CZ 6833 ES;PT-SERVIS Velkoobchod s.r.o.;Náchodská 708/79, Horní Počernice, 19300 Praha 9;50.1147102;14.6080738
CZ 6835 ES;C.I.P.A. spol. s r.o.;Praha 5-Smíchov, Hořejší nábř. 368/2, 15000 Praha 5;50.0606091;14.4090256
CZ 6872 ES;Jiří Gazda;Skřečoň, 73531 Bohumín;49.9023732;18.3790242960791
CZ 6876 ES;Miroslav Putirka - I.M.O. - Putirka;K Pískovně 1078, 73541 Petřvald;49.8337088;18.373645
CZ 6879 ES;FISH - PRODUCE, s.r.o.;Nová Tovární 2015, 73701 Český Těšín;49.7275476;18.6217938
CZ 6887 ES;Marcel Jelínek a syn;Fryštátská 902/7, Prostřední Suchá, 73564 Havířov;49.7919525;18.4488588
CZ 694 ES;MACHAČ s.r.o.;U školky 696, 74272 Mořkov;49.6603073;14.4174505
CZ 695 ES;Řeznictví H+H, s.r.o.;Hlavní 46, 74247 Hladké Životice;50.1804063;14.0489888
CZ 6959 ES;NOSS, s.r.o.;Brno-jih, Komárov, U Vlečky 5, 61700 Brno 17;49.9912844;14.4090365
CZ 6971 ES;EISBERG, a.s.;Hviezdoslavova 1158/47, Slatina, 62700 Brno;49.1832214;16.6832023
CZ 703 ES;TAGROS Troubelice;Troubelice, 78383 Troubelice;49.8166205;17.081877
CZ 704 ES;EKOMILK a.s.;Příborská 818, Místek, 73801 Frýdek-Místek;49.6707388;18.3257575
CZ 709 ES;HOLLANDIA Karlovy Vary, s.r.o.;Krásné Údolí č. p. 151, 36401 Krásné Údolí;50.0740803;12.9237363
CZ 7095 ES;Jan Špilar, Ryby - drůbež;Teslova 1154/13, Skvrňany, 30100 Plzeň;49.7241802;13.3292108
CZ 710 ES;Savencia Fromage & Dairy Czech Republic, a.s.;Hesov 421, 58222 Přibyslav;49.5803367;15.7133737
CZ 7110 ES;ZEPHYR Františkovy Lázně, s.r.o.;Poustka u Františkových Lázní, 35002 Poustka;49.7439047;15.3381061
CZ 712 ES;A.W. spol. s r.o. Loštice;Palackého 57/4, 78983 Loštice;49.7461225;16.9278613
CZ 713 ES;Brazzale Moravia a.s.;Tři Dvory č. p. 98, 78401 Litovel;49.7159903;17.10222381855226
CZ 714 ES;ITALAT CZ s.r.o.;Blatnice pod Svatým Antonínkem č. p. 590, 69671 Blatnice pod Svatým Antonínkem;48.9446496;17.4631354
CZ 717 ES;Choceňská mlékárna s.r.o.;Kollárova 481, 56501 Choceň;49.0502012;15.8113808
CZ 71740111 ES;Jaromír Jaš - sklad masa a masných výrobků;Dolní Újezd č. ev. 9, 75123 Dolní Újezd;49.8300663;16.2613113
CZ 71740234 ES;Vrtal s.r.o;Na střelnici 1212/39, Nová Ulice, 77900 Olomouc;49.60075155;17.248476153181386
CZ 71740256 ES;AM-FOOD SERVICE;Schweitzerova 749/97, Nové Sady, 77900 Olomouc;49.5753868;17.2485748
CZ 71740267 ES;Satisfied s.r.o.;Kojetínská 3157/55, Přerov I-Město, 75002 Přerov;49.4442639;17.4395696
CZ 71740278 ES;Zeelandia spol. s r.o.;Tovačovská 2874/25, Přerov I-Město, 75002 Přerov;49.4414008;17.4188929
CZ 71740313 ES;Nagel Česko s.r.o.;VGP Park Olomouc, Hala A, Na statkách;49.7439047;15.3381061
CZ 71740335 ES;Palírna U Zeleného stromu a.s.;Dykova 4260/8, 79601 Prostějov;49.4741869;17.1032915
CZ 71740436 ES;KARASAD s.r.o.;Újezd č. p. 314, 78396 Újezd;49.7651588;17.1784587
CZ 71740447 ES;Mrazírny Litovel;Unčovice č. p. 147, 78401 Litovel;49.6683058;17.0984823
CZ 71740470 ES;JIP Olomouc;Na zákopě 561, Chválkovice, 77900 Olomouc;49.6052225;17.2833442
CZ 71770248 ES;Závod masné výroby MAKOVEC a.s.;Za Olomouckou 487, 79607 Držovice;49.4850338;17.1226384
CZ 718 ES;Mlékárna Polná spol. s r.o.;Za Nádražím 680, 58813 Polná;49.4874007;15.7025563
CZ 71810029 ES;Farma Výšovice;Výšovice č. p. 199, 79809 Výšovice;49.4161923;17.1388434
CZ 71810030 ES;ZOD Němčice nad Hanou, družstvo;Novosady 200, 79827 Němčice nad Hanou;49.3483722;17.1992795
CZ 71810041 ES;Porážka krůt;Býškovice, 75353 Býškovice;50.2557658;14.4963709
CZ 71810052 ES;Jatka JMkuře;Čechovice, 78372 Velký Týnec;49.4670013;17.0758187
CZ 71820233 ES;Porcovna chlazené drůbeže;Řepová č. p. 69, 78985 Mohelnice;49.8121013;16.8597588
CZ 71820277 ES;Porcovna drůbeže;Žádlovice č. p. 27, 78983 Loštice;49.7451426;16.9131675
CZ 71840156 ES;zařízení pro nakládání se zvěřinou;Buková č. p. 150, 79848 Buková;49.51255;16.8234589
CZ 71850179 ES;Mlékárna Náměšť na Hané;Biskupství 146, 78344 Náměšť na Hané;49.6060254;17.0682665
CZ 71850191 ES;Doubravský Dvůr;Nový Dvůr 242, 78401 Červenka;49.729241;17.0553194
CZ 71850203 ES;Mlékárna FARMA ZDEŇKA;Poruba č. p. 81, 75366 Hustopeče nad Bečvou;49.5382957;17.9096855
CZ 71850236 ES;Sýrárna;Prostějovská 175, 79848 Protivanov;49.4806917;16.8397891
CZ 71850258 ES;ZD Jeseník, Sýrárna Bělá, mlékárna;Domašov u Jeseníka, 79001 Bělá pod Pradědem;49.7439047;15.3381061
CZ 71850269 ES;Zlata Mádrová;Štětovice 138, 79812 Kralice na Hané;49.4942237;17.2140826
CZ 71850292 ES;Farma Kozí Hrádek s.r.o.;Vysoká u Hustopečí nad Bečvou, 75366 Hustopeče nad Bečvou;49.7439047;15.3381061
CZ 71850315 ES;Kozí farma Nikáda;Tištín, 79829 Koválovice u Tištína;49.306841;17.164807
CZ 71850326 ES;Sýrárna ROLS;Smržická 537, 79841 Kostelec na Hané;49.5098567;17.069761
CZ 71850337 ES;Tvargle;Pivovarská 899, 78353 Velká Bystřice;49.5946241;17.358113
CZ 71850360 ES;Sýrárna farský dvůr;Slatinice č. p. 33, 78342 Slatinice;49.5619201;17.097955
CZ 71850371 ES;Minimlékárna Vilémov - Marek Šimša;Vilémov č. p. 64, 78322 Vilémov;49.8170721;15.5340614
CZ 71850708 ES;Olma, a.s., provoz Zábřeh;Na Nové 1700/2, 78901 Zábřeh;49.8667826;16.9018275
CZ 71880093 ES;Drůbežárna Drahanovice;Drahanovice, 78344 Drahanovice;49.5831625;17.0793863
CZ 71880116 ES;Eggs s.r.o.;Osek nad Bečvou č. p. 1, 75122 Osek nad Bečvou;49.5131276;17.5255939
CZ 71880127 ES;Třídírna vajec Farma Valcha;Samota 117, 75366 Hustopeče nad Bečvou;49.7016789;13.4306737
CZ 71880138 ES;David Kořalka;Želechovice č. p. 78, 78391 Želechovice;49.7519072;17.1407559
CZ 71880149 ES;LUMIX s.r.o.;Brníčko č. p. 1163, 78391 Uničov;49.7697013;17.1402925
CZ 71910356 ES;Farma Otaslavice;Otaslavice č. p. 520, 79806 Otaslavice;49.3883877;17.0772031
CZ 71910378 ES;Porážka a výrobna Složilovi;Oldřichov č. p. 27, 75111 Radslavice;49.5599848;14.7542111
CZ 71910389 ES;Porážka a bourárna;Vysoké Žibřidovice, Hanušovice;50.1164809;16.9375427
CZ 71910390 ES;Jatka Lakomý Vojnice;Vojnice č. p. 116, 78346 Těšetice;49.6019291;17.1432852
CZ 71910402 ES;Jatka Ulrich s.r.o.;Mladějovice č. p. 182, 78501 Mladějovice;49.7480884;17.2234528
CZ 71920021 ES;Makovec a.s. Prostějov;Zákantí 153, 79817 Smržice;49.50648495;17.10293818763494
CZ 71920122 ES;Střední škola gastronomie a farmářství;U Jatek 8, 79001 Jeseník 1;50.2394699;17.211167156198705
CZ 71920166 ES;Masokombinát Nezamyslice;Nezamyslice 156, 79826 Nezamyslice;49.2545364;17.210473
CZ 71920188 ES;MASO JIREX a.s.;Dvorská 2333/19e, 78901 Zábřeh;49.8891455;16.8760907
CZ 71920245 ES;Jatky Bílá Lhota;Bílá Lhota č. p. 76, 78321 Bílá Lhota;49.7083707;16.9779541
CZ 71930000 ES;HRADO a.s.;Hrabišín č. p. 283, 78804 Hrabišín;49.9164232;17.0144455
CZ 71930044 ES;Jan Lakomý;Příkazy č. p. 19, 78333 Příkazy;49.6435826;17.1449538
CZ 71930291 ES;Bludovská a.s.;Špalkova 156, 78961 Bludov;49.9403006;16.9272606
CZ 71930369 ES;Sušeň Petr;Libina č. p. 559, 78805 Libina;49.8809125;17.0811688
CZ 71940034 ES;Oldřich Kubeša;Malhotice č. p. 121, 75353 Malhotice;49.4867333;17.7608926
CZ 71940180 ES;Rýznar farmářské uzeniny s.r.o.;Horní Studénky č. p. 159, 78901 Horní Studénky;49.9519329;16.8088994
CZ 71940247 ES;Uzeniny Příbram, a.s., provozovna Zábřeh;Dvorská 2333/19e, 78901 Zábřeh;49.8891455;16.8760907
CZ 71940270 ES;Farma Valcha s.r.o.;Samota 117, 75366 Hustopeče nad Bečvou;49.7016789;13.4306737
CZ 71940292 ES;Veronika Zdráhalová;Sobáčov č. p. 30, 78321 Mladeč;49.6986733;17.0351617
CZ 71940304 ES;Jaromír Jaš;Hněvotín č. p. 410, 78347 Hněvotín;49.569215;17.186955
CZ 71940326 ES;Josef Klimeš;Bušín č. p. 94, 78962 Bušín;49.9776488;16.835685
CZ 71940348 ES;Rodinná konzervárna Via Delicia;Leštinská 2443/30, 78901 Zábřeh;49.8758622;16.8934039
CZ 71940359 ES;MASO VAVERKA a.s.;Dolní 2113/37, 79601 Prostějov;49.4688365;17.1210057
CZ 71940360 ES;Farma Medlov;Police č. p. 66, 78973 Police;48.9654466;15.6298002
CZ 71940382 ES;Řeznictví-uzenářství PÁLENÍK s.r.o.;Výšovice č. p. 132, 79809 Výšovice;49.4197139;17.1361184
CZ 71940393 ES;Telcek-sušené maso;Ondřejovice č. p. 96, 79376 Zlaté Hory;50.2324638;17.3114275
CZ 71940416 ES;Right company s..r.o.;Crhov č. p. 40, 78901 Štíty;49.5450501;16.4358838
CZ 71950002 ES;BARKONA SNAILS s.r.o.;Staškova 520/16, Holice, 77900 Olomouc;49.5770037;17.2991923
CZ 71950013 ES;Výroba šnečích produktů;Nahošovice č. p. 25, 75114 Nahošovice;49.4377964;17.5777886
CZ 71960003 ES;Mrazírenské sklady Olomouc;Hněvotín č. p. 455, 78347 Hněvotín;49.5718476;17.1797163
CZ 71960036 ES;BENSTAR s.r.o.;Lazecká 393/70a, Lazce, 77900 Olomouc;49.608676;17.253356729646697
CZ 71970116 ES;BAPA s.r.o.;Hněvotín č. p. 410, 78347 Hněvotín;49.569215;17.186955
CZ 71P01398 ES;Honební společenstvo Kožušany Morava;Drahlov č. p. 358, 78375 Charváty;49.5101629;17.2489207
CZ 72 ES;CITUS s.r.o.;Předměstí, K Výtopně 1, 41201 Litoměřice 1;49.965317;14.3799391
CZ 720 ES;NET PLASY, spol.s r.o.;U Mlékárny 1020, 76861 Bystřice pod Hostýnem;49.40263;17.6778435
CZ 7204 ES;SOFIL s.r.o.;Přerušená 189/4, Sedlec, 16000 Praha 6;50.1301794;14.3951629
CZ 7273 ES;Petr Landa;Řezníčkova 220, 25072 Kojetice;50.237565;14.5004663
CZ 72740077 ES;Vladimír Hynek;Grohova 785/4, 76901 Holešov;49.3292737;17.5773006
CZ 72740099 ES;Michal Kurtin;Na Záhonech 1467, 68604 Kunovice;49.04538;17.43205
CZ 72740156 ES;Ribo s.r.o.;Hovězí č. p. 480, 75601 Hovězí;49.3067324;18.0521204
CZ 72740189 ES;LESKO-Velkoobchod nápojů, s.r.o.;Lípa č. p. 270, 76311 Lípa;49.5586481;15.5512634
CZ 72740224 ES;ROJAL spol. s r.o.;Stolařská 2338, 68801 Uherský Brod;49.0192371;17.6428538
CZ 72740257 ES;LEMAT,  spol. s r.o.;tř. Tomáše Bati 1660, 76502 Otrokovice;49.2127451;17.5216663
CZ 72740268 ES;VON s.r.o.;Přehradní 242, Kostelec, 76314 Zlín;49.2649801;17.7010538
CZ 72740325 ES;ELIES FOOD s.r.o.;Na Záhonech 1467, 68604 Kunovice;49.04538;17.43205
CZ 72740358 ES;AK25 s.r.o.;Kulturní 1794, 75661 Rožnov pod Radhoštěm;49.4651388;18.1368544
CZ 72740370 ES;COOP družstvo HB;Bezměrov č. p. 230, 76701 Bezměrov;49.324302;17.3348685
CZ 72740381 ES;Ivan Konečný;Jalubí č. p. 446, 68705 Jalubí;49.1108114;17.4359458
CZ 72740415 ES;BAPA s.r.o.;Kostelanská 2124, 68603 Staré Město;49.0707938;17.4210725
CZ 72740426 ES;ADTirol s.r.o.;Boršice č. p. 171, 68709 Boršice;49.0629275;17.3510788
CZ 72740527 ES;MasoZlín s.r.o.;Masarykova 1219, Malenovice, 76302 Zlín;49.2080596;17.5958217
CZ 72740538 ES;The Old Town Company s.r.o.;Podolí č. ev. 63, 68604 Podolí;49.1901013;16.7182125
CZ 72740549 ES;Natures Care CZ s.r.o.;Zámecká 73, 76804 Střílky;50.4334001;16.1552513
CZ 72740561 ES;JIP východočeská, a.s.;Lípa č. p. 270, 76311 Lípa;49.5586481;15.5512634
CZ 72740572 ES;Kuřata Siman s. r. o. provoz Rochus;Na Záhonech 1482, 68604 Kunovice;49.0469088;17.4307425
CZ 72770205 ES;Cortina Development spol. s r.o.;Na Záhonech 1467, 68604 Kunovice;49.04538;17.43205
CZ 72810031 ES;Monika Dobešová - Střítežské fojtství;Střítež nad Bečvou č. p. 21, 75652 Střítež nad Bečvou;49.4584575;18.0593938
CZ 72820076 ES;ZEV Šaratice, a.s.;Pod Valy 221, 68801 Uherský Brod;49.0231438;17.64075
CZ 72820087 ES;ZEAS Bánov, a.s.;Pod Valy 221, 68801 Uherský Brod;49.0231438;17.64075
CZ 72840001 ES;VENISON CZ s.r.o.;Míškovice č. p. 228, 76852 Míškovice;49.2808225;17.5493941
CZ 72850080 ES;Yog s.r.o.;Nádražní 455, 68771 Bojkovice;49.3016721;16.6497254
CZ 72850147 ES;FARMA-ZPZ s.r.o.;Valašská Bystřice, 75627 Valašská Bystřice;49.414608;18.1093955
CZ 72850169 ES;Věra Surovčáková;Prostřední Bečva č. p. 342, 75656 Prostřední Bečva;49.4323325;18.2501675
CZ 72850181 ES;JAVORNÍK - CZ s.r.o.;Štítná nad Vláří č. p. 414, 76333 Štítná nad Vláří-Popov;49.0670028;17.9816855
CZ 72850204 ES;D N M company s.r.o.;Nádražní 260, 76805 Koryčany;50.2455299;12.8356893
CZ 72850271 ES;Ing. Dana Přistoupilová;Malá Bystřice č. p. 116, 75627 Malá Bystřice;49.4088175;18.0739263
CZ 72850293 ES;Farma Kudlov s.r.o.;Zelená 9992, Kudlov, 76001 Zlín;49.200545;17.679695
CZ 72850316 ES;LAKSYMA, a.s.;Nedakonice č. p. 244, 68738 Nedakonice;49.0337526;17.3836413
CZ 72850350 ES;Vyšší odborná škola potravinářská a Střední průmyslová škola mlékárenská Kroměříž;Štěchovice 4176/14a, 76701 Kroměříž;49.3014859;17.383001
CZ 72850372 ES;Jiří Červenka;Slížany č. p. 42, 76833 Morkovice-Slížany;49.243755199999995;17.224164920328867
CZ 72850383 ES;EKOMILK a.s.;Nádražní 455, 68771 Bojkovice;49.3016721;16.6497254
CZ 729 ES;VLS ČR, s.p., LS Libavá;Město Libavá, Město Libavá;49.7211812;17.5211325
CZ 72910087 ES;Marek Langer;Lípa č. p. 62, 76311 Lípa;49.5540163;15.544125
CZ 72910098 ES;Řeznictví U Kusáků s.r.o.;Dědina 733, 68722 Ostrožská Nová Ves;49.0056038;17.4349437
CZ 72910100 ES;Miloslav Dlabač;Březnice č. p. 470, 76001 Březnice;49.1882;17.66438
CZ 72910111 ES;Jatky Tupesy;Tupesy č. p. 120, 68707 Tupesy;49.0891288;17.3774013
CZ 72910122 ES;Jatky Jarošov;Údolní 484, Jarošov, 68601 Uherské Hradiště;49.0897301;17.4975888
CZ 72920156 ES;Rostislav Matula;Lechotice č. p. 105, 76852 Lechotice;49.2708639;17.5902627
CZ 72920257 ES;Josef Podškubka;Vlčnov č. p. 845, 68761 Vlčnov;49.0200326;17.5731588
CZ 72920280 ES;Farma Rudimov s.r.o.;Rudimov č. p. 105, 76321 Rudimov;49.07824;17.8274675
CZ 72920291 ES;AGROFYTO, spol. s r. o.;Lidečko č. p. 486, 75612 Lidečko;49.1982768;18.0504314
CZ 72920303 ES;SOLERTIA Group s.r.o.;Žalkovice č. p. 169, 76823 Žalkovice;49.370688;17.436176
CZ 72920314 ES;Vít Čechmánek;Klečůvka č. p. 80, 76311 Zlín;49.2288826;17.7720975
CZ 72920347 ES;Zemědělské družstvo Francova Lhota;Francova Lhota č. p. 358, 75614 Francova Lhota;49.1983863;18.0987288
CZ 72920358 ES;JIŘÍ BARDODĚJ;Nádražní 804, 76824 Hulín;49.2973443;13.1519637
CZ 72940271 ES;Ligurský s.r.o.;Antonína Dvořáka 1344, 76824 Hulín;49.3287121;17.4701241
CZ 72940282 ES;Masna ELVA s.r.o.;Divnice č. p. 124, 76321 Slavičín;49.1002155;17.9103444
CZ 72940293 ES;Kuřata Siman s. r. o.;Uherské Hradiště-Míkovice, Na příkopě 268, 68604 Kunovice;50.0852626;14.4250961
CZ 72940350 ES;Jaroslav Hájek;nám. Komenského 147, 68725 Hluk;48.9874992;17.5281189
CZ 72940394 ES;Tanetgastro s.r.o.;Průmyslová 534, 76317 Lukov;49.3355877;16.4760513
CZ 72940451 ES;JCV FOOD, s.r.o.;Sazovice č. p. 220, 76301 Sazovice;49.232885;17.56874
CZ 72940563 ES;HOSTINÁŘ;Potoky 5431, 76001 Zlín;49.2243788;17.6713171
CZ 72960071 ES;Sanytrák s.r.o.;Horní Lhota č. p. 220, 76323 Horní Lhota;49.1475029;17.8026605
CZ 72960105 ES;Petr Němeček;U Dvora 210, 68751 Nivnice;48.9903476;17.6414125
CZ 72960127 ES;LUKO, s.r.o.;Grohova 1267, 76901 Holešov;49.3294265;17.5764267
CZ 72960138 ES;UNIGASTRO s.r.o.;Šumická 2325, 68801 Uherský Brod;49.0226538;17.6583188
CZ 7297 ES;ALIMPEX - MASO, s.r.o.;U Parku 207, 25101 Dobřejovice;49.6798926;18.6474963
CZ 72970128 ES;2D-SERVICE s.r.o.;Na Záhonech 1467, 68604 Kunovice;49.04538;17.43205
CZ 73 ES;MD logistika, a.s.;Křičenského 451, 53303 Dašice;50.0260276;15.9069038
CZ 730 ES;JATKA-KURKA s.r.o.;K Rybníčkům 359, 74781 Otice;49.9127613;17.8716238
CZ 7300 ES;DC Klecany;Distribuční centrum, 25067 Klecany;50.057823150000004;14.54178562112314
CZ 7301 ES;Masozávod;Modletice č. p. 93, 25101 Modletice;49.9760479;14.602955944510745
CZ 7303 ES;Lidl Česká republika s.r.o.;Brandýs nad Labem-Stará Boleslav, Brandýs nad Labem, Průmyslová 260, 25001 Brandýs n.Labem-St.Bol.1;50.2561338;15.8228175
CZ 7332 ES;BILLA spol.s r.o.;Modletice č. p. 67, 25101 Modletice;49.9698568;14.5920948
CZ 7349 ES;Pavel Jirec;U Pošty 107, 25069 Vodochody;50.2074838;14.3980275
CZ 7355 ES;H 2 P s.r.o.;U Slunečních lázní 690, Liberec XIV-Ruprechtice, 46014 Liberec;50.7886706;15.0768619
CZ 7357 ES;FOLDA, s.r.o.;Frýdlantská 540, 46401 Raspenava;50.9061113;15.1101513
CZ 74 ES;Bidfood Czech Republic s.r.o.;Palhanecká 505/15, Jaktař, 74707 Opava;49.9577771;17.8752015
CZ 7413 ES;Karel Doležal, Řeznictví a uzenářství;Jakubské náměstí 50, 67522 Stařeč;49.1974447;15.8270469
CZ 743 ES;MORAVIALOV s.r.o.;Kravsko č. p. 212, 67151 Kravsko;48.9166162;15.983219
CZ 747 ES;Lesy České republiky, s.p., Lesní závod Židlochovice;Tyršova 1, 66701 Židlochovice;49.08377525;14.717971659931507
CZ 749 ES;Lesy České republiky,s.p. -  Stará obora;Karla Čapka 1171, 37341 Hluboká nad Vltavou;49.06036505;14.43298094701009
CZ 75 ES;Edvard Rovner;Masná 27/9, Trnitá, 60200 Brno;49.1840256;16.6265368
CZ 750 ES;Lesy a rybníky města Českých Budějovic s.r.o.;Jar. Haška 1588/4, České Budějovice 3, 37004 České Budějovice;48.9792584;14.4712404
CZ 754 ES;Jatky Sedlčany - Zemědělská společnost Kosova Hora,a.s.;Jateční 398, 26401 Sedlčany;49.6644063;14.4287075
CZ 7559 ES;ALIMPEX FOOD a.s.;Masná 27/9, Trnitá, 60200 Brno;49.1840256;16.6265368
CZ 7561 ES;FORMAN Brno spol. s r.o.;Kikrleho 1129/17, Slatina, 62700 Brno;49.1749411;16.6924831
CZ 7566 ES;MADETA a.s.;Brno-jih, Přízřenice, Staré náměstí 27, 61900 Brno 19;50.1807309;12.6386595
CZ 7568 ES;Tatranská mlékárna - Bohemia spol. s r.o.;Brno-jih, Komárov, U Vlečky 5, 61700 Brno 17;49.9912844;14.4090365
CZ 758 ES;Vlastimil Balek / drůbeží porážka;Velká č. p. 18, 26263 Kamýk nad Vltavou;49.83441675;18.29153366938935
CZ 7585 ES;MANEO, s.r.o.;Žilkova 1990/2, Řečkovice, 62100 Brno;49.2531136;16.5757903
CZ 761 ES;NAMARA s.r.o.;Jiráskova 161, Bezděkovské Předměstí, 34401 Domažlice;49.4373338;12.9271275
CZ 7610 ES;ESKO CZ s.r.o. - vařírna vajec;Kikrleho 1129/17, Slatina, 62700 Brno;49.1749411;16.6924831
CZ 7611 ES;MAKRO Cash and Carry ČR s.r.o.;Tuřany, Kaštanová 506/50, 62000 Brno 20;49.1622696;16.6393079
CZ 768 ES;SYRMEX spol. s r.o.;Osek nad Bečvou č. p. 411, 75122 Osek nad Bečvou;49.5121099;17.5310012
CZ 769 ES;provozovna N I V A;Dolní Přím č. p. 2, 50316 Dolní Přím;50.2397023;15.7066823
CZ 770 ES;POLABSKÉ MLÉKÁRNY a.s.;Dr. Kryšpína 510/4, Poděbrady II, 29001 Poděbrady;50.153207;15.1103665
CZ 771 ES;Bidfood Opava s.r.o.;Těšínská 1006/1, Předměstí, 74601 Opava;49.9359876;17.912485
CZ 772 ES;Školní statek, Humpolec;Nádražní 101, 39601 Humpolec;49.5373437;15.3408775
CZ 7807 ES;Miloš Minařík;Opatovice, Za kostelem, 66461 Rajhrad;49.0885561;16.6041735
CZ 7809 ES;R & R Food s.r.o.;Mlýnská 265, 66417 Tetčice;49.1715687;16.4157752
CZ 7833 ES;EISBERG, a.s.;Tišnov 3, Hradčany 1, 66603 Tišnov 3;49.3199114;16.4221887
CZ 7834 ES;RAPO BRNO, s.r.o.;Mrštíkova 820, 66601 Tišnov 3;49.3355196;16.4393325
CZ 7855 ES;MG servis s.r.o.;Sazovice č. p. 236, 76301 Sazovice;49.231455;17.568775
CZ 787 ES;Miloš Mužík;Ražice, Ražice 70, 39811 Ražice;49.243929;14.1024793
CZ 79 ES;TRADECO, spol. s r. o.;Průmyslová 1152, 68601 Uherské Hradiště;49.0584488;17.4602163
CZ 80 ES;RABBIT Trhový Štěpánov a.s. - Mrazírny a výroba specialit Mikulov;Nádražní č. ev. 607, 69201 Mikulov;49.2785863;16.4405288
CZ 8022 ES;RACIOLA Uherský Brod, s.r.o.;U Porážky 493, 68801 Uherský Brod;49.0216426;17.640475
CZ 8023 ES;KOVÁŘ plus s.r.o.;Podolí č. ev. 63, 68604 Podolí;49.1901013;16.7182125
CZ 8024 ES;AGRI - M, spol. s r.o.;Mistřice č. p. 414, 68712 Mistřice;49.0846412;17.5452056
CZ 8071 ES;VOMA, s.r.o.;Močidla 2475, 68801 Uherský Brod 1;49.0258338;17.6620113
CZ 8126 ES;TOPNATUR s.r.o.;K Teplinám 679, 76315 Slušovice;49.2436788;17.7981263
CZ 81740055 ES;RYBASPOL  A & V spol. s r. o.;Bravantice č. p. 235, 74281 Bravantice;49.7611913;18.0847313
CZ 81740099 ES;GASTRO-STAR-FISH s.r.o.;Petřkovická 826, Petřkovice, 72529 Ostrava;49.8645188;18.2549438
CZ 81740167 ES;Sklad uzenin Aleš Kubena;Trnkovecká 1344/13, Radvanice, 71600 Ostrava;49.8197725;18.3324655
CZ 81740190 ES;Potravinová banka v Ostravě, z.s.;Hasičská 550/50, Hrabůvka, 70030 Ostrava;49.792453;18.2606503
CZ 81740202 ES;"COOP Beskydy, spotřební družstvo; velkoobchod č. 711";Selská 211, 73925 Sviadnov;49.6863238;18.3351013
CZ 81740280 ES;Reexpediční sklad masných výrobků Jan Jančík;Hlučínská 320/204, Petřkovice, 72529 Ostrava;49.8668434;18.2557713
CZ 81740336 ES;GREX service, s.r.o.;Pavlovova 3073/36, Zábřeh, 70030 Ostrava;49.797291;18.2430791
CZ 81740347 ES;DAIRY 4 FUN s.r.o.;Bílov č. p. 100, 74301 Bílov;50.0174937;13.4234567
CZ 81740369 ES;Mondelez CR Biscuit Production s.r.o., Provozovna Opava;K Celnici 277/27, Vávrovice, 74773 Opava;49.9723913;17.85728
CZ 81740381 ES;ZVOSKA s.r.o.;Červený dvůr 918/7, Pod Cvilínem, 79401 Krnov;50.0651972;17.7402494
CZ 81740404 ES;Ing. Ivo Widhalm;Ratibořská 870/172, Kateřinky, 74705 Opava;49.9499938;17.9298113
CZ 81740437 ES;KEŠKA - FM s.r.o.;Ostravská 843, 73925 Sviadnov;49.6849326;18.3325588
CZ 81740448 ES;Kebab EU Trade s.r.o.;Fryčovická 509, 73943 Staříč;49.6836475;18.243225
CZ 81740471 ES;AGF Food Logistics, provozovna Ostrava;Lihovarská 679/40, Kunčičky, 71800 Ostrava;49.8115234;18.3131817
CZ 81740482 ES;PICADO CZ, s.r.o.;Hoblíkova 501/22, 74101 Nový Jičín;49.595975;18.0152875
CZ 81740493 ES;VRTAL s.r.o.;Na Náhonu 1140/30, Přívoz, 70200 Ostrava;49.8601933;18.2689303
CZ 81740550 ES;Vlastimil Šajtar - reexpediční sklad;Jana Maluchy 260/17, Dubina, 70030 Ostrava;49.7792884;18.2587442
CZ 81740561 ES;Hlubek a syn, s.r.o.;Těšínská 1023/29, Předměstí, 74601 Opava;49.9364088;17.9135624
CZ 81740572 ES;Slezské uzeniny, s.r.o. - prodejna masa a uzenin, sklad s řízenou a neřízenou teplotou Karviná;Božkova 847/4, Ráj, 73401 Karviná;49.8455994;18.5558909
CZ 81740606 ES;POLMARKUS, s.r.o.;Sadová 618, Frýdek, 73801 Frýdek-Místek;49.6821151;18.3629388
CZ 81740628 ES;Kama trade CZ - reexpediční sklad masa;Hrabinská 1930/28b, 73701 Český Těšín;49.7498443;18.6123807
CZ 81740639 ES;GURMÁN - chladírenský sklad;Dobratice č. p. 283, 73951 Dobratice;49.6612976;18.4674238
CZ 81740640 ES;Panther Trading, s.r.o.;Malá strana 827, Butovice, 74213 Studénka;49.7072388;18.0508038
CZ 81740651 ES;Food Wide - reexpediční sklad;Na Zbytkách 83, 73801 Staré Město;49.6537163;18.3755125
CZ 81740662 ES;Chladírenský sklad Borek;Staré Město č. p. 142, 73961 Třinec;49.6884413;18.6708575
CZ 81740684 ES;Reexpediční sklad a přebalovací středisko;Dobrá č. p. 677, 73951 Dobrá;49.5841977;15.736991
CZ 81740707 ES;Ing. Jitka Hrabovská, sklad;Dukelská 653/15, 74301 Bílovec;49.7536051;18.0113075
CZ 81740718 ES;JIP východočeská, a.s.;Frýdecká 700/475, Hrabová, 71900 Ostrava;49.7771978;18.2948843
CZ 81740729 ES;Těšínské jatky, s.r.o. - mrazírenský sklad Mojská;Slezská 1928, 73701 Český Těšín;49.7480413;18.6086663
CZ 81740730 ES;Mrazírna SOLEX AGRO;Jezdecká 2046/23, 79201 Bruntál;49.9931919;17.4482368
CZ 81740752 ES;Martin Oslizlok;Pod Kostelem 1112, 73553 Dolní Lutyně;49.8982125;18.4280125
CZ 81740820 ES;DMHERMES TRADE s.r.o.;Červený dvůr 1172/17, Pod Cvilínem, 79401 Krnov;50.0600762;17.7459983
CZ 81740932 ES;Velká Pecka s.r.o. - Ostrava;17. listopadu 6242, Poruba, 70800 Ostrava;49.811544;18.1533156
CZ 81740965 ES;EDUKA Accounting Services s.r.o.;Polanecká 803/72, Svinov, 72100 Ostrava;49.80275545;18.19788871352283
CZ 81770261 ES;FARMERIO s.r.o. - potravinářský provoz;Leskovec nad Moravicí č. p. 68, 79368 Leskovec nad Moravicí;49.9056279;17.5738206
CZ 818 ES;ČEKO AGRO s.r.o.;Chlum č. p. 41, 33808 Chlum;49.2282688;17.6076338
CZ 81810042 ES;Česká krůta;Rychvald č. p. 1215, 73514 Rychvald;49.8483601;18.4006188
CZ 81820111 ES;TEMPO, obchodní družstvo;Markvartovická 1045/5, 74801 Hlučín;49.8984552;18.2025423
CZ 81820199 ES;Provozovna DIG;Chemická 2093/1a, Mariánské Hory, 70900 Ostrava;49.8342116;18.2304498
CZ 81820212 ES;Unigastro s.r.o.;Na Samotě 24, Žilina, 74101 Nový Jičín;49.5846276;18.0324575
CZ 8183 ES;LACTO MORAVA, a.s.;76316 Lukoveček;49.7439047;15.3381061
CZ 81840012 ES;Zpracovna ECO-MADE PRODUCTS s.r.o.;Na Valše 237/21, Přívoz, 70200 Ostrava;49.8556001;18.2702448
CZ 81840034 ES;GOOD VENISON s.r.o.;Československé armády 331, 74787 Budišov nad Budišovkou;49.7937788;17.6202838
CZ 81840045 ES;FARMA VENDOLSKÝ s.r.o. - bourárna zvěřiny;Bohušov parc. č. st. 18/6, 79399 Bohušov;49.58010525;13.54632873533863
CZ 81840067 ES;Porážka pštrosů, farma Vendelín;Radkov u Vítkova, 74784 Radkov;49.7439047;15.3381061
CZ 81850024 ES;WERA NOVA s.r.o.;Chářovská 846/112, Pod Cvilínem, 79401 Krnov;50.0812026;17.6866913
CZ 81850080 ES;DQM s.r.o.;Pod Cvilínem, Chářovská 112, 79401 Krnov 1;50.0812026;17.6866913
CZ 81850158 ES;KORA produkt, s.r.o.;Dobrá č. p. 862, 73951 Dobrá;49.6766075;18.4064125
CZ 81850215 ES;SIMANDL, spol. s r.o.;Dolní Marklovice č. p. 321, 73572 Petrovice u Karviné;49.8814063;18.5494125
CZ 81850226 ES;MILKEFFEKT, a.s.;Konská č. p. 559, 73961 Třinec;49.6909497;18.63089576247116
CZ 81850237 ES;Minimlékárna Hlavnice;Hlavnice, 74752 Hlavnice;49.9248263;17.7288759
CZ 81850260 ES;INGREDIA s.r.o.;Příborská 818, Místek, 73801 Frýdek-Místek;49.6707388;18.3257575
CZ 81850271 ES;Michal Kočař;Československých tankistů 93, 74766 Dolní Lhota;49.841865;18.0922863
CZ 81850282 ES;Tomáš Manda;Trnávka č. p. 90, 74258 Trnávka;49.6846213;18.1768514
CZ 81850293 ES;SIMABELLE s.r.o., provozovna Karviná;Rudé armády 1820/31, Hranice, 73301 Karviná;49.8713488;18.5478925
CZ 81850327 ES;Faremní mlékárna Krmelín;Staroveská 406, 73924 Krmelín;49.7335765;18.2261612
CZ 81850338 ES;Sýrovačka.cz;Kletné č. p. 3, 74201 Suchdol nad Odrou;49.6698338;17.9054375
CZ 81850394 ES;Grunt na Trojmezí rodina Staňova;Hrčava č. p. 56, 73998 Hrčava;49.5181072;18.84801327272193
CZ 81850439 ES;CORINOS House s.r.o.;Hnojník č. p. 470, 73953 Hnojník;49.6843647;18.5370498
CZ 81870082 ES;Rybex CZ a.s.;Mosty u Jablunkova č. p. 133, 73998 Mosty u Jablunkova;49.5017225;18.7429375
CZ 81870093 ES;GASTRO - MENU EXPRESS a.s.;Konská č. p. 199, 73961 Třinec;49.7055288;18.6438075
CZ 81870105 ES;Zpracovna šneků - KARCH SNAIL FARM;Písek č. p. 506, 73984 Písek;49.5595138;18.8078862
CZ 81880038 ES;František Frič;Pitárné, 79399 Vysoká;50.2442645;17.5980727
CZ 81880072 ES;VEJCE CZ s.r.o.;Kunín č. p. 455, 74253 Kunín;49.6341863;17.9834913
CZ 81880083 ES;Mgr. Miroslav Kahánek;Antonína Vaška 184, Smolkov, 74792 Háj ve Slezsku;49.8996963;18.0889475
CZ 81880139 ES;BIO VEJCE s.r.o.;Vražné č. p. 184, 74235 Vražné;49.6284225;17.8695313
CZ 81880140 ES;Třídírna křepelčích vajec Jindřichov;Jindřichov č. p. 248, 79383 Jindřichov;50.2480363;17.54425
CZ 81880151 ES;Třídírna a balírna vajec nandu pampového a pštrosa dvouprstého;Služovice č. p. 154, 74728 Služovice;49.7439047;15.3381061
CZ 81880162 ES;Sklad vajec;Tyršova 868/38, Předměstí, 74601 Opava;49.9308263;17.9025463
CZ 8190 ES;Rostislav Valčík;Vlárská 318, Bylnice, 76331 Brumov-Bylnice;49.0682768;18.0141792
CZ 81910111 ES;Jatka Melč s.r.o.;Melč č. p. 1, 74784 Melč;49.8442086;17.7649024
CZ 81910122 ES;Tomáš Pustka;Ženklava č. p. 41, 74267 Ženklava;49.5656646;18.1108533
CZ 81910133 ES;Jatka Nižní Lhoty;Nižní Lhoty č. p. 50, 73951 Nižní Lhoty;49.648018;18.4401323
CZ 81920055 ES;ŘEZNICTVÍ A UZENÁŘSTVÍ LATOŇ s.r.o.;Na Kopci 92, 74731 Chlebičov;49.95943;17.970135
CZ 81920156 ES;Libor Zielonka;Hnojník č. p. 376, 73953 Hnojník;49.6807926;18.5396288
CZ 81920189 ES;Jaromír Gasior;Březinská 1721, 73541 Petřvald;49.8338738;18.3874988
CZ 81920314 ES;Verner Kotula;Polní 2721/13, Předměstí, 74601 Opava;49.9354857;17.9184682
CZ 81920516 ES;Řeznictví David Janoš s.r.o.;Čs. armády 360, Pudlov, 73551 Bohumín;49.9069213;18.3379488
CZ 81920550 ES;Ekologická farma v Podbeskydí - bourárna masa;Hradišťská 34, Koňákov, 73562 Český Těšín;50.0627549;15.7632111
CZ 81920561 ES;U Stračeny;Polanecká 56/3, Svinov, 72100 Ostrava;49.8141771;18.1975139
CZ 81920572 ES;Bourárna masa Zámecký dvůr;Klokočov č. p. 61, 74747 Vítkov;49.806696;15.6682972
CZ 81920606 ES;Těšínské jatky,s.r.o. - provoz Nová Tovární;Nová Tovární 85, 73701 Český Těšín;49.7300663;18.6243263
CZ 81920617 ES;Řeznictví a uzenářství U Špejlíka;Bartošovice č. p. 173, 74254 Bartošovice;49.6760538;18.0474388
CZ 81920628 ES;Bidfood Kralupy s.r.o.;Palhanecká 505/15, Jaktař, 74707 Opava;49.9577771;17.8752015
CZ 81920639 ES;Bourárna masa na Farmě Oryx;Služovice č. p. 218, 74728 Služovice;49.9860567;17.9923417
CZ 81920707 ES;Rekreační středisko Beskydský H-RESORT;Kunčice pod Ondřejníkem č. ev. 8, 73913 Kunčice pod Ondřejníkem;49.5554713;18.2587275
CZ 8194 ES;Mogador s.r.o.;tř. Tomáše Bati 1664, 76502 Otrokovice;49.2157938;17.5208663
CZ 81940158 ES;Masoma Klemensová s.r.o.;Opavská 62, Zábřeh, 74722 Dolní Benešov;49.8712301;17.8761425
CZ 81940169 ES;MP Krásno, a.s., provozovna Martinov;Martinovská 3168/48, Martinov, 72300 Ostrava;49.8537169;18.183796
CZ 81940170 ES;Výroba uzenin Pavel David;Orebitská 1121/1, Přívoz, 70200 Ostrava;49.8522188;18.2774737
CZ 81940204 ES;Hypermarket Globus Ostrava;Spojovací 326, 725 27 Ostrava - Plesná;49.8483865;18.1481731
CZ 81940215 ES;Řeznictví Zbyněk Pítr;Skotnice č. p. 273, 74258 Skotnice;49.6564387;18.1349011
CZ 81940237 ES;Bidfood Opava s.r.o.;Palhanecká 505/15, Jaktař, 74707 Opava;49.9577771;17.8752015
CZ 81940271 ES;Hypermarket Globus Havířov;U Skleníků 1490/24, Prostřední Suchá, 73564 Havířov;49.7916286;18.4405234
CZ 81940293 ES;Těšínské jatky, s.r.o. - výrobní závod Jablunkov 500;Jablunkov č. p. 500, 73991 Jablunkov;49.7439047;15.3381061
CZ 81940305 ES;Řeznictví Milan Žabčík;Petřvald 1-Petřvald č. p. 20, 74260 Petřvald;49.7103238;18.1556625
CZ 81940428 ES;ASTRAFOOD a.s.;Nad Porubkou 280/2, Svinov, 72100 Ostrava;49.8148669;18.1954196
CZ 81940518 ES;Výrobna delikates Chilliman;Dukelská 1017, Lyžbice, 73961 Třinec;49.6637915;18.6804756
CZ 81960015 ES;TESAŘ - mražené s.r.o.;Kunčičky u Bašky č. p. 386, 73901 Baška;49.6437701;18.3571363
CZ 81960026 ES;PALFRIG OSTRAVA s.r.o.;Sportovní 607, Stará Ves, 73923 Stará Ves nad Ondřejnicí;49.8205746;17.187459
CZ 81960082 ES;VRTAL s.r.o.;Zahradní 1978/36a, 79201 Bruntál;49.998965;17.471865
CZ 81P00837 ES;prodej syrovéhp kravského mléka prodejní automat;Suchdol nad Odrou, 74201 Suchdol nad Odrou;49.6425064;17.9388691
CZ 8264 ES;Jarnot CZ s.r.o.;Mírová 86, 74731 Velké Hoštice;50.1070483;14.9158016
CZ 8340 ES;MAKRO;Olomoucká 791, 78353 Velká Bystřice;49.5911686;17.3382837
CZ 842 ES;BOCA, spol. s r.o.;Čím 94, 26203 Nový Knín;49.7773511;14.3719005
CZ 845 ES;AGRI-Trading s.r.o.;Líšnice č. p. 87, 39901 Sepekov;50.0799213;16.5057513
CZ 8468 ES;LAGAD s.r.o.;ČSA 72, 36233 Hroznětín;50.3097651;12.8715679
CZ 859 ES;Zemědělské družstvo Kokory;Brodek u Přerova, 75103 Brodek u Přerova;49.4820329;17.3374129
CZ 8598 ES;Savencia Fromage & Dairy Czech Republic, a.s. - Expediční a logistický sklad;U Tirexu 3543, 69501 Hodonín;49.7439047;15.3381061
CZ 8760 ES;Náhlík a Náhlík, s.r.o.;Kněždub č. p. 39, 69664 Kněždub;48.8870769;17.3961061
CZ 8771 ES;AGROPODNIK Hodonín a.s., závod 01;Vacenovická 1271, 69602 Ratíškovice;48.9312263;17.1667163
CZ 8792 ES;Maso závod Hovorany;Hovorany č. p. 828, 69612 Hovorany;48.9416777;16.9872178
CZ 8828 ES;Zemědělské družstvo  Újezd u Uničova;Újezd u Uničova, Brníčko, 78396 Újezd u Uničova;49.7696253;17.1823377
CZ 8846 ES;Distribuční centrum Olomouc;Dolní Novosadská 103, 77900 Olomouc;49.5651293;17.262402
CZ 8973 ES;COOP Hořovice, družstvo;Masarykova 1424/5b, 26801 Hořovice;49.8354302;13.891867
CZ 8979 ES;CROWN FOODS, s.r.o.;Sokolovická 214, 26762 Komárov;49.80989;13.8438725
CZ 8981 ES;LIDL Česká republika s.r.o. Velkosklad LIDL;Cerhovice, 26761 Cerhovice;49.8401881;13.8138824
CZ 904 ES;Lesy ČR, s.p., Lesní závod Boubín, polesí Mlynářovice;rozcestí, 38451 Volary;49.2859105;16.6309397
CZ 907 ES;Porážkové místo Branišov;Branišov č. p. 9, 38473 Zdíkov;49.4209181;15.336918
CZ 912 ES;CHOVSERVIS a.s.;Hlavečník, Hlavečník, 53315 Hlavečník;50.0748366;15.4276783
CZ 921 ES;Vodňanská drůbež, a.s., provozovna Vodňany;Radomilická 886, Vodňany II, 38901 Vodňany;49.1417167;14.1926815
CZ 922 ES;Vodňanská drůbež, a.s., provozovna Mirovice;Zámostí 272, 39806 Mirovice;49.5130936;14.026505
CZ 9257 ES;Pavel Dostálek chlazený sklad;Obránců míru 37, Labětín, 53501 Řečany nad Labem;50.0355738;15.4932788
CZ 931 ES;Drůbežářský závod Klatovy a.s.;ul. 5. května 112, Klatovy IV, 33901 Klatovy;49.3842398;13.2972154
CZ 933 ES;Kouřil spol. s r.o;Tovární 53, 79821 Bedihošť;49.8735576;13.89325
CZ 934 ES;MAKOVEC a.s.;Smržická 537, 79841 Kostelec na Hané;49.5098567;17.069761
CZ 9370 ES;VITAL TREND GROUP, s.r.o.;Dukelská 1851, 43001 Chomutov 1;50.4546321;13.4329786
CZ 9387 ES;Ing. Václav Duška - chladírenský sklad;Průmyslová 1985, 43201 Kadaň 1;50.3723941;13.2845695
CZ 9434 ES;Bourárna s prodejnou Borová;Borová č. p. 44, 38101 Chvalšiny;49.798644;15.1817725
CZ 946 ES;RABBIT Trhový Štěpánov a.s.;Kasejovice č. p. 390, 33544 Kasejovice;49.4645714;13.7482122
CZ 9482 ES;VAJÍČKÁRNA s.r.o.;Velký Malahov, 34601 Velký Malahov;49.7439047;15.3381061
CZ 9568 ES;Šolc Martin;Hlavní 119, 56401 Dlouhoňovice;50.0537659;15.2139101
CZ 962 ES;Vodňanská drůbež, a.s., provozovna Modřice;Chrlická 522, 66442 Modřice;49.13401;16.6290338
CZ 9639 ES;VÁHALA a spol. s r.o. výroba a prodej masných a lahůdkářských výrobků;náměstí Míru 97, 75366 Hustopeče nad Bečvou;49.5581426;16.4232275
CZ 9826 ES;Bidfood Kralupy s.r.o.;V Růžovém údolí 553, Mikovice, 27801 Kralupy nad Vltavou;50.235475050000005;14.28884489417278
CZ 9903 ES;PINKO a.s.;Vlašimská 409, 25601 Benešov;49.7831842;14.7001524
CZ 993 ES;RABBIT Trhový Štěpánov a.s.;Nádražní 401, 25763 Trhový Štěpánov;49.2556816;13.9133992
