code;name;street;city;postalcode;lat;lng
DK 1005 EF;ARNE JØRGENSEN & SØN A/S;Hyttefadsvej 14;Strandby;9970;57.4949630;10.5034100
DK 1007 EF;TELL FISK APS;Hyttefadsvej 11;Strandby;9970;57.4952780;10.5028610
DK 101 EF;LL COLD ApS;Visherredsvej 2;Padborg;6330;54.8332660;9.3608760
DK 1028 EF;Hansa Fisk;Læssevejen 6;Esbjerg;6700;55.4743680;8.4273900
DK 1051 EF;Fjord Seafood A/S;Hyttefadsvej 3;Strandby;9970;57.4950460;10.5015260
DK 1059 EF;Scanfish Danmark A/S;Industrihøjen 5;Hanstholm;7730;57.1137010;8.6417080
DK 1065 EF;WERNER LARSSON FISKEEKSPORT A/S;Galeasevej 3;Skagen;9990;57.7223370;10.6039140
DK 1068 EF;WORLDWIDE SEAFOOD HANSTHOLM ApS;Kai Lindbergs Gade 24;Hanstholm;7730;57.1215650;8.6062490
DK 1082 EF;FISKEHALLEN TVILLING A/S;Kattegatvej 63;Nordhavn;2150;55.7227750;12.6073300
DK 109815 EF;Lindholm Jagtvæsen;Abbetvedvej 2A;Roskilde;4000;55.6384820;11.9382050
DK 1102 EF;KNUD THOMSEN FISKEEKSPORT A/S;Hyttefadsvej 6;Strandby;9970;57.4947580;10.5017590
DK 1103 EF;Mondo Mar Marine Foods Aps;Kai Lindbergs Gade 38;Hanstholm;7730;57.1204590;8.6029430
DK 1108 EF;Nordic Fish A/S;Læssevejen 10;Esbjerg;6700;55.4748460;8.4269600
DK 1116297 EF;Clausholm Gods v/ Christian Alexander Berner;Clausholmvej 308;Hadsten;8370;56.3846700;10.1700560
DK 1117 EF;Musholm  A/S;Strandvejen 101;Gørlev;4281;55.5171510;11.1187470
DK 1133 EF;A/S LÆSØ FISKEINDUSTRI;Auktionsvej 20;Skagen;9990;57.7225810;10.5981590
DK 1149 EF;First Seafood Hvide Sande A/S;Tungevej 2-4;Hvide Sande;6960;55.9980640;8.1221989
DK 1203 EF;Henrik Hansen;Nybyvej 15;Vipperød;4390;55.6642330;11.7380870
DK 1209 EF;Stensved Slagtehus ApS;Vådebjergvej 2;Stensved;4773;55.0024120;12.0308850
DK 120928 EF;Torbenfeldt Gods;Ringstedvej 50;Mørkøv;4440;55.6385730;11.5177710
DK 1211 EF;Bjergstedslagteren ApS;Bjergsted Byvej 5;Jyderup;4450;55.6676900;11.3491500
DK 1212 EF;Gislinge Slagteri;Byvej 9;Gislinge;4532;55.7336360;11.5478980
DK 1214 EF;Maglebrænde Slagtehus;Østerbro 2, Maglebrænde;Stubbekøbing;4850;54.8653170;12.0217300
DK 1215503 EF;Holsteinborg Gods v/Christopher Holstein;Ørslevvej 334;Rude;4243;55.2163380;11.4627580
DK 1217 EF;Nr. Asmindrup Slagtehus ApS;Gl Nykøbingvej 78;Nørre Asmindrup;4572;55.8802490;11.6069870
DK 1218 EF;OMK Knabstrup ApS;Holbækvej 328;Mørkøv;4440;55.6639610;11.5528620
DK 1219 EF;Egtved Slagtehus ApS;Brudesøvej 1;Egtved;6040;55.6033430;9.3219770
DK 121967 EF;Lindenborg Gods, Vildtdepot;Østergade 32;Arden;9510;56.7664440;9.8643610
DK 123381 EF;Kjærstrup Gods;Kærstrupvej 17;Holeby;4960;54.6915510;11.5261820
DK 1234 EF;Slagtehuset Krämer ApS, Slagteri;Industriparken 4;Holeby;4960;54.7278640;11.4589560
DK 123829 EF;Søllestedgaard Gods;Søllestedgårdsvej 4;Søllested;4920;54.8124093;11.2709858
DK 1242 EF;Tim Køier Andersen;Skovbovej 1  B;Næstved;4700;55.2170860;11.8479130
DK 1243 EF;Øster Hornum Slagtehus, v/Heinrich Zimmermann;Nibevej 128;Støvring;9530;56.9150420;9.7568350
DK 126 EF;Himmerlandskød A/S;Nordre Ringvej 99;Aalestrup;9620;56.7013890;9.4952600
DK 1287 EF;Slagtergården Als, Slagteri;Smedevænget 16;Nordborg;6430;54.9924630;9.8589440
DK 1295 EF;KISBÆK SLAGTERI, slagteri;Ginegaardsvej 3;Løgumkloster;6240;55.0628070;9.0319880
DK 1297 EF;Slm. Per Hamkens, Slagteri;Østergade 18;Rødding;6630;55.3674720;9.0617300
DK 131065 EF;Kaj K. Rasmussen, Vildt depot;Vadsdal 25;Ørnhøj;6973;56.2001125;8.5635585
DK 1340 EF;Vester Hæsinge Slagterforretning ApS, Slagteri;Birkevej 37;Broby;5672;55.1949460;10.2472660
DK 1366 EF;Slagtermester Torben Jakobsen, Slagteri;Snødevej 114;Tranekær;5953;55.0844260;10.9081180
DK 137 EF;Sydhavnens Frysehus;Bådehavnsgade 48;København;2450;55.6392340;12.5398250
DK 1373 EF;Hårby - Mad og Slagter ApS, Slagteri;Den Grønne Vej 1;Skanderborg;8660;56.0812770;9.8945880
DK 1379 EF;Aidt Slagtehus ApS, Slagteri;Bavnehøjvej 1;Thorsø;8881;56.3117440;9.8063550
DK 1399 EF;Sevel Slagteri A/S;Søgårdvej 28, Sevel;Vinderup;7830;56.4598670;8.8789500
DK 14 EF;Danish Crown;Langbro 7, Blans;Sønderborg;6400;54.9818590;9.6547730
DK 1401 EF;AQUAPRI A/S;Havnevej 18;Frederiksværk;3300;55.9715750;12.0039210
DK 1402 EF;REINHOLDT & CO FISKEEKSPORT A/S;Knudbyvej 16;Løgstrup;8831;56.5119795;9.3370029
DK 1409 EF;ROYAL FISH DENMARK A/S;Chr. Schrøders Gade 40 & Kai lindbergs Gade 39 -;Hanstholm;7730;57.1150165;8.6144947
DK 1410 EF;Løgismose Fødevarer;Ny Vestergade 2;Broby;5672;55.2708610;10.3105620
DK 1416 EF;Bjerre Kød, Engros, Slagteri;Bjerrevej 346;Hornsyld;8783;55.7848990;9.8534040
DK 1424 EF;Slagter Kruse V/Hans Ole Kruse, Slagteri;Tved Bygade 36;Knebel;8420;56.1959370;10.4375770
DK 1425 EF;Johs Jensen Fiske- og Muslingeexport A/S;Havnegade 20;Thyholm;7790;56.6519090;8.6358390
DK 1428845 EF;Holmegaard og Juellinge Godser, Vildtdepot;Holmegaardsvej 71;Holmegaard;4684;55.2743440;11.8361990
DK 1431 EF;WITTRUP SEAFOOD A/S;Ove Jensens Alle 46C;Horsens;8700;55.8526320;9.8784910
DK 1433 EF;Tårs Slagtehus, Slagteri;Bredgade 61;Tårs;9830;57.3867280;10.1121070
DK 1437 EF;Mariager Slagtehus, Slagteri;Havnegade 5;Mariager;9550;56.6515500;9.9810220
DK 1441 EF;Landmand Ole Toft Thøgersen, Slagteri;Næssundvej 362;Karby;7960;56.7465840;8.5901040
DK 1443 EF;BJERREFISK A/S;Fiskerihavnsgade 11  A;Frederikshavn;9900;57.4392970;10.5486920
DK 1447552 EF;Aulum Biavlscenter ApS;Buntmagervej 18;Aulum;7490;56.2538660;8.7926030
DK 1457 EF;Grillslagteren, Slagteri;Kirkebyvej 6;Thisted;7700;57.0223020;8.6770420
DK 1469 EF;Nr. Onsild Slagtehus ApS., ENGRO;Rævebakken 2;Hobro;9500;56.6018380;9.7761950
DK 1469 EF;Nr. Onsild Slagterhus ApS, Slagteri;Rævebakken 2;Hobro;9500;56.6018380;9.7761950
DK 1568 EF;ÅRHUS FISKEEKSPORT APS;Pakkerivej 12;Aarhus;8000;56.1653770;10.2196480
DK 1603 EF;A/S O.V. Jørgensen - Hundested Fiskeexport Rønne afdeling;Munch Petersens Vej 30;Rønne;3700;55.0933910;14.6943410
DK 1624 EF;Chrisfish Hanstholm Aps;Auktionsgade 15;Hanstholm;7730;57.1202050;8.5972640
DK 1630 EF;KEKA FISK APS;Søren Nordbysvej 13;Hirtshals;9850;57.5876740;9.9873580
DK 1641 EF;Hundested Fiskeexport A/S, O.V. Jørgensen;Færgevejen 2;Hundested;3390;55.9627310;11.8477890
DK 1644 EF;ERLING GRØNKJÆR FISKEEKSPORT A/S;Fibigers Gade 8;Hanstholm;7730;57.1204270;8.6006590
DK 1660 EF;HANSTHOLM SAMLECENTRAL A/S;Auktionsgade 30;Hanstholm;7730;57.1197477;8.5980168
DK 1663 EF;Hanstholm Fiskeauktion I/S;Auktionsgade 11;Hanstholm;7730;57.1197970;8.5976990
DK 1671 EF;Fiskernes Samlecentral Strandby ApS;Auktionskaj 7, 1 tv;Strandby;9970;57.4947120;10.5028260
DK 1678 EF;Langø Fiskeeksport-Langø-Havn, Østre Mole, Langø;Havnevej 16, Privat;Nakskov;4900;54.8135650;11.0178370
DK 1683 EF;SKAGEN FRISK A/S;Isvej 1;Skagen;9990;57.7216810;10.5940250
DK 1695 EF;Fiskeauktion Nord Strandby;Auktionskaj 7;Strandby;9970;57.4947120;10.5028260
DK 1697 EF;Fonfisk Hanstholm  A/S;Hamborgvej 16;Hanstholm;7730;57.1148310;8.6454740
DK 170 EF;Constellation Cold Logistics Denmark A/S;Park Alle 17;Vejen;6600;55.4743500;9.1597230
DK 1706 EF;Edgar Madsen Fiskeeksport & Filetfabrik A/S;Metheasvej 10;Hvide Sande;6960;55.9998560;8.1256160
DK 171 EF;Nagel Danmark A/S;Thorsvej 19;Padborg;6330;54.8304400;9.3373170
DK 1714 EF;Vejlgaard;Rødspættevej 1;Hvide Sande;6960;55.9992300;8.1239320
DK 1717 EF;DANSKE FISKEAUKTIONER A/S, Hvide Sande;Auktionsgade 2;Hvide Sande;6960;56.0002440;8.1250370
DK 172 EF;A/S Læsø Fiskeindustri;Fiskerihavnsgade 19, Postboks 21;Frederikshavn;9900;57.4400090;10.5473300
DK 1721 EF;Kystfisker Kompagniet;Baadehavnsvej 9;Korsør;4220;55.3336760;11.1353640
DK 1724 EF;Fiskernes Fiskesortering Amba;Norgeskajen 12;Hirtshals;9850;57.5931800;9.9656040
DK 1727 EF;Kølerum Tårshavn, V/Gert Hansen;Tårsvej 174;Harpelunde;4912;54.8832240;11.0288190
DK 1729 EF;Danske Fiskeauktioner A/S, Thorsminde;Vesthavnen 7, Thorsminde;Ulfborg;6990;56.3700960;8.1207370
DK 1730 EF;FAABORG FISKESALGSFORENING OG, ISVÆRK APS;Vestkajen 5;Faaborg;5600;55.0970870;10.2428246
DK 1732 EF;Danske Fiskeauktioner A/S, Thyborøn;Havnegade 15;Thyborøn;7680;56.7031770;8.2214920
DK 174 EF;Lineage Copenhagen ApS;Kanalholmen 25;Hvidovre;2650;55.6093310;12.4545470
DK 174 EF;Lineage Copenhagen;Kanalholmen 25;Hvidovre;2650;55.6093310;12.4545470
DK 1743 EF;Skagen Fiskeauktion A/S;Auktionsvej 10;Skagen;9990;57.7206070;10.5922560
DK 1746 EF;Polar Salmon Hjerting Laks A/S;H E Bluhmes Vej 18;Esbjerg;6700;55.4762350;8.4269550
DK 1749 EF;Grenaa Fiskeauktion;Søndre Kajgade 13;Grenaa;8500;56.4093070;10.9223120
DK 175 EF;LL COLD ApS;Kratholmvej 6;Odense;5260;55.3300530;10.3313110
DK 1753 EF;Brdr. Dethlefsen;Søndre Kajgade 29;Grenaa;8500;56.4104100;10.9251460
DK 1757 EF;TBA Holding af 1982 ApS;Snaptunvej 57 B;Juelsminde;7130;55.8196370;10.0361080
DK 1763 EF;Løkken op og udhalerspil/ Løkken fiskeriforening;Sdr. Strandvej 21;Løkken;9480;57.3710920;9.7064890
DK 1765 EF;Fonden Sletten Havn - Kølerum;Sletten Havn 1;Humlebæk;3050;55.9536730;12.5348590
DK 177 EF;Constellation Cold Logistics Denmark A/S;Industrivej 2;Padborg;6330;54.8226720;9.3576990
DK 1770 EF;Vedbæk Fiskeriforening;Vedbæk Strandvej 356B;Vedbæk;2950;55.8500870;12.5705110
DK 1781 EF;Østerbro Fiskeriforening , Kølerum;Østersøvej 127;Nordhavn;2150;55.7233020;12.6031610
DK 1783 EF;Fiskernes Fællessalg ApS;Gennem Landet 92;Anholt;8592;56.7160650;11.5117720
DK 1787 EF;THORUPSTRAND FISKERI- OG OPHALINGSSPIL A.M.B.A.;Thorup Strandvej 329;Fjerritslev;9690;57.1394110;9.1259710
DK 1787 EF;Thorupstrand Fiskesamlecentral ApS;Thorup Strandvej 329;Fjerritslev;9690;57.1394110;9.1259710
DK 179 EF;Constellation Cold Logistics Denmark A/S;Transitvej 8;Padborg;6330;54.8303950;9.3536040
DK 1791 EF;THORKILD GRØNS SAMLECENTRAL;Auktionsgade 23;Hanstholm;7730;57.1205630;8.5968580
DK 1798 EF;Lerøy Seafood Copenhagen ApS;Kattegatvej 57+67;Nordhavn;2150;55.7183600;12.6066480
DK 180 EF;LL COLD ApS;Industrivangen 27-31;Hanstholm;7730;57.1165352;8.6361837
DK 1816 EF;Hesnæs Fisk A/S O V Jørgensen;Bønnetvej 69;Stubbekøbing;4850;54.8236830;12.1382060
DK 1817 EF;Hesnæs Fisk kølerum;Havneplads 3;Stubbekøbing;4850;54.8919000;12.0431900
DK 1834 EF;Carl Lauridsen ApS;Gl. Landevej 37;Hemmet;6893;55.8508880;8.3747610
DK 1842 EF;Grenaa Sorteringscentral;Søndre Kajgade 13;Grenaa;8500;56.4093070;10.9223120
DK 186 EF;DAN-OX PADBORG ApS;Industrivej 6;Padborg;6330;54.8241870;9.3552460
DK 188 EF;LL COLD ApS;Løhdesvej 15;Engesvang;7442;56.1635450;9.3521450
DK 190 EF;AABENRAA FRYSEHUS A/S;Øster Madevej 5;Aabenraa;6200;55.0463840;9.4320150
DK 191 EF;LL COLD ApS;Coasterkaj 9;Skagen;9990;57.7214940;10.6028840
DK 192 EF;Constellation Cold Logistics Denmark A/S;Birkedam 11;Kolding;6000;55.5156310;9.4435740
DK 194 EF;AKTIESELSKABET POSEIDON MUSLINGER, OG REJER;Havnepladsen 4;Rømø;6792;55.0866040;8.5652860
DK 196 EF;Constellation Cold Logistics Denmark A/S;Lilledybet 6;Aalborg;9220;57.0477730;10.0590950
DK 197 EF;Constellation Cold Logistics Denmark A/S;Stormosevej 13;Hasselager;8361;56.1014180;10.0935420
DK 20 EF;Danmarks Slagteriskole ZBC Slagteriet;Maglegårdsvej 6 B;Roskilde;4000;55.6292110;12.0770050
DK 2002 EF;BC Catering Skanderborg A/S;Niels Bohrs Vej 20;Skanderborg;8660;56.0671580;9.9862400
DK 2008 EF;MUNKEBO SEAFOOD A/S;Fiskeløkken 1;Munkebo;5330;55.4595320;10.5447490
DK 2014 EF;Nørmark Meat ApS;Englandsvej 7;Vejle;7100;55.7311960;9.5520250
DK 2020 EF;LAUNIS A/S;Niels Bohrs Vej 9;Skagen;9990;57.7345720;10.5751050
DK 2021 EF;Tenax Sild A/S;Industrivej Nord 2;Ålbæk;9982;57.6014200;10.4187000
DK 2030 EF;CHRISTAN VOLLSTEDT - SØNDERJYSKE, DIPLOMPØLSER ApS AF 01.01.2000;Naffet 22;Haderslev;6100;55.2491570;9.4925640
DK 2033 EF;Vilsund Blue A/S;Øroddevej 100;Nykøbing;7900;56.7857660;8.8777160
DK 2044 EF;A/S SÆBY FISKEINDUSTRI;Gyldendalsvej 4;Sæby;9300;57.3179930;10.4920600
DK 2059 EF;Fabrikken Lepo A/S;Baldersbuen 7;Hedehusene;2640;55.6549570;12.2253330
DK 2062 EF;Leif Henriksen spegepølser og røgvarer;Kragemosevej 5;Slagelse;4200;55.4101660;11.2547570
DK 2065 EF;Royal Leverpostej;Rokhøj 24;Lystrup;8520;56.2282100;10.2473360
DK 2083 EF;AaD Drift ApS, central køkken;Lundvej 8;Herning;7400;56.1535220;9.0184420
DK 20849 EF;Den Selvejende Fond Jagtejendommen i Trend Skov, v/Peter Damgaard Hansen;Løgstørvej 108;Farsø;9640;56.8216540;9.2199830
DK 2092 EF;WIUM LEVERPOSTEJ ApS;Sallingsundvej 9;Esbjerg;6715;55.5126460;8.4614480
DK 2095 EF;Gert Nielsen A/S;Stamholmen 140B;Hvidovre;2650;55.6139530;12.4711110
DK 211 EF;Danish Crown A/S;Mosevangen 1;Svenstrup;9230;56.9821850;9.8592680
DK 2117 EF;Cater Food A/S, Mors;Vestmorsvej 56-60;Nykøbing;7900;54.7646137;11.8709918
DK 2134 EF;BF-OKS A/S;Mejerivej 14;Hesselager;5874;55.1679350;10.7317590
DK 2135 EF;BC Catering Grossisten;Blækhatten 10;Odense;5220;55.3648270;10.4615690
DK 2142 EF;Delika ApS, Pakkeri;Hirsevej 22;Haderslev;6100;55.2334470;9.4979400
DK 215 EF;SCANFLAVOUR A/S;Erhvervsvej 12;Møldrup;9632;56.6199280;9.5053330
DK 2158 EF;Öxneholm A/S;Søndre Mellemvej 48;Roskilde;4000;55.6467840;12.1276160
DK 2164 EF;Silkeborg Slagteren A/S;Hagemannsvej 10;Silkeborg;8600;56.1984790;9.5666800
DK 2170 EF;NR. SØBY KØD ENGROS A/S;Nymarksgyden 5, Nr. Lyndelse;Årslev;5792;55.3095470;10.4026650
DK 2182 EF;Gate Gourmet Denmark ApS;Cargo Centervej 39;Billund;7190;55.7358060;9.1389900
DK 22 EF;Danish Crown;Haslevej 19;Rønne;3700;55.1122710;14.7038300
DK 2203 EF;Aarhus Kødengros ApS;Viaduktvej 7;Viby;8260;56.1161550;10.1381240
DK 2219 EF;TOFTS RØGERI;Hasselvej 2A;Stege;4780;54.9990385;12.2861033
DK 2238 EF;Ravsted Slagteri ApS, Slagteri;Ravsted Storegade 35;Bylderup-Bov;6372;55.0080680;9.1227740
DK 2242 EF;Kødgrossisten;Industrivænget 16;Vemmelev;4241;55.3625660;11.2396380
DK 2246 EF;Svaneke Slagter ApS;Vigebakke 1A;Svaneke;3740;55.1372890;15.1391940
DK 2247 EF;Als pølser;Kirke Hørupvej 20;Sydals;6470;54.9252200;9.9043930
DK 2255 EF;KALU A/S;Slagtehusgade 18A;København;1715;55.6685540;12.5605580
DK 2255 EF;KALU A/S;Slagtehusgade 18;København;1715;55.6683560;12.5608490
DK 226 EF;OK Snacks A/S;Holmevej 6;Ejstrupholm;7361;55.9817290;9.3025290
DK 2260 EF;Mozami  A/S;Ved Milepælen 4  A;Hasselager;8361;56.1025729;10.0878019
DK 236 EF;BHJ A/S;Kornvej 1;Hobro;9500;56.6540700;9.8113650
DK 25 EF;Danish Crown;Bragesvej 18;Ringsted;4100;55.4292780;11.7985370
DK 2518 EF;Havnens Fiskehus ApS Fisk engros;Fiskerivej 6;Aarhus;8000;56.1652830;10.2191940
DK 260 EF;ATRIA DANMARK A/S;Aage Jensen Bakken 1, Postboks 1123;Horsens;8700;55.8911580;9.8365600
DK 262 EF;Top Food;Sønderbro 21;Bindslev;9881;57.5368550;10.1974510
DK 2706 EF;HAVI Logistics ApS;Transitvej 60;Vejle;7100;55.7452290;9.5953960
DK 2708 EF;H.P. THERKELSEN A/S;Eksportvej 1;Padborg;6330;54.8353250;9.3482670
DK 2709 EF;Jørn Saaby Transport APS, frysehuset;Humlemarken 20;Hobro;9500;56.6579270;9.8097230
DK 2712 EF;DFDS KØLETRANSPORT A/S;Lundvej 15;Horsens;8700;55.8867240;9.7804600
DK 2714 EF;Ohl Logistics A/S;Plantagevej 7-8D-9;Padborg;6330;54.8295003;9.3606529
DK 2726 EF;Cater Food A/S;Søvejen 10, Herrup;Vinderup;7830;56.4089340;8.9175780
DK 2734 EF;HB Kødgros Aps;Kirstinehøj 75;Kastrup;2770;55.6166660;12.6137850
DK 2738 EF;Jensens Skinker;Grøftevej 4;Sorø;4180;55.4365822;11.5629363
DK 2740 EF;DANKØD EN GROS SLAGELSE APS;Matildevej 4;Slagelse;4200;55.3965690;11.3236540
DK 2744 EF;Dagrofa Logistik a/s;Knud Højgaards Vej 19;Vejle;7100;55.7286040;9.5744820
DK 2759 EF;Bornholmerslagteren ApS;Brovangen 18;Aakirkeby;3720;55.0740940;14.9107710
DK 2766 EF;INCO CC KØBENHAVN A/S;Flæsketorvet 84A;København;1711;55.6670130;12.5598540
DK 285 EF;NORDIC SEAFOOD A/S;Søren Nordbysvej 15;Hirtshals;9850;57.5879230;9.9887800
DK 290 EF;LL COLD ApS;Auktionskajen 20;Hanstholm;7730;57.1218970;8.5952430
DK 3017 EF;Christiansøpigens Sild;Gruset 7;Svaneke;3740;55.1374220;15.1453670
DK 3027 EF;Hirtshals Seafood A/S;Østergade 56;Hirtshals;9850;57.5877080;9.9740940
DK 304 EF;Danish Crown;Kilen 10;Aabenraa;6200;55.0464440;9.4237990
DK 3051 EF;Ruths Kryddersild;Christiansø 93;Gudhjem;3760;55.3198130;15.1851220
DK 3053 EF;Tenax Sild A/S;Tåsingevej 10;Nyborg;5800;55.3116360;10.7634020
DK 31 EF;Danish Crown;Danmarksgade 22;Herning;7400;56.1333820;8.9822350
DK 311 EF;Danish Crown;Åbenråvej 11;Skærbæk;6780;55.1557120;8.7763510
DK 315 EF;Danish Crown A/S;Ndr. Havnevej 1;Kolding;6000;55.4950830;9.4925630
DK 320 EF;Danish Crown;Østbirkvej 2;Horsens;8700;55.9167090;9.8275600
DK 333 EF;FISHERMENS FACTORY A/S;Industrivangen 2  B;Hanstholm;7730;57.1102620;8.6405430
DK 338 EF;Tican Fresh Meat A/S;Strandvejen 6;Thisted;7700;56.9542750;8.6997700
DK 345 EF;Hirtshals Stevedore Aps;Søren Nordbysvej 5;Hirtshals;9850;57.5886950;9.9855880
DK 3500 EF;Ophørt International Tarm Import Aps.;Fjordstien 1;Sakskøbing;4990;54.8034370;11.6315140
DK 3550 EF;DAT-Schaub A/S;Ådalen 4;Køge;4600;55.5054180;12.1832680
DK 371 EF;Snaptun A/S;Snaptunvej 59A;Juelsminde;7130;55.8202350;10.0371320
DK 372 EF;GoodLife Foods Nyborg A/S;Delfinvej 3-5;Nyborg;5800;55.3055191;10.8113627
DK 377 EF;Constellation Cold Logistics Denmark A/S;Skivevej 43;Hobro;9500;56.6346980;9.7774200
DK 4004 EF;Jacob Kongsbak Lassen ApS;Høgevej 8A;Hillerød;3400;55.9488080;12.2574890
DK 4017 EF;European Freeze Dry Aps;Karlebyvej 81;Kirke Hyllinge;4070;55.6868510;11.9170710
DK 4024 EF;Nopalax ApS, Engros;Strandvejen 22;Hundested;3390;55.9636790;11.8491470
DK 4025 EF;Juvredyb HV67 I/S, v/Chr. Peter Bentin;Byvej 13;Bredebro;6261;55.0761160;8.6611440
DK 4027 EF;Verner Andersens Farsfabrik A/S;Kattegatvej 65;Nordhavn;2150;55.7227170;12.6071620
DK 4031 EF;Pernille;Pakkerivej 2 A;Aarhus;8000;56.1649100;10.2191550
DK 4037 EF;A/S Læsø Fiskeindustri;Havnepladsen 6 C, Fiskepakhuset;Læsø;9940;57.2960370;10.9259950
DK 4046 EF;Skibby Røgeri;Industrivej 6;Skibby;4050;55.7584830;11.9561320
DK 4047 EF;Nordisk Fiske Kompagni A/S;Havnen 70;Lemvig;7620;56.5502690;8.3024450
DK 4047 EF;Jeka Fish A/S, Cimbric A/S;Havnen 70;Lemvig;7620;56.5502690;8.3024450
DK 4049 EF;Chrisfish Danmark A/S;Nordhavnsvej 18;Frederikshavn;9900;57.4479410;10.5511340
DK 4066 EF;Thilde Sofie ApS;Havbakken 108;Esbjerg;6710;55.5185390;8.3734420
DK 4069 EF;Vilsund Blue A/S;Food Parken 1;Nykøbing;7900;56.8213070;8.7852230
DK 4070 EF;Rune Egholm E 426 ApS;Vesterhavsgade 32;Esbjerg;6700;55.4689160;8.4368870
DK 4073 EF;P TAABBEL & CO HANSTHOLM A/S;Industribuen 3;Hanstholm;7730;57.1110770;8.6406610
DK 4075 EF;N O HAUSGAARD A/S;Sindalvej 20;Hirtshals;9850;57.5899660;9.9742350
DK 4076 EF;HV 42 JANNI, V/CHR BENTIN;Byvej 13;Bredebro;6261;55.0761160;8.6611440
DK 4089 EF;Essentia Protein Solutions;Adelvej 11;Lem;6940;56.0541780;8.3985290
DK 4135 EF;Polar Seafood Esbjerg A/S;H E Bluhmes Vej 30;Esbjerg;6700;55.4799650;8.4252410
DK 414 EF;M/TR Ocean Tiger, V/Partsrederiet Ocean Tiger R38;Strandgade 10;Nexø;3730;55.0631070;15.1337050
DK 417 EF;DAT-Schaub A/S;Estrupvej 9;Esbjerg;6700;55.4618300;8.4615830
DK 4310 EF;Statsfængslet i Jyderup;Søbæksparken 136;Jyderup;4450;55.6559390;11.4064710
DK 4315 EF;GULDBORG REJEPILLERI ApS;Guldborgvej 354;Guldborg;4862;54.8710530;11.7453040
DK 4322 EF;BC Catering Kolding A/S;Kokbjerg 28;Kolding;6000;55.5374620;9.4823300
DK 4328 EF;Lille Tanghusgaard, Osteriet;Tanghusvej 14;Kjellerup;8620;56.2825360;9.5167890
DK 4335 EF;International N&H Denmark ApS;Edwin Rahrs Vej 38;Brabrand;8220;56.1628290;10.1298790
DK 4344 EF;DET DANSKE MADHUS A/S;Roholmsvej 11D;Albertslund;2620;55.6665750;12.3592240
DK 4344 EF;Det Danske Madhus Albertslund A/S;Roholmsvej 11D;Albertslund;2620;55.6665750;12.3592240
DK 4363 EF;Ulfborg Slagteri, Slagteri;Industriarealet 40;Ulfborg;6990;56.2613170;8.3191370
DK 4367 EF;Intercargo Coldstores ApS;Trafikhavnskaj 19;Esbjerg;6700;55.4718540;8.4301450
DK 4375 EF;B T OST;Agersbølvej 2;Vejle;7100;55.7927320;9.5784100
DK 4383 EF;REMA Distribution Danmark A/S;Marsalle 32;Horsens;8700;55.8362880;9.7988840
DK 4384 EF;AB Catering Holstebro A/S;Nybo Høje 5;Holstebro;7500;56.3412890;8.6331390
DK 4393 EF;HØJER PØLSER A/S;Østermarkvej 16-18;Højer;6280;54.9739057;8.7031706
DK 4399 EF;Møllers Fiskerøgeri-Pakhus;Kulholmsvej 4;Randers;8930;56.4573960;10.0429530
DK 4403 EF;Bøje Kød Engros ApS;Kirstinehøj 75;Kastrup;2770;55.6166660;12.6137850
DK 4404 EF;EASYFOOD A/S;Albuen 39;Kolding;6000;55.5161300;9.4454460
DK 4418 EF;JN Spedition A/S;Hvidelvej 15;Herning;7400;56.1284120;8.9307930
DK 4433 EF;RANDERS KØD ENGROS ApS;Haraldsvej 60;Randers;8960;56.4366540;10.0521380
DK 4478 EF;Odden Fiskeriforening;Vestre Havnevej 33;Sjællands Odde;4583;55.9714250;11.3698450
DK 4482 EF;Fiskeriforeningen Ulvsund, v/Preben Nielsen;Kalvehave Havnevej 26;Kalvehave;4771;54.9952830;12.1647600
DK 4483 EF;Kramnitze havn Fiskehus;Kramnitsevej 18, Kramnitse Havn;Rødby;4970;54.6940639;11.3902205
DK 4490 EF;S 107 Skagerak;Ferslevsvej 22;Skagen;9990;57.7207930;10.5621030
DK 4504 EF;Tayyib Food ApS;Hassellunden 11B;Smørum;2765;55.7316650;12.2968000
DK 4506 EF;Cocio Chokolademælk A/S;Øresundsvej 15;Esbjerg;6715;55.5099660;8.4766810
DK 4513 EF;J. Chr. Juhl Røgeri A/S;Sdr. Havnekaj 16;Kerteminde;5300;55.4494140;10.6649560
DK 4514 EF;J CHR JUHL A/S;Dosseringen 35;Kerteminde;5300;55.4489060;10.6631480
DK 4521 EF;PANDALUS A/S;Industrivangen 3;Hanstholm;7730;57.1108480;8.6394840
DK 4525 EF;A. Espersen A/S;Strandgade 8;Hasle;3790;55.1831400;14.7029350
DK 4526 EF;A. Espersen A/S;Bådebyggervej 6;Rønne;3700;55.0916800;14.6930830
DK 4531 EF;EKKO FISK AF 2002 A/S;Bådebrogade 2;Esbjerg;6700;55.4786740;8.4263100
DK 4535 EF;Kølecontainer - Køge Fiskeriforening;Havnen 2;Køge;4600;55.4548080;12.1870270
DK 4539 EF;Uhrenholt A/S, Grøndal Mejeri;Hornelandevej 43;Faaborg;5600;55.1092480;10.1668530
DK 4555 EF;Carl Jacobsen Engros;Strevelinsvej 28;Fredericia;7000;55.5287810;9.7259280
DK 456 EF;Nagel Liller A/S;Frostvej 14;Vejle;7100;55.7462910;9.5973610
DK 4566 EF;Agustson A/S;Englandsvej 11;Vejle;7100;55.7320660;9.5508500
DK 4568 EF;Vilsund Blue A/S;Strandvejen 12;Nykøbing;7900;56.7895170;8.8758880
DK 4569 EF;Hjallerup Slagtehus, Slagteri;Hornshøjvej 53;Hjallerup;9320;57.1830330;10.1601360
DK 457 EF;J G Coldstores ApS;Elmedalsvej 5;Slagelse;4200;55.4193150;11.3400440
DK 4578 EF;Lineage Vejle ApS;Kristian Skous Vej 6;Vejle;7100;55.7305880;9.5726540
DK 4581 EF;SFK Food A/S, Solina Denmark;Niels Bohrs Vej 55;Skanderborg;8660;56.0719980;10.0030970
DK 4582 EF;A/S LÆSØ FISKEINDUSTRI;Industrivej 4;Læsø;9940;57.3204750;11.1278200
DK 4584 EF;Scandic Pelagic A/S;Tobiskajen 2;Skagen;9990;57.7188950;10.5957020
DK 4585 EF;Scandic Pelagic A/S, Fabrik II;Coastervej 1;Skagen;9990;57.7230150;10.6010320
DK 4586 EF;Scandic Pelagic A/S;Søren Humbers Kaj 3;Skagen;9990;57.7210880;10.6042240
DK 4590 EF;LL COLD ApS;Herluf Trollesvej 5;Hirtshals;9850;57.5916390;9.9802120
DK 4608 EF;MB FOOD A/S;Korskildeeng 3;Greve;2670;55.5837870;12.2546530
DK 4621 EF;Toft Care A/S;Smedevej 1, Harre;Roslev;7870;56.7136220;8.9271150
DK 4624 EF;DANISH FOOD COMPANY SLAGELSE A/S, BEST BEEF;Kongstedvej 2F;Slagelse;4200;55.3940590;11.3370020
DK 4646 EF;Natur-Drogeriet A/S;Nydamsvej 13;Hørning;8362;56.0911870;10.0475910
DK 4655 EF;Ullerslev Oste ApS;Damsgårdvej 2;Ullerslev;5540;55.3602150;10.6796450
DK 4657 EF;FISKERISELSKABET PONDUS ApS, HM 228 PONDUS;Gyvelvænget 253;Hanstholm;7730;57.1112250;8.6227560
DK 4658 EF;Danish Crown A/S, Thorning;Bommen 9;Kjellerup;8620;56.2907470;9.3232570
DK 4661 EF;Engelsviken Canning Denmark A/S;Søren Humbers Kaj 2;Skagen;9990;57.7207810;10.6053130
DK 4663 EF;Partrederiet L217 Sdr. Nissum;Bymarken 11;Ulfborg;6990;56.3086640;8.1889240
DK 4664 EF;Ri 159 Samantha;Stormgade 8, 1 th;Hvide Sande;6960;55.9996350;8.1261650
DK 4675 EF;Constellation Cold Logistics Denmark A/S;True Møllevej 8;Tilst;8381;56.1841900;10.0895690
DK 4676 EF;Harald Iversen & Søn A/S;Rødspættevej 2;Thyborøn;7680;56.7024540;8.2187530
DK 4696 EF;Fiskeauktion Danmark A/S;Auktionskajen 1;Gilleleje;3250;56.1272640;12.3093150
DK 4699 EF;Harald Hansens Eftf. I/S, Slagteri;Fabriksvangen 27;Slangerup;3550;55.8438220;12.1561680
DK 4708 EF;Katja E 35;Toftevænget 4A;Esbjerg;6710;55.5218100;8.3575100
DK 472 EF;LL COLD ApS;Kristian Skous Vej 1;Vejle;7100;55.7313870;9.5727950
DK 4725 EF;VENMARK FISK A/S;Søndergade 50;Hirtshals;9850;57.5821060;9.9670400
DK 4731 EF;AQUA PRODUCTION ApS;Aarøsund Havn 10-14;Haderslev;6100;55.2615625;9.7093706
DK 4750 EF;Polar Seafood Denmark A/S;Skovhusvej 10, Vester Hassing;Vodskov;9310;57.0746740;10.1302860
DK 4756 EF;Fiskeriselskabet Flipper ApS;Bytorvet 34;Hanstholm;7730;57.1131440;8.6072980
DK 4771 EF;Uni Catering ApS;Engmarken 6;Brabrand;8220;56.1688400;10.1080870
DK 4772 EF;Hønseriet Åstrup Bakke, pakkeri;Aalborgvej 206;Tjele;8830;56.5585080;9.4848500
DK 4780 EF;Albanigades Fisk og Vildt ApS;Søndre Havnekaj 10;Kerteminde;5300;55.4492390;10.6640470
DK 4785 EF;Glyngøre Shellfish ApS;Kassehusvej 5;Roslev;7870;56.7634350;8.8634070
DK 4787 EF;Fayrefield Foods A/S;Rostrup Byvej 3;Arden;9510;56.7306510;9.9323510
DK 47932 EF;Brattingborg Gods;Brattingsborg 1 B;Samsø;8305;55.7830380;10.5864120
DK 4819 EF;HKI OST ApS;Vejleåvej 13;Ishøj;2635;55.6247530;12.3252340
DK 4824 EF;LL COLD ApS;Jens Munksvej 6;Hirtshals;9850;57.5917430;9.9844350
DK 4837 EF;Mina Istanbul Kebab Produktion ApS;Smedeland 36;Glostrup;2600;55.6817630;12.3922540
DK 4838 EF;NAKA  A/S;Vestermarksvej 2, Kragelund;Løsning;8723;55.8067640;9.6465340
DK 4856 EF;Hørkram Foodservice A/S;Torshøjvej 59;Hørning;8362;56.1080050;10.0451810
DK 4857 EF;Fælleskøkkenet Elbo I/S;Tingvejen 31;Fredericia;7000;55.5333330;9.6199360
DK 4859 EF;Bodylab ApS, Engros;Plastvænget 3D;Hadsund;9560;56.7286150;10.1025080
DK 4864 EF;Arla Foods Ingredients Group P/S R&D;Sønderupvej 26;Videbæk;6920;56.0496560;8.6684100
DK 4896 EF;Hao Trading ApS/Dana Seafood ApS;Jernholmen 46;Hvidovre;2650;55.6063880;12.4867070
DK 4909 EF;Partrederiet HV 8 Gitte-Miranda;Helgolandsgade 19;Esbjerg;6700;55.4730290;8.4313690
DK 4913 EF;HG 410 Signet;Park Alle 19;Hirtshals;9850;57.5774290;9.9672880
DK 4918 EF;AB CATERING A/S;Kystvejen 80;Nørresundby;9400;57.0881190;9.9857800
DK 4919 EF;Snogebæk Røgeri, Engros;Hovedgade 6;Nexø;3730;55.0267030;15.1185230
DK 4920 EF;Odden Fisk Engros;Vestre Havnevej 37;Sjællands Odde;4583;55.9723570;11.3665820
DK 4923 EF;ATRIA DANMARK A/S;Langmarksvej 1;Horsens;8700;55.8719560;9.8466140
DK 4929 EF;Prime Ocean A/S;Østhavnsvej 12;Hirtshals;9850;57.5918060;9.9774580
DK 4929 EF;Dan Salmon A/S;Østhavnsvej 12;Hirtshals;9850;57.5918060;9.9774580
DK 4937 EF;Constellation Cold Logistics Denmark A/S;Food Parken 4;Nykøbing;7900;56.8210070;8.7827380
DK 4945 EF;MUSLINGEFISKER HERLUF BONDE JOHANSEN ESBJERG, HO BUGT E 4;Violvej 2;Skive;7800;56.5844440;9.0421340
DK 4948 EF;Skagerak Processing A/S;Herluf Trollesvej 14;Hirtshals;9850;57.5908420;9.9811940
DK 4951 EF;VALLØ ØKO ApS, æggepakkeri;Billesøvej 3;Køge;4600;55.3987080;12.2128800
DK 4963 EF;GRAND fromage;Erhvervsparken Klank 19, st.;Galten;8464;56.1473090;9.9201930
DK 4970 EF;Musholm A/S;Reskavej 15;Korsør;4220;55.3499136;11.1458224
DK 4971 EF;Karup Æg, v/Søren Borrisholt Sørensen;Karupvej 112;Sæby;9300;57.3720310;10.3769930
DK 4975 EF;Allegårdens Fjerkræslagteri, Slagteri;Melbyvej 34;Søndersø;5471;55.5354000;10.2208830
DK 4977 EF;Byens Køkken;Teknikvej 4;Odense;5260;55.3471430;10.3991630
DK 4980 EF;Alpevej Vildtbehandling, Slagteri;Alpevej 4;Stenstrup;5771;55.1062690;10.5125100
DK 4987 EF;Danish Crown A/S, Inventorium;Tulipvej 10;Vejle;7100;55.7351300;9.5690200
DK 4991 EF;Vendsyssel Fjerkræslagteri ApS, Slagteri;Lyngbyvej 120;Løkken;9480;57.4013900;9.7600620
DK 4992 EF;AVO Skandinavia;HI-Park 491;Herning;7400;56.1340680;9.0915840
DK 4995 EF;Arla Foods Amba - Vejle Eksportterminal;Dofovej 2 B;Vejle;7100;55.7315820;9.5608730
DK 5000 EF;CHRISFISH DANMARK A/S;Fiskerihavnsgade 47;Frederikshavn;9900;57.4431900;10.5453140
DK 5001 EF;GRÅSTEN FJERKRÆ A/S;Kværsgade 18;Gråsten;6300;54.9319810;9.4967150
DK 5003 EF;Kutter Sofia Kaul E41, KAUL ApS;Sædding Strandvej 255A;Esbjerg;6715;55.5085300;8.3832370
DK 501045 EF;Ledreborg Gods , Vildtdepot;Ledreborg Alle 2D;Lejre;4320;55.6059650;11.9511650
DK 5011 EF;Fiskernes  Andelssalg;Fiskerihavnen 2;Rødvig Stevns;4673;55.2542800;12.3751380
DK 5014 EF;Scandic Pelagic A/S;Industrivej Nord 6;Ålbæk;9982;57.5975340;10.4144970
DK 5045 EF;Jeka Fish A/S;Havnen 70;Lemvig;7620;56.5502690;8.3024450
DK 512390 EF;Jagtkonsortiet Uglebjerggaard;Møllevænget 2, Saltø;Næstved;4700;55.2302130;11.6751230
DK 513322 EF;Sdr. Tulstrup A/S;Røngevej 28;Bjerringbro;8850;56.4011190;9.7263730
DK 514947 EF;Ledreborg Gods, Paradeplads for vildt;Ledreborg Alle 2D;Lejre;4320;55.6059650;11.9511650
DK 517736 EF;I/S Hagestedgaard;Nykøbingvej 84;Holbæk;4300;55.7459160;11.6203000
DK 517836 EF;Palsgaard Gods , Skovdistriktet;Palsgaardvej 30;Juelsminde;7130;55.7471310;10.0464540
DK 5206 EF;Biosynergy A/S;Østerhovedvej 4, Skarø;Svendborg;5700;55.0063460;10.4686920
DK 5212 EF;Thorsminde Fisk;Vangevej 9;Lemvig;7620;56.5460970;8.2955160
DK 5214 EF;Blume Food I/S;Smedevænget 4, Øster Bjerregrav;Randers;8920;56.4844490;9.9079570
DK 5224 EF;Skovsted Ålefarm;Kanstrupvej 5;Thisted;7700;57.0143910;8.7590940
DK 5226 EF;Scan-Hide A.m.b.A.;Industrivej 15;Vester Skerninge;5762;55.0715340;10.4417940
DK 522734 EF;Greenow Aps;Mellem Broerne 12;Ringsted;4100;55.4380120;11.7958450
DK 5230 EF;Ullerslev Mejeri, pakkeri;Damsgårdvej 2;Ullerslev;5540;55.3602150;10.6796450
DK 5237 EF;INGSTRUP MEJERI A/S, Sønderhaven Gårdmejeri;Stadevej 314;Brønderslev;9700;57.3057530;9.9831240
DK 5237 EF;Sønderhaven Gårdmejeri Aps;Stadevej 314;Brønderslev;9700;57.3057530;9.9831240
DK 5243 EF;Inco CC Aarhus A/S, Fiskeafdeling;Blomstervej 5;Tilst;8381;56.1835310;10.1265390
DK 5253 EF;Klosterhedens Vildt A/S, Slagteri;Holmgaardvej 49;Bækmarksbro;7660;56.4164741;8.3084214
DK 5255 EF;HM 555 Kingfisher, Fiskeriselskabet Kingfisher A/S;Havnegade 26  1;Thyborøn;7680;56.7032110;8.2197922
DK 5256 EF;OPHØRT FISKERISELSKABET WESTBANK APS;Aggervej 28;Vestervig;7770;56.7852690;8.2674900
DK 5259 EF;Strandby Konsumcenter, v/Formand, Claus Hjørne Pedersen;Auktionskaj 5;Strandby;9970;57.4945520;10.5018910
DK 5269 EF;Produktion Lager og Transport, - Køkken - Holbæk - Birkevænget;Birkevænget 44;Holbæk;4300;55.7094400;11.7164860
DK 5270 EF;Produktion Lager og Transport - Køkken - Slagelse;Ingemannsvej 38;Slagelse;4200;55.4026670;11.3679860
DK 5273 EF;Madservice Kalundborg;Stejlhøj 13;Kalundborg;4400;55.6794130;11.1275710
DK 5276 EF;Mad og Møder - Køkkenet Filadelfia;Værkstedsvej 5;Dianalund;4293;55.5288090;11.5025270
DK 5277 EF;Næstved Madservice;Tommerupvej 7;Næstved;4700;55.2073280;11.7636600
DK 5281 EF;Sejerø Kølehus;Havneplads 4;Sejerø;4592;55.8806690;11.1359520
DK 5282 EF;PETER PARIS - KOKKENES KURéR ApS;Robert Fultons Vej 14E;Aarhus;8200;56.2102670;10.1797300
DK 5290 EF;AB Catering København A/S;Park Allé 362;Brøndby;2605;55.6512200;12.3784710
DK 5292 EF;DANFOREL A/S;Slagterivej 2;Grindsted;7200;55.7559450;8.9388750
DK 5297 EF;Jens Lysholdt Eftf. A/S, Esbjerg;Darumvej 87;Esbjerg;6700;55.4634930;8.4820420
DK 5298 EF;RI 323 Kirsten Marie;Kaniavej 28;Hvide Sande;6960;56.0176240;8.1203400
DK 53 EF;Danish Crown;Estrupvej 7;Esbjerg;6700;55.4629870;8.4614800
DK 5310 EF;Prime Ocean A/S;Røgerivej 2;Skagen;9990;57.7202240;10.5958110
DK 5313 EF;Odense Universitetshospital, Køkkendistribution OUH;Solfaldsvej 36;Odense;5000;55.3858440;10.3674880
DK 5321 EF;Rossini Caviar;Magstræde 6;København;1204;55.6765640;12.5757650
DK 5329 EF;Fanø Laks ApS;Sønder Nytoft 10;Esbjerg;6720;55.4664892;8.4520751
DK 5335 EF;Thise Mejeri, Bovbjerg Ostelager;Gammel Damsgårdsvej 6  A, Ferring;Lemvig;7620;56.5486971;8.3046456
DK 5336 EF;Himmerlandskød A/S, v/Lars Andersen;Mejerivej 7;Farsø;9640;56.7672610;9.3417210
DK 5340 EF;Nordthy Meat ApS;Trehøjevej 29;Grindsted;7200;55.7634980;8.8980940
DK 5342 EF;Faldhøje Plantage, Slagteri;Skovsendevej 2;Grindsted;7200;55.6429390;8.8523870
DK 5347 EF;AB Catering Aarhus A/S, Terminal;Beta 1, Søften;Hinnerup;8382;56.2358050;10.1097140
DK 5350 EF;Delika Aalborg A/S;Middelfartvej 2;Aalborg;9220;57.0440190;10.0310090
DK 5355 EF;Tistrup Slagtehus ApS, Slagteri;Frejasvej 13;Tistrup;6862;55.7104580;8.6045400
DK 5357 EF;Madservice Skovvang;Grønningen 1;Slagelse;4200;55.4036600;11.3817670
DK 5360 EF;Seafood Flavours A/S;Food Parken 7;Nykøbing;7900;56.8207180;8.7841970
DK 5364 EF;EUROSAMA  ApS;Læsøvej 7;Hinnerup;8382;56.2523940;10.0734460
DK 5365 EF;S 386 CASILO ApS;Eratosvej 8;Skagen;9990;57.7328870;10.5985620
DK 5368 EF;Sygehus Sønderjylland Sønderborg, KøkkenService;Sydvang 1;Sønderborg;6400;54.9165870;9.7853860
DK 5372 EF;Wellfish;Havnegade 13C;Thyborøn;7680;56.7044260;8.2216010
DK 5376 EF;Carnad A/S;Falstervej 6;Løgstør;9670;56.9546030;9.2639250
DK 5377 EF;Capella ApS;Rho 2;Hinnerup;8382;56.2379760;10.1067630
DK 5381 EF;KAREN NIELSEN ApS v/ L549 Frida Amalie;Havnegade 26, 1;Thyborøn;7680;56.7032110;8.2197922
DK 5384 EF;Esbjerg Sygehus, Produktionskøkken;Finsensgade 35;Esbjerg;6700;55.4738590;8.4567030
DK 5393 EF;Centralkøkkenet Aarhus Universitetshospital;Carl Krebs Vej 36;Aarhus;8200;56.1872690;10.1743480
DK 5394 EF;Madjyden;Brandlundparken 1;Brande;7330;55.9438240;9.1178190
DK 5397 EF;Vores Køkken FHR;Alleen 2;Ry;8680;56.0938750;9.7619960
DK 5399 EF;Venøsund Fisk og Skaldyr;Sønderskovvej 20, Venø;Struer;7600;56.5340380;8.6233880
DK 5402 EF;Centrallager, Legoland Aps, Mad og Drikke;Højmarksvej 20;Billund;7190;55.7349060;9.1221350
DK 5404 EF;Regionshospitalet Randers, Patientkøkken;Skovlyvej 1;Randers;8930;56.4712676;10.0530905
DK 5405 EF;BO-INSTITUTIONEN SØDISBAKKE, Centralkøkkenet;Havndalvej 7;Mariager;9550;56.6472790;9.9924170
DK 5410 EF;Tønder Fælleskøkken;Carstensgade 6-8;Tønder;6270;54.9407586;8.8762846
DK 5414 EF;Madservice Aalborg Gug;Fortunavej 2;Aalborg;9210;57.0083830;9.9441730
DK 5415 EF;Aalborg Madservice, Storkøkkenet Lions Parken;Lions Parken 4;Nørresundby;9400;57.0761700;9.9293190
DK 5421 EF;Arla Foods Ingredients P/S - milk;Sønderhøj 12;Viby;8260;56.1203050;10.1580870
DK 5422 EF;Slawteren i Tørring, Slagteri;Bruuns Plantage Vej 1;Havndal;8970;56.6587320;10.2831920
DK 5431 EF;FN 104 Carpe-Diem ApS - Engros;Ærøvej 10;Læsø;9940;57.3159550;11.1265800
DK 5441 EF;Wrist Europe - Aalborg;Stigsborgvej 60;Nørresundby;9400;57.0581470;9.9504030
DK 5442 EF;Regionshospital Nordjylland, Hjørring afsnittet;Bispensgade 37;Hjørring;9800;57.4515600;9.9970770
DK 5443 EF;Sirena Coldstores A/S, Vong;Ravnsø Mosevej 3, Vong;Bramming;6740;55.5042440;8.6452120
DK 5444 EF;Kt. Inger Kathrine L 610;Sprogøvej 6 a;Thyborøn;7680;56.6929690;8.2165090
DK 5445 EF;S 158 Saron;Spliidsvej 25A;Skagen;9990;57.7275900;10.5935930
DK 5446 EF;Mad til hver dag I/S;Lokesvej 12;Hillerød;3400;55.9296240;12.2578970
DK 5456 EF;E 248 Ella, KR-Fiskeri ApS;Sædding Strandvej 255A;Esbjerg;6710;55.5085300;8.3832370
DK 5459 EF;Holbæk Fælleskøkken;Stenhusvej 21;Holbæk;4300;55.7122870;11.6859370
DK 5461 EF;GRISOGKO ApS;Niels Bohrs Vej 5;Haderslev;6100;55.2652940;9.5000930
DK 5464 EF;Mallemuk ApS, L 299 Mallemukken;Gefionsvej 7, Nørlem;Lemvig;7620;56.5621120;8.3274090
DK 5467 EF;S. 226 EMLI PILEGAARD;Kløvervej 15;Skagen;9990;57.7226510;10.5709000
DK 5471 EF;Sticks N Sushi;Fjeldhammervej 15;Rødovre;2610;55.6747760;12.4404190
DK 5472 EF;Det danske Madhus Varde A/S;Carolineparken 1 B;Varde;6800;55.6312970;8.4926330
DK 5473 EF;DDL´s kantine hos Danmarks Medie- og Journalisthøjskole;Helsingforsgade 6A;Aarhus;8200;56.1712830;10.1935630
DK 5477 EF;HV 80 Fru Hellesøe, Hjemsted Rejefisker ApS;Jægertoften 5;Skærbæk;6780;55.1516290;8.7493490
DK 5484 EF;PJ Distribution A/S;Priorsvej 31;Silkeborg;8600;56.2044350;9.5668570
DK 5485 EF;Sophiendal ApS grossist;Låsbyvej 82;Skanderborg;8660;56.1116450;9.8795680
DK 5497 EF;AB Catering Ribe A/S;Ole Rømers Vej 6;Ribe;6760;55.3539370;8.7819640
DK 5505 EF;Øer Is og ost, Lille Raneladegård;Øervej 7;Ebeltoft;8400;56.1464980;10.7113920
DK 5507 EF;M. S. Catering;Grimhøjvej 15;Brabrand;8220;56.1665040;10.1235170
DK 5518 EF;Lerøy Seafood Hirtshals A/S;Peder Skramsvej 4;Hirtshals;9850;57.5905560;9.9794230
DK 5519 EF;Scan Meat Aps;Matildevej 6;Slagelse;4200;55.3961840;11.3233420
DK 5522 EF;Madservice Vejen;Fællesvirke 2;Holsted;6670;55.4939530;8.9119180
DK 5524 EF;Partsrederiet E 61 -  DI -  JE;Strandparken 3;Esbjerg;6700;55.4779570;8.4318550
DK 5533 EF;RI 157 Arkona v/Partrederiet Thomas og Bjarne;Stormgade 8, 1 th;Hvide Sande;6960;55.9996350;8.1261650
DK 5535 EF;Polar Seafood A/S;Vagervej 9;Esbjerg;6700;55.4719410;8.4276310
DK 5538 EF;RI 426 ApS;Stormgade 8, 1;Hvide Sande;6960;55.9976150;8.1246612
DK 5540 EF;AALBORG UNIVERSITETSHOSPITAL, Måltider & Ernæring;Hobrovej 18;Aalborg;9000;57.0379530;9.9092820
DK 5541 EF;Måltider & Ernæring, Psykiatrien;Mølleparkvej 10;Aalborg;9000;57.0385390;9.9053280
DK 5543 EF;Haralds Fisk, Engros;Haraldsgade 106;København;2100;55.7095920;12.5601060
DK 555 EF;AMANDA SEAFOODS A/S;Constantiavej 29;Frederikshavn;9900;57.4530200;10.5259800
DK 5551 EF;Hilton Foods Danmark A/S;Brunagervej 2;Hasselager;8361;56.1004490;10.0726550
DK 5553 EF;Slagter Munch, Engro;Sct. Laurentii Vej 1;Skagen;9990;57.7251950;10.5974040
DK 5554 EF;Skagen Skinke;Kassevej 3;Skagen;9990;57.7208770;10.5919900
DK 5556 EF;Deba Fisk ApS;Peder Skramsvej 1;Hirtshals;9850;57.5905510;9.9782780
DK 5558 EF;Palsgaard Dairy Lab;Palsgaardvej 10;Juelsminde;7130;55.7492190;10.0227340
DK 5559 EF;Hårbølle Mejeri  ApS;Borupvej 69;Skævinge;3320;55.8999520;12.1881880
DK 5561 EF;Mad & Måltider;Bladknæk 51;Aabenraa;6200;55.0063880;9.4290820
DK 5562 EF;Hirtshals Havn;Norgeskajen 11;Hirtshals;9850;57.5941930;9.9628560
DK 5566 EF;Poseidon Seafood ApS;Marielundvej 34B;Herlev;2730;55.7149840;12.4272170
DK 5573 EF;Flyvefisken, engros;Stockflethsvej 12;Ebeltoft;8400;56.1941500;10.6688800
DK 5576 EF;Grøn Fokus A/S;Karolinevej 6;Slagelse;4200;55.3977610;11.3265980
DK 5577 EF;Norddjurs Mad, Centralkøkkenet;Trekanten 1;Grenaa;8500;56.3914110;10.8796470
DK 5578 EF;Fiskeriselskabet Ida Sara E 710 ApS;Uranusvænget 31;Esbjerg;6710;55.5254130;8.4333540
DK 5581 EF;Pelagia Danmark A/S;Hermetikvej 9;Skagen;9990;57.7179890;10.5851420
DK 558167 EF;DanHoney Aps;Reerslevvej 18 B;Ruds Vedby;4291;55.5558720;11.3904300
DK 5591 EF;Det Danske Madhus, Aarhus;Vestermøllevej 7 A;Trige;8380;56.2469980;10.1397610
DK 5591 EF;Det Danske Madhus A/S Aarhus;Vestermøllevej 7A;Trige;8380;56.2469980;10.1397610
DK 559268 EF;OBC Biavl;Østerbro 1;Havndal;8970;56.6537910;10.1931830
DK 559269 EF;OBC Biavl;Dørup Gade 6;Hørning;8362;56.0975890;10.0228360
DK 5594 EF;Hørkram Foodservice A/S;Centervej 1;Sorø;4180;55.4629930;11.5690940
DK 5597 EF;Thyborøn Invest A/S;Havnegade 15;Thyborøn;7680;56.7031770;8.2214920
DK 56 EF;LL COLD ApS;Frysehuskajen 8;Hirtshals;9850;57.5928440;9.9751070
DK 5613 EF;Vordingborg Madservice;Vintersbølle Strand 1;Vordingborg;4760;54.9994170;11.9562810
DK 5615 EF;Ishus ApS;Fuglebækvej 3E;Kastrup;2770;55.6232960;12.5955900
DK 5617 EF;Kibæk slagterhus, Slagteri;Velhustedvej 39;Kibæk;6933;56.0643650;8.8825440
DK 5627 EF;Henriks Æg, ægpakkeri;Vellensbyvejen 10;Rønne;3700;55.0735760;14.7913710
DK 5628 EF;Lundsøe Køl og Frys;Oceanvej 8A og 8B;Aarhus;8000;56.1496278;10.2134046
DK 5629 EF;BC Catering Roskilde A/S;Langebjerg 17;Roskilde;4000;55.6466870;12.1522190
DK 5634 EF;Halkær Ådal Økologisk;Blindebomsgade 5;Løgstør;9670;56.9673270;9.2540650
DK 5636 EF;Niels & Grete, Ægpakkeri 5636;Hingevej 9;Hadsten;8370;56.3707950;10.0550930
DK 5637 EF;Dagrofa Foodservice;Vejleåvej 13;Ishøj;2635;55.6247530;12.3252340
DK 5639 EF;Hirtshals Seafood A/S;Skovvejen 9;Hirtshals;9850;57.5861610;9.9737930
DK 5641 EF;Johns Fisk, Engros;Svirrebom 1;Lemvig;7620;56.5495960;8.3087090
DK 5643 EF;JN Spedition A/S, Lagerhotel;Sleipnersvej 1;Køge;4600;55.4945310;12.1474790
DK 5644 EF;FISKERIKAJEN ENGROS ApS;H.J. Holst Vej 12;Rødovre;2610;55.6715860;12.4399860
DK 5651 EF;Rævhede;Sandmosevej 84;Aabybro;9440;57.1681720;9.6836070
DK 5652 EF;Det vilde slagtehus og gårdbutik, Slagteri;Kær Møllevej 95;Hejls;6094;55.3807990;9.5518570
DK 5653 EF;Sejerø-gæs A/S, Slagteri;Sejerøvej 28, Horsekær;Sejerø;4592;55.9037580;11.1148450
DK 5657 EF;DFDS Padborg;Industrivej 6;Padborg;6330;54.8241870;9.3552460
DK 5660 EF;Ryans Fisk & Vildt;Gårslev Østergade 13;Børkop;7080;55.6386770;9.7031790
DK 5668 EF;Centralkøkkenet Nordjysk Mad I/S;Hjørringvej 180;Brønderslev;9700;57.2879550;9.9763580
DK 5671 EF;Eimskip Denmark A/S;Østhavnsvej 37 A;Aarhus;8000;56.1512910;10.2472570
DK 5672 EF;Gastro Import Logistics ApS;Kanalholmen 15-19;Hvidovre;2650;55.6102671;12.4532780
DK 5674 EF;BØRGE TVILLINGS EFTF APS;Kattegatvej 57;Nordhavn;2150;55.7225260;12.6075360
DK 5677 EF;Samskip A/S, Toldservice A/S;Vandvejen 7, 2;Aarhus;8000;56.1423968;10.2335142
DK 5681 EF;Biofiber-Damino A/S;Staushedevejen 10;Gesten;6621;55.5336360;9.1758390
DK 5685 EF;Skallebølle Slagtehus A/S, Slagteri;Odensevej 153;Vissenbjerg;5492;55.3872140;10.1921000
DK 5688 EF;Danish Crown;Grindstedvej 2;Holsted;6670;55.5252160;8.9065230
DK 5691 EF;Rigshospitalet, Centralkøkken;Blegdamsvej 9;København;2100;55.6959760;12.5666500
DK 5694 EF;Scandic Pelagic A/S;Havnevagtsvej 7;Skagen;9990;57.7259703;10.5844602
DK 5705 EF;FJORD SEAFOOD A/S;Nordre Strandvej 62;Hanstholm;7730;57.1220550;8.6273440
DK 5707 EF;A/S Einar Willumsen;Abildager 21-23;Brøndby;2605;55.6470351;12.3799001
DK 5709 EF;KING FOOD ApS;Tonsbakken 3;Skovlunde;2740;55.7118340;12.4236320
DK 5713 EF;Thise Mejeri, Afd. Faster/Skjern Ostelager;Højevej 25;Skjern;6900;56.0053970;8.6003740
DK 5718 EF;Demca ApS;Sintrupvej 23;Brabrand;8220;56.1671620;10.1093160
DK 5725 EF;Korsmedergaard ved Claus Østergaard Gravesen, Æg pakkeri;Klørupvej 13;Randers;8920;56.4634230;9.9228570
DK 5727 EF;Kastanjehaven, Centralkøkken;Troels-Lunds Vej 25;Frederiksberg;2000;55.6747700;12.5004740
DK 5728 EF;DK Kød Aps, Slagteri;Lindtorpvej 3;Struer;7600;56.4064700;8.4679310
DK 5731 EF;Dagrofa Foodservice;Langelandsvej 17;Middelfart;5500;55.5055950;9.7631260
DK 5739 EF;J.V. Jensen;Grøftevej 4;Sorø;4180;55.4365822;11.5629363
DK 5740 EF;Emin Food ApS;Møllevej 9K, 4;Nivå;2990;55.9280847;12.4953426
DK 5753 EF;FS DK ApS;Prinsessens Kvarter 5D;Fredericia;7000;55.5531730;9.6523980
DK 5757 EF;ALBER FOOD ApS;Literbuen 9;Skovlunde;2740;55.7181710;12.4212660
DK 5762 EF;V.Åby Slagterforretning, Slagteri;Svendborgvej 412;Faaborg;5600;55.0854170;10.3778080
DK 5764 EF;MARFRESH ApS;Rødspættevej 9;Strandby;9970;57.4908980;10.5052660
DK 5765 EF;Bodebjerg ApS;Vinkelvej 21;Marslev;5290;55.3803400;10.5178340
DK 5767 EF;Hansens Flødeis ApS;Landerslevvej 5-7;Jægerspris;3630;55.8505813;11.9916517
DK 5768 EF;Thise Mejeri, Afd. Hjerm Kalkgruber;Jernbanevej 13;Hjerm;7560;56.4341840;8.6429080
DK 5769 EF;Aalborg Universitetshospital Thisted, Centralkøkken;Højtoftevej 2;Thisted;7700;56.9570090;8.6959350
DK 5773 EF;Coop Danmark A/S, Ferskvare Lager;Solmarksvej 7;Brøndby;2605;55.6548770;12.3691290
DK 5775 EF;RI 320 Lasiry Partrederi;Toldbodgade 4, 1 sal;Hvide Sande;6960;56.0002190;8.1278140
DK 5776 EF;Fælleskøkkenet I/S;Granitvej 1;Sakskøbing;4990;54.7938580;11.6175410
DK 5780 EF;The Danish Butter Export Union A/S;Broenge 11;Ishøj;2635;55.6197790;12.3199830
DK 5783 EF;Delika Haderslev ApS;Hirsevej 15;Haderslev;6100;55.2341940;9.4996570
DK 5785 EF;SUVI:T Aps;Falstervej 19;Nyborg;5800;55.3150640;10.7502620
DK 5788 EF;Centralkøkkenet Skovparken;Skovparken 1 B;Nykøbing;7900;56.7971610;8.8676850
DK 5789 EF;St. Gåsdal ApS, Ægpakkeri;Gåsdalvej 36;Skjern;6900;55.9832770;8.7058810
DK 5795 EF;Ophørt, Kølecontainer ved Jørn Martin Larsen;Mosede Havn;Greve;2670;55.5833746;12.2999286
DK 5796 EF;Odsherred Madservice Plejecenter Solvognen;Højbygårdsvej 10;Højby;4573;55.9069810;11.5941980
DK 5797 EF;CH interfrugt;Karolinevej 6;Slagelse;4200;55.3977610;11.3265980
DK 5798 EF;Holmegaards DELI  ApS;Glasmagervej 23;Holmegaard;4684;55.2820330;11.8229900
DK 5806 EF;LA TRECCIA ApS;Industrigrenen 21;Ishøj;2635;55.6210340;12.3293340
DK 5813 EF;Køkkenområdet Hjørring Kommune;M. P. Kofoeds Vej 1;Hjørring;9800;57.4571830;9.9855998
DK 5819 EF;Friskvareterminalen, Christiansfeld;Arlavej 2;Christiansfeld;6070;55.3551600;9.4947240
DK 5827 EF;Sygehus Lillebælt, KOLDING SYGEHUS - Køkkenet;Sygehusvej 24;Kolding;6000;55.5017490;9.4841880
DK 5828 EF;Vejle Sygehus, køkkenet;Beriderbakken 4;Vejle;7100;55.7147500;9.5379530
DK 5838 EF;Royal Food ApS;Lupinvej 5;Hobro;9500;56.6517190;9.7979550
DK 5838 EF;Royal Food;Lupinvej 5;Hobro;9500;56.6517190;9.7979550
DK 5846 EF;Ay Engros ApS;Navervej 22;Roskilde;4000;55.6386630;12.1192400
DK 5852 EF;Produktionskøkkenet Sydtoften;Sydtoften 104;Grindsted;7200;55.7554140;8.9077260
DK 5855 EF;HC Økoæg, Ægpakkeri;Vejlevej 27;Give;7323;55.8040170;9.3634930
DK 5858 EF;Zirfelts Leverpostej;Åvej 5;Løgstør;9670;56.9022130;9.2913040
DK 5859 EF;Galgebakkens Hjortefarm, Slagteri;Galgebakkevej 4;Bedsted;7755;56.8119230;8.4508710
DK 5863 EF;Køkken Ballerup;Bybjergvej 11, st. A;Skovlunde;2740;55.7179920;12.4023830
DK 5868 EF;Mammen Mejeri A/S, Taul;Storhedevejen 32;Bjerringbro;8850;56.4124350;9.6758950
DK 5869 EF;Svaneke Deli;Svanevang 2;Svaneke;3740;55.1362360;15.1351210
DK 5870 EF;PANDALUS A/S;Sildegade 3;Hanstholm;7730;57.1222580;8.6076450
DK 5875 EF;Jeudan A/S;Frederiksborggade 21;København;1360;55.6843190;12.5695020
DK 5886 EF;Allegårdens Opskæring og Pølsemageri Engros;Melbyvej 34;Søndersø;5471;55.5354000;10.2208830
DK 5887 EF;Odsherred Madservice, Bakkegårdens Centralkøkken;Bakkegården 1;Hørve;4534;55.7497410;11.4560890
DK 5890 EF;BC CATERING AALBORG A/S;Jellingvej 24;Svenstrup;9230;56.9617980;9.8514470
DK 5892 EF;Ommestrup ægpakkeri , John Bjerregaard;Ebeltoftvej 120;Mørke;8544;56.3246780;10.3994090
DK 5898 EF;Slagter Sørensen ApS, Slagteri;Fabriksvej 14;Videbæk;6920;56.0893910;8.6449350
DK 5900 EF;Brilliant Caviar A/S;Dalgasvej 2, Ny Højen;Vejle;7100;55.6539110;9.5038290
DK 5905 EF;INGWERSEN A/S;Hørskætten 30;Taastrup;2630;55.6634940;12.2960970
DK 5907 EF;We Are Gorms Food ApS;Marielundvej 34A;Herlev;2730;55.7152420;12.4273640
DK 5908 EF;RI 93 AVANCE;Metheasvej 1;Hvide Sande;6960;55.9991310;8.1268270
DK 5910 EF;Toftnæs Slagtehus, Slagteri;Toftnæsvej 30;Varde;6800;55.5984110;8.4254700
DK 5912 EF;Køkken Syddjurs;Vestre Fasanvej 31;Rønde;8410;56.3011270;10.4694120
DK 5914 EF;Intercargo Scandinavia A/S;Tolsagervej 6, Hadbjerg;Hadsten;8370;56.3325230;10.1231810
DK 5915 EF;DMRI Pilot plant - Teknologisk Institut;Gregersensvej 9;Taastrup;2630;55.6588060;12.2746070
DK 5916 EF;Danish Salmon A/S;Niels Juelsvej 46;Hirtshals;9850;57.5844130;9.9866190
DK 5917 EF;DANISH SALMON SLAGTERI;Søren Nordbysvej 22;Hirtshals;9850;57.5880300;9.9850380
DK 5923 EF;Djurs Slagtehus , Slagteri;Hovedgaden 28;Allingåbro;8961;56.4635340;10.3273230
DK 5925 EF;Nr. Onsild ApS;Niels Bohrs Vej 5;Haderslev;6100;55.2652940;9.5000930
DK 5929 EF;Olsgaard, Æg pakkeri;Gammel Horsensvej 219;Skanderborg;8660;56.0221540;10.0511490
DK 5930 EF;Grindsted Sygehus, Modtagekøkken;Engparken 1;Grindsted;7200;55.7550200;8.9282560
DK 5935 EF;Varde Ådal lam I/S, Ægpakkeri;Toftnæsvej 30;Varde;6800;55.5984110;8.4254700
DK 5937 EF;Det gode madhus I/S;Ryttervej 39;Svendborg;5700;55.0655410;10.5787670
DK 5940 EF;Sadaf Catering Ålborg ApS;Thorndahlsvej 9;Aalborg;9200;57.0114020;9.8945250
DK 5944 EF;PJ Distribution A/S;Ølsgårdsvej 1;Sorø;4180;55.4651240;11.5689790
DK 5945 EF;HARTMAN LOGISTIK ApS;Geminivej 29;Greve;2670;55.6086900;12.3033330
DK 5951 EF;SLAGTER LUND APS;Nyholms Alle 35;Rødovre;2610;55.6750330;12.4434600
DK 5954 EF;Unifood Import A/S;Kanalholmen 4;Hvidovre;2650;55.6127950;12.4516600
DK 5956 EF;Partrederiet Ri 124 Tima;Stormgade 8;Hvide Sande;6960;55.9996350;8.1261650
DK 5957 EF;Det Danske Madhus Vejle;Kornmarken 21;Egtved;6040;55.6042390;9.4310480
DK 5957 EF;Det Danske Madhus, Vejle A/S;Kornmarken 21;Egtved;6040;55.6042390;9.4310480
DK 5959 EF;DAFC A/S;Skanderborgvej 19;Gedved;8751;55.9401620;9.8484530
DK 5960 EF;Thyborøn Stevedore;Fabriksvej 17 - 19;Hvide Sande;6960;56.0066980;8.1225553
DK 5963 EF;Hansen & Søn A/S - Tricolore;Thorsvej 8;Padborg;6330;54.8298560;9.3476880
DK 5964 EF;Eat Event;Digevej 114;København;2300;55.6414520;12.5847390
DK 5965 EF;Madservice Kronjylland;Falstersvej 2;Randers;8940;56.4248870;10.0441710
DK 5967 EF;Nordic Fish Sauce;Jernbanegade 2;Thyborøn;7680;56.7055670;8.2203460
DK 5970 EF;K. C. Frugt ApS;Hørskætten 30-32;Taastrup;2630;55.6624789;12.3025610
DK 5975 EF;Madservice Trekroner;Trekroner Centervej 41, Trekroner;Roskilde;4000;55.6490700;12.1249200
DK 5977 EF;HindsholmGrisen, Slagteri;Æblehaven 30;Martofte;5390;55.5420160;10.6639660
DK 5978 EF;Samsø Røgeri;Østervangen 2 A;Samsø;8305;55.8504714;10.5749651
DK 5981 EF;BC Catering Bornholm;Skansevej 8A;Rønne;3700;55.0933871;14.6980509
DK 5983 EF;Madservice Viby, Toftehøjen, Køkken;Tofthøjvej 20;Viby Sjælland;4130;55.5471050;12.0263780
DK 5993 EF;Produktionskøkkenet Lundebo;Ventemøllevej 30;Dianalund;4293;55.5281340;11.4929160
DK 5994 EF;Skæve Mejeri;Skævevej 160;Dybvad;9352;57.2838920;10.2347260
DK 5994 EF;Skæve Mejeri - Engros, v/Albert Mylius Pedersen;Skævevej 160;Dybvad;9352;57.2838920;10.2347260
DK 5996 EF;Ømands;Sønder Vilstrup Bygade 1B 1;Haderslev;6100;55.1911055;9.5175486
DK 5997 EF;GLOBAL PRODUCT EXPLORER ApS;Livøvej 18;Viborg;8800;56.4498570;9.3678580
DK 60 EF;ROYAL GREENLAND SEAFOOD A/S;Lilledybet 6;Aalborg;9220;57.0477730;10.0590950
DK 6000 EF;Sønderup Landkøkken, Engros;Gammelholmvej 4;Suldrup;9541;56.8085320;9.6560800
DK 6004 EF;Greens Nordic ApS;Mileparken 13;Skovlunde;2740;55.7158240;12.4221370
DK 6005 EF;Sæby Gårdslagteri I/S, Slagteri;Aalborgvej 108;Sæby;9300;57.3312762;10.5198811
DK 6007 EF;Madhuset;Wørishøffersgade 23;Nyborg;5800;55.3148470;10.7973920
DK 6009 EF;Niels & Grete ApS, Ægpakkeri 6009;Randersvej 56;Hadsten;8370;56.3501590;10.0474520
DK 6010 EF;Vebbestrup Flødeis, Lager;Idrætsvej 3;Hobro;9500;56.7071810;9.8445450
DK 6016 EF;Hanstholm Indfrysning a/s;Industrihøjen 1;Hanstholm;7730;57.1133500;8.6401280
DK 6016 EF;C&D FOODS (DENMARK) A/S, Nordic Proteins;Industrihøjen 1;Hanstholm;7730;57.1133500;8.6401280
DK 6017 EF;HE Midt Køkken;Heibergs Alle 4;Viborg;8800;56.4461840;9.4049870
DK 6018 EF;Aarstidernes Varme Værksted ApS;Kertemindevej 11;Randers;8940;56.4374580;10.0322380
DK 6019 EF;Dagrofa Bornholm A/S;Ved Lunden 18;Rønne;3700;55.0943810;14.7153290
DK 6024 EF;Hegnsholt ægpakkeri;Lejrevej 52A;Lejre;4320;55.5892100;11.9680640
DK 6034 EF;Borngros;Skansevej 8B;Rønne;3700;55.0915010;14.6955880
DK 6035 EF;Gastrounika;Herluf Trolles Gade 23, st;København;1052;55.6785940;12.5917290
DK 6038 EF;Bispebjerg Hospital, FM - Køkken - indgang 30;Esther Ammundsens Vej 29C;København;2400;55.7139840;12.5422270
DK 6040 EF;Herlev Hospital, Bageri, Ernæringsenheden;Borgmester Ib Juuls Vej 50, 4;Herlev;2730;55.7327041;12.4456016
DK 6042 EF;Vibens Fryd Ægpakkeri;Vibberstoftvej 9;Snedsted;7752;56.8275020;8.5264750
DK 6048 EF;Kohberg Bakery Group A/S, Frostlager;Finlandsvej 10;Haderslev;6100;55.2641400;9.4762420
DK 6054 EF;Bøgebæk Økologi, Ægpakkeriet;Bøgebækvej 20;Tårs;9830;57.3390670;10.0798260
DK 6055 EF;ALI FOOD ApS COPENHAGEN MARKETS, Stade 2037;Litauen Alle 13 20-10;Taastrup;2630;55.6522136;12.2920490
DK 6057 EF;HOVEDSTADS REGIONENS FRUGT ENGROS ApS;Meterbuen 24;Skovlunde;2740;55.7199830;12.4180090
DK 6058 EF;Tuna Food, Stade 2011;Litauen Alle 13;Taastrup;2630;55.6421550;12.2455520
DK 6063 EF;RMT TRADING ApS;Klokkestøbervej 17;Odense;5230;55.3796240;10.4171690
DK 6064 EF;Inco CC Glostrup A/S;Ejby Industrivej 111;Glostrup;2600;55.6968660;12.4195930
DK 6079 EF;Scandic Salmon A/S;Lemvigvej 36;Lemvig;7620;56.5531300;8.2484080
DK 6089 EF;Ejvang Øko, Slagteri;Tingstedvej 38;Ugerløse;4350;55.5996790;11.6423240
DK 6092 EF;Dagrofa Foodservice Cash & Carry Roskilde;Vestre Hedevej 20;Roskilde;4000;55.6427580;12.1376610
DK 6098 EF;Gima Catering A/S;Naverland 24;Glostrup;2600;55.6801300;12.3781200
DK 6104 EF;Nørgaard Fiskeeksport;Vesthavnen 13;Ulfborg;6990;56.3694270;8.1210330
DK 6110 EF;Madservice Ågerup;Gundsølillevej 6;Roskilde;4000;55.6934860;12.1609440
DK 6117 EF;Prime Ocean A/S;Vestre Strandvej 1;Skagen;9990;57.7187780;10.5858860
DK 6118 EF;AQUAPRI DENMARK, Gamst Aquakultur;Fiskeparken 4;Vejen;6600;55.4995280;9.2035420
DK 6118 EF;AquaPri ApS Gamst Aquakultur;Fiskeparken 4;Vejen;6600;55.4995280;9.2035420
DK 6119 EF;Convi Food ApS;Vandtårnsvej 75, 1;Søborg;2860;55.7357412;12.4971000
DK 6121 EF;Lammehave økologi, Æggepakkeri;Eriksdalsvej 24;Horbelev;4871;54.8216410;12.0379180
DK 6125 EF;Rokkedahl Food Aps;Vårvej 65;Nibe;9240;56.9860580;9.4423760
DK 6128 EF;Tamaco A/S;Brunagervej 1;Hasselager;8361;56.1008000;10.0712100
DK 6135 EF;Madservice Hashøj;Atkærvænget 27 D;Dalmose;4261;55.2944180;11.4184170
DK 6136 EF;JH Transport & Logistics A/S;Solmarksvej 2;Brøndby;2605;55.6540180;12.3717870
DK 6142 EF;Handicapcenter Fyn , Køkken Engbo;Skaboeshusevej 90A;Nyborg;5800;55.3348200;10.7963710
DK 6143 EF;Lille Smørum Økologi;Råbrovej 17;Smørum;2765;55.7305440;12.2912160
DK 6146 EF;ZPD A/S;H E Bluhmes Vej 63;Esbjerg;6700;55.4793210;8.4262540
DK 6148 EF;Ældrecentret Fænøsund;Vestre Hougvej 70;Middelfart;5500;55.4951020;9.7276790
DK 6151 EF;Seniorcenter Rosenlund;Mørkhøjvej 336;Herlev;2730;55.7337528;12.4294486
DK 6152 EF;SDE Engros;Risingsvej 60;Odense;5000;55.4067060;10.4195410
DK 6155 EF;Favrskov Mad;Herredsvej 16;Hinnerup;8382;56.2622560;10.0748520
DK 6156 EF;Plejehjemmet Henriksdal, Fælleskøkken;Valbyvej 47;Taastrup;2630;55.6455280;12.3050680
DK 6157 EF;Torstorp Pleje- og Rehabiliteringscenter, Centralkøkken;Morelhaven 122;Taastrup;2630;55.6387450;12.2685080
DK 6158 EF;OSTEBØRSEN VEMMELEV A/S;Industrivænget 14;Vemmelev;4241;55.3632610;11.2411560
DK 6163 EF;Københavns Madservice;Bystævneparken 15;Brønshøj;2700;55.7170020;12.4771300
DK 6164 EF;Stengårdens Ægpakkeri;Høveltevej 40;Birkerød;3460;55.8385210;12.3784420
DK 6165 EF;Meals on wheels Produktion;Sommerstedgade 14, kl;København;1718;55.6668550;12.5556040
DK 6167 EF;Distrikt Ulvsund;Kornvej 40;Stege;4780;54.9759540;12.2647060
DK 6168 EF;Rå Engros ApS;Kattegatvej 55;Nordhavn;2150;55.7223620;12.6074560
DK 6171 EF;Slagter Engdahl, Slagteri;Industriparken 10;Holeby;4960;54.7261490;11.4587980
DK 6173 EF;Stenbjerg fiskeriforening;Stenbjerg Landingsplads 11;Snedsted;7752;56.9298800;8.3371730
DK 6174 EF;EAT Centralkøkken;Blushøjvej 11;København;2450;55.6484210;12.5081220
DK 6174 EF;EAT køkkenet, Centralkøkken;Edith Rodes Vej 8;København;2200;55.6945350;12.5583000
DK 6176 EF;Omsorgs Centeret Hjortespring;Sennepshaven 4;Herlev;2730;55.7435560;12.4290120
DK 6178 EF;Assens Madservice;Odensevej 29  D;Assens;5610;55.2709730;9.9081470
DK 6179 EF;MadhuZet Zahles;Zahlesvej 18;Ringsted;4100;55.4478670;11.7827960
DK 6181 EF;Ærø Madservice;Gasværksvej 10;Marstal;5960;54.8499920;10.5184720
DK 6182 EF;Arresødal slotskøkken;Arresødalvej 100;Frederiksværk;3300;55.9766420;12.0314340
DK 6183 EF;Nordsjællands Hospital - Hillerød, Centralkøkken;Dyrehavevej 29;Hillerød;3400;55.9312810;12.3252210
DK 6184 EF;Michael Kaiser - ægpakkeri;Hammervej 28;Vonge;7173;55.8985450;9.4014880
DK 6189 EF;Mommark Fisk;Mommarkvej, Kølecontaineren står ved havnen i Mommark;Sydals;6470;54.9011612;9.9565896
DK 6192 EF;DGI-byen, Stor køkken;Tietgensgade 65;København;1704;55.6700580;12.5650190
DK 6193 EF;Plejehjemmet Salem, Centralkøkken;Mitchellsstræde 5;Gentofte;2820;55.7487470;12.5392360
DK 6194 EF;BinOcean Pakhus ApS;Jens Munksvej 4;Hirtshals;9850;57.5908380;9.9825920
DK 6195 EF;Højbjerggård;Højbjerggårdsvej 16;Holte;2840;55.8243680;12.4944260
DK 6196 EF;Børneinstitutionen Bøgehøjen;Henriksholms Alle 10-12;Vedbæk;2950;55.8580350;12.5536369
DK 6198 EF;Madservice Viborg , Produktionskøkken;N.F.S. Grundtvigsvej 13;Viborg;8800;56.4469128;9.4059354
DK 6198 EF;Madservice Viborg, Produktionskøkken;Petersmindevej 15;Viborg;8800;56.4533620;9.3503190
DK 62 EF;Danish Crown;Svanningevej 1;Aalborg;9220;57.0369040;10.0245700
DK 6200 EF;Mad & Måltider Lystholm;Lystholm 20;Fredensborg;3480;55.9672910;12.4225260
DK 6201 EF;Egedal kommunes madservice;Damgårdsparken 5;Stenløse;3660;55.7703370;12.1976970
DK 6202 EF;Homemate A/S;Telefonvej 6;Søborg;2860;55.7396070;12.4923950
DK 6203 EF;Mammen Mejerierne A/S - afd. Klovborg;Storegade 70;Klovborg;8765;55.9324070;9.4885820
DK 6205 EF;KANDI Vamdrup ApS, Binavn: Ja Food Import & eksport;Bavnevej 36;Vamdrup;6580;55.4242010;9.2980740
DK 6206 EF;Chr. Nielsen & Søn;Jordrupvej 4;Vejen;6600;55.5615440;9.2572330
DK 6209 EF;Børnehuset Lyngborghave, Produktionskøkken;Lyngborghave 42-46;Birkerød;3460;55.8376700;12.4141541
DK 6212 EF;A/S Nordana;Ørstedsvej 18;Ribe;6760;55.3513280;8.7726610
DK 6213 EF;ÆLDRECENTRET MASTRUPLUND, Område Øst;Mastruplundvej 2 L;Støvring;9530;56.8822020;9.8334410
DK 6214 EF;Regionshospitalet Horsens, Hospitalskøkken og personalekantine;Sundvej 30;Horsens;8700;55.8642566;9.8706680
DK 6215 EF;083 Køkkenet Hvidovre Hospital, Centralkøkken;Kettegård Alle 30;Hvidovre;2650;55.6486690;12.4702520
DK 6216 EF;A/S O.V. Jørgensen Bagenkop afd.;Havnegade 4;Bagenkop;5935;54.7505330;10.6703950
DK 6216 EF;Bagenkop fisk;Havnegade 2A;Bagenkop;5935;54.7506500;10.6716140
DK 6220 EF;Nagel Liller A/S;Fælledvej 27;Struer;7600;56.4740340;8.5836580
DK 6223 EF;Gildhøjhjemmet, Centralkøkkenet;Brøndby Møllevej 25;Brøndby;2605;55.6524900;12.4190850
DK 6226 EF;Den Selvejende Institution Ryetbo, Centralkøkken;Engstedet 5;Værløse;3500;55.7884700;12.3663520
DK 6227 EF;Rigshospitalet, Glostrup Hospital, Centralkøkken;Valdemar Hansens Vej 1;Glostrup;2600;55.6701240;12.3898010
DK 6228 EF;Gentofte Hospital, Ernæringsenheden;Gentofte Hospitalsvej 22;Hellerup;2900;55.7403940;12.5466180
DK 6229 EF;Dengsö A/S;Auktionsgade 4;Hanstholm;7730;57.1194650;8.5985830
DK 6231 EF;La Mia Scampa;Midtager 26B;Brøndby;2605;55.6450290;12.3890290
DK 6233 EF;WOODEN SPOON ApS;Herstedøstervej 19;Glostrup;2600;55.6674540;12.3707840
DK 6234 EF;Holm Pølser ApS;Møllegade 39;Nordborg;6430;55.0515230;9.6972730
DK 6235 EF;essupply.dk v/Inger Madsen;Helgolandsgade 15;Esbjerg;6700;55.4736080;8.4324950
DK 6236 EF;Kandi Catering Aps;Christian Xs Vej 1-3;Haderslev;6100;55.2500715;9.4997871
DK 6238 EF;Hyrupdal Æg;Øsby Søndergade 31;Haderslev;6100;55.2436730;9.6404830
DK 6239 EF;Ældrecenter Æblehaven, Centralkøkken;Guldborgvej 6;Brøndby Strand;2660;55.6230240;12.4155150
DK 6241 EF;PHARMA NORD APS, Kosttilskud;Tinglykke 4;Vojens;6500;55.2377270;9.2801040
DK 6242 EF;ROSE Poultry A/S - Ferskvareterminal;Fælledvej 27, Gimsing;Struer;7600;56.4740340;8.5836580
DK 6243 EF;Hvidebæk Slagteri;Industrivej 17 D;Jerslev Sjælland;4490;55.6121090;11.2130590
DK 6244 EF;Ægpakkeri v. Brian Jensen;Plantagevej 5;Ullerslev;5540;55.3550850;10.6546720
DK 6245 EF;Gourmet Engros;H. C. Ørsteds Vej 10;Fredericia;7000;55.5348140;9.6161820
DK 6246 EF;Brøndby Kommune Ældrecenter;Nygårds Plads 30;Brøndby;2605;55.6673960;12.4404440
DK 6248 EF;Plejecenter Sølund, Storkøkken;Ryesgade 20;København;2200;55.6910970;12.5666900
DK 6253 EF;DeViKa Nexø, Engros;Paradisvej 72;Nexø;3730;55.0712650;15.1243460
DK 6257 EF;Top Æg ApS;Nybrovej 16B;Viborg;8800;56.4676370;9.2694470
DK 6258 EF;Troldgaarden ApS, Slagteri;Troldkirkevej 4;Hovedgård;8732;55.9534680;10.0331410
DK 6260 EF;Plejehjemmet Lindehaven, Centralkøkken;Præstevænget 11;Ballerup;2750;55.7321590;12.3574120
DK 6261 EF;Plejehjemmet Toftehaven, Centralkøkken;Nygårdsvej 35;Ballerup;2750;55.7343180;12.3560350
DK 6263 EF;Nordfra DK, Lager;Værftsvej 1;Faaborg;5600;55.0946150;10.2371760
DK 6265 EF;Plejehjemmet Kirstinehaven, Centralkøkken;Kirstinelundsvej 12;Ballerup;2750;55.7279350;12.3617320
DK 6266 EF;Ældrecenter Egely;Egebjerg Bygade 34;Ballerup;2750;55.7469300;12.3784160
DK 6267 EF;Lundehaven Plejecenter;Skovlunde Torv 8;Skovlunde;2740;55.7224970;12.4021030
DK 6268 EF;Sønderhaven, Central køkken;Søndergårds Allé 100;Måløv;2760;55.7481830;12.3143160
DK 6269 EF;T.I. Krydderier, Pakkeafdeling;Holmevej 13;Ejstrupholm;7361;55.9823670;9.3060730
DK 6271 EF;KommuneKøkkenet Hvidovre;Karise Alle 33;Hvidovre;2650;55.6472380;12.4840790
DK 6274 EF;Herlevgård Center, Hovedkøkken;Herlevgårdsvej 3;Herlev;2730;55.7256350;12.4377120
DK 6275 EF;SKAGENFOOD - Engros;Hyttefadsvej 8;Strandby;9970;57.4948920;10.5027600
DK 6278 EF;Taasinge Mælk;Lundbyvej 62A;Svendborg;5700;54.9887560;10.6071180
DK 6284 EF;Omsorgscentret i Hvissinge;Stenager 2;Glostrup;2600;55.6813850;12.4085710
DK 6285 EF;Plejehjemmet Engskrænten, Centralkøkken;Kirkesvinget 5;Rødovre;2610;55.6814230;12.4672630
DK 6287 EF;Tayyiv Food ApS - Ringsted;Sleipnersvej 10;Ringsted;4100;55.4253850;11.7924470
DK 6289 EF;ByMattsson;Rugmarken 10, byg. 9;Ølstykke;3650;55.7612680;12.1354130
DK 6291 EF;Cater Grønt A/S;Korsørvej 91;Slagelse;4200;55.3846570;11.3141980
DK 6294 EF;Parkvænget;Byparkvej 87;Glostrup;2600;55.6736340;12.4097170
DK 6295 EF;A/S ORTHANA KEMISK FABRIK;Englandsvej 350-356;Kastrup;2770;55.6358138;12.6006144
DK 6297 EF;E. LAMPE PØLSEGÅRDEN ApS;Lysbjergvej 11;Vojens;6500;55.2484750;9.3944280
DK 6299 EF;Delika Food Group as, Skjern;Industrivej 11;Skjern;6900;55.9582230;8.4917190
DK 6301 EF;Jagger Junk ApS, Eksternt Køkken;Kastanie Alle 9;Sønderborg;6400;54.9088730;9.7910130
DK 6304 EF;Bindia 3 ApS;Hvidovrevej 80E;Rødovre;2610;55.6658590;12.4721150
DK 6304 EF;Produktionskøkken Hvidovrevej ApS;Fjeldhammervej 15;Rødovre;2610;55.6747760;12.4404190
DK 6305 EF;Origreen ApS, Engros;Metalgangen 4H;Karlslunde;2690;55.5768720;12.2386930
DK 6306 EF;IBON APS;Industriholmen 82;Hvidovre;2650;55.6060220;12.4731180
DK 6308 EF;S 486 Sajoni;Eratosvej 8;Skagen;9990;57.7328870;10.5985620
DK 6309 EF;Kejserindens Gryder A/S, Engros;Herstedøstervej 27;Albertslund;2620;55.6693300;12.3704660
DK 6310 EF;Børnehusene Fredensborg - fælleskøkken, Sneglehuset;Lystholm 8-18;Fredensborg;3480;55.9681298;12.4225803
DK 6311 EF;Landmand Taus Bo Adamsen;Klausholmvej 5;Storvorde;9280;56.9792490;10.1286150
DK 6312 EF;Plejecenter Lillevang, Centralkøkken;Lillevænget 1;Farum;3520;55.8172370;12.3431510
DK 6315 EF;Pilegården, Produktionskøkken;Bregnerødvej 122;Birkerød;3460;55.8392770;12.4059780
DK 6316 EF;Center Amager Sundbygård, Blok B, Produktionskøkken;Sundbygårdsvej 3, 2.;København;2300;55.6492114;12.5902697
DK 6321 EF;AARSTIDERNE A/S;Barritskovvej 34;Barrit;7150;55.7068280;9.9203860
DK 6322 EF;THORUPs Ægpakkeri;Slemmingvej 4;Grenaa;8500;56.4263490;10.7923380
DK 6323 EF;Skovsminde Omsorgscenter, Centralkøkken;Skovsmindeparken 2A;Græsted;3230;56.0611060;12.2938470
DK 6326 EF;Madservice;Lindhøjvej 2;Munkebo;5330;55.4593590;10.5551570
DK 6327 EF;Øko-one, Æg pakkeri;Lumbyholmvej 10;Årslev;5792;55.2982150;10.3848370
DK 6328 EF;Freja Transport & Logistics A/S;Plantagevej 24;Padborg;6330;54.8440440;9.3495050
DK 6329 EF;Akaciegården;Betty Nansens Alle 2A;Frederiksberg;2000;55.6695550;12.4967160
DK 6330 EF;Ældrecentret Broparken, Centralkøkken;Slotsherrens Vænge 2;Rødovre;2610;55.7005660;12.4571140
DK 6332 EF;Delidrengene ApS;Mileparken 10 D;Skovlunde;2740;55.7140140;12.4224870
DK 6333 EF;Omsorgscenter Kærbo, Centralkøkken;Ishøj Boulevard 2;Ishøj;2635;55.6159030;12.3497030
DK 6335 EF;Jan Hansen, Ægpakkeri;Stokholtsvej 66;Fjenneslev;4173;55.4711540;11.6525190
DK 6336 EF;Kochens ApS;Logistikvej 14;Odense;5250;55.3632390;10.3181970
DK 6337 EF;Yduns Have ægpakkeriet;Alstrup 2;Samsø;8305;55.8778480;10.6199520
DK 6339 EF;Arla Foods Amba (Taulov mejeri), Mønsted Kalkgruber;Kalkværksvej 8;Stoholm Jyll;7850;56.4567260;9.1661910
DK 6344 EF;Æggegården Glud, Ægpakkeri;Gludvej 66;Juelsminde;7130;55.8060920;9.9903610
DK 6346 EF;M/V Klevstrand;Østre Havnegade 18, st tv;Aalborg;9000;57.0476270;9.9385220
DK 6349 EF;Ryholtgård Plejehjem, Centralkøkken;Rymarksvej 23-27;Hellerup;2900;55.7336657;12.5655408
DK 6350 EF;Den Selvejende inst.Birkebo;Hellebo Park 98;Helsingør;3000;56.0500720;12.5874050
DK 6351 EF;Delitaste ApS;Hammerholmen 15D;Hvidovre;2650;55.6092877;12.4826659
DK 6354 EF;Børnehusene Kokkedal;Broengen 6;Kokkedal;2980;55.9085110;12.4965020
DK 6356 EF;Parkson Peng & Ling Trading ApS;Søndre Ringvej 55 4;Brøndby;2605;55.6496281;12.3989388
DK 6357 EF;Plejeboligcenter Fælledgaarden, Centralkøkken;Drejøgade 3;København;2100;55.7087950;12.5720130
DK 6362 EF;Constellation Cold Logistics Denmark A/S - Vamdrup;Østermarksvej 2;Vamdrup;6580;55.4283210;9.2958940
DK 6364 EF;RDI køl Avedøre;Kanalholmen 25;Hvidovre;2650;55.6093310;12.4545470
DK 6365 EF;Behandlingshjemmet Hvidborg, Institutionskøkken;Neergårds Alle 6;Hvidovre;2650;55.6441712;12.4772091
DK 6367 EF;Vuggestuen Enghusene;Tyborøn Allé 55;Vanløse;2720;55.6864600;12.4736810
DK 6369 EF;Plejecentret Hørgården, Produktionskøkken;Brydes Allé 28, st;København;2300;55.6590290;12.5979710
DK 6370 EF;Centralkøkken Helsingegården, PlejeGribskov;Parkvænget 20A;Helsinge;3200;56.0257650;12.1986750
DK 6374 EF;Plejehjemmet Hegnsgården, Centralkøkken;Alleen 7;Nærum;2850;55.8154070;12.5398950
DK 6376 EF;Hav Line Processing A/S;Industrikajen 7;Hirtshals;9850;57.5920820;9.9723120
DK 6378 EF;Kryta A/S;Navervej 30-32;Roskilde;4000;55.6393121;12.1209823
DK 6379 EF;Plejehjemmet Grønnehaven, Café;Sundtoldvej 2;Helsingør;3000;56.0413460;12.6060200
DK 6382 EF;Aarstiderne Engros A/S;Lundagervej 1;Hedensted;8722;55.7900770;9.6735070
DK 6386 EF;Smyril Line Cargo Danmark ApS;Erik Sondrups Vej 10;Hirtshals;9850;57.5934780;9.9906330
DK 6387 EF;Basic Food ApS;Ådalen 3;Køge;4600;55.5050550;12.1818510
DK 6388 EF;Teknologisk Institut, Bioressourcer;Gregersensvej 3 3J;Taastrup;2630;55.6522136;12.2920490
DK 6389 EF;Plejehjemmet Falkenberg, Centralkøkken;Falkenbergvej 30A;Ålsgårde;3140;56.0765840;12.5229140
DK 6390 EF;Klarahus, Centralkøkken;Edith Rodes Vej 14;København;2200;55.6932290;12.5583300
DK 6393 EF;Bo & Dagtilbud Musvågevej;Musvågevej 24;København;2400;55.7013830;12.5282520
DK 6394 EF;Royal Danish Fish A/S;Nordre Strandvej 60;Hanstholm;7730;57.1229470;8.6247660
DK 6395 EF;OLE LARSEN TRANSPORT A/S, Lager;Dalgårdsvej 7;Brabrand;8220;56.1656370;10.1010320
DK 6396 EF;Agerbækhuse;Gymnasievej 30;Køge;4600;55.4537110;12.1609380
DK 6397 EF;Grøn Fokus Frostlager;Sorøvej 84;Slagelse;4200;55.4126230;11.3907000
DK 6398 EF;Plejehjemmet Strandhøj;Gylfesvej 17C;Espergærde;3060;55.9893010;12.5560510
DK 6399 EF;JANAX A/S;Priorparken 849;Brøndby;2605;55.6558340;12.4164960
DK 6400 EF;Plejehjemmet Verdishave, Produktionskøkken;Tartinisvej 31;København;2450;55.6451260;12.5272110
DK 6403 EF;Plejehjemmet Peder Lykke Centret, Centralkøkkenet;Peder Lykkes Vej 65;København;2300;55.6534890;12.5993340
DK 6404 EF;Frostegård Ægpakkeri;Almindingsvej 25;Aakirkeby;3720;55.0872420;14.9089850
DK 6408 EF;Liba Ost;Spørringvej 36;Hjortshøj;8530;56.2982290;10.1756770
DK 6408 EF;Liba ost;Bygaden 18;Lystrup;8520;56.2317210;10.2342810
DK 6410 EF;DINA TRADING ApS;Skravevej 19;Rødding;6630;55.4092210;9.1053290
DK 6413 EF;Bispebjerghjemmet, Centralkøkken;Tagensvej 186;København;2400;55.7084490;12.5407160
DK 6416 EF;SLAGTER ENGDAHL ApS, Pølsemageri;Industriparken 10;Holeby;4960;54.7261490;11.4587980
DK 6417 EF;Nordvildt ApS, Slagteri;Horserød Byvej 2A;Helsingør;3000;56.0553890;12.4959690
DK 6418 EF;Tapperiet ApS;Elektronvej 10;Greve;2670;55.6058430;12.3023540
DK 6419 EF;Dalbakkegaard, Engros;Dalbakkevej 2;Øster Ulslev;4894;54.6936000;11.5737710
DK 6420 EF;Omsorgscenter Enggården, Centralkøkken;Engvej 20A;Dragør;2791;55.5895900;12.6654970
DK 6422 EF;Møllegården Omsorgscenter, Køkken/Børnekøkken;Bagsværd Møllevej 9;Kongens Lyngby;2800;55.7658250;12.4780720
DK 6423 EF;Centralkøkkenet Boserupvej 7;Boserupvej 7;Roskilde;4000;55.6493880;12.0652410
DK 6424 EF;Økogårdene Skjern Enge ApS.;Feldsingvej 3;Skjern;6900;55.9892980;8.6925650
DK 6426 EF;Håndværkerforeningens Plejehjem, Centralkøkken;Håndværkerhaven 49;København;2400;55.7210260;12.5388300
DK 6428 EF;Plejecentret Sjælsø, Centralkøkkenet;Soldraget 37;Birkerød;3460;55.8595060;12.4261840
DK 6429 EF;DAVA Foods Denmark A/S;Fabriksvej 6;Hadsund;9560;56.7290520;10.1105360
DK 6431 EF;Lions Neurocenter, Hovedkøkken;Tuborgvej 181;København;2400;55.7179500;12.5415650
DK 6432 EF;Grøndalsvænge, Centralkøkken;Rabarbervej 6;København;2400;55.6955030;12.5244160
DK 6433 EF;Breelteparken;Breeltevej 1;Hørsholm;2970;55.8946130;12.4879780
DK 6436 EF;Rundskuedagens Plejehjem, Centralkøkken;Dannebrogsgade 44;København;1660;55.6685500;12.5528890
DK 6439 EF;Samsø Catering, Samsø Transport;Marsk Stigs Vej 20  B;Samsø;8305;55.8339640;10.5821420
DK 6440 EF;Bakkegården Demensboliger, Centralkøkken;Taxvej 18;Bagsværd;2880;55.7622050;12.4423660
DK 6441 EF;Sardegna Import;Meterbuen 6, 7;Skovlunde;2740;55.7183428;12.4168875
DK 6442 EF;Hopballe Gårdslagteri, Slagteri;Hopballevej 56;Jelling;7300;55.7417390;9.4693180
DK 6443 EF;Them Andelsmejeri A.m.b.a., Lager;Industrivej 4 N;Them;8653;56.1005250;9.5795980
DK 6444 EF;Them Andelsmejeri A.m.b.a, Knudlundvej;Knudlundvej 11;Them;8653;56.0978810;9.5771050
DK 6445 EF;Arvelund Æg, Æggepakkeri;Egensevej 13;Nørre Alslev;4840;54.9249350;11.7736670
DK 6446 EF;Energi Center Voldparken, Produktionskøkken;Kobbelvænget 65, EnergiCenter Voldparken;Brønshøj;2700;55.7136960;12.4844910
DK 6447 EF;baagaard ægpakkeri, v/Bitten Aagaard Jensen;Ravnholtvej 149;Tranbjerg;8310;56.0703720;10.1202620
DK 6453 EF;FOOD WITH YOU ApS;Frostvej 14;Vejle;7100;55.7462910;9.5973610
DK 6454 EF;Dalbakkegaard, Æggepakkeri;Dalbakkevej 2;Øster Ulslev;4894;54.6936000;11.5737710
DK 6455 EF;Plejecenter Birkerødpark;Bregnerødvej 83;Birkerød;3460;55.8388460;12.4098610
DK 6456 EF;SCANDIC PELAGIC A/S;Melvej 1;Skagen;9990;57.7201390;10.5978080
DK 6458 EF;Larsen Fine Food ApS;Ægirsvej 15;Hillerød;3400;55.9310480;12.2715570
DK 6459 EF;Madservice Lystoftebakken;Caroline Amalie Vej 130;Kongens Lyngby;2800;55.7912490;12.5050460
DK 6460 EF;Områdecenter Bredebo, Hovedkøkken;Mølleåparken 2;Kongens Lyngby;2800;55.7940260;12.5052100
DK 6461 EF;I/S Vester Storetoft, Ægpakkeri;Vester Storetoft 67;Fanø;6720;55.3578210;8.4618740
DK 6464 EF;Områdecenter Solgården, Den Kommunale Madservice;Virumvej 125;Virum;2830;55.7886250;12.4591730
DK 6465 EF;Baunehøj, Den Kommunale Madservice;Carlshøjvej 66;Kongens Lyngby;2800;55.7781590;12.5195220
DK 6467 EF;Institution Møllebo, Institutionskøkken;Lyngby Hovedgade 1A;Kongens Lyngby;2800;55.7750120;12.4990030
DK 6468 EF;Monas;Edwin Rahrs Vej 46;Brabrand;8220;56.1630850;10.1235090
DK 6469 EF;Plejecenter Virumgård, Den Kommunale Madservice;Sennepsmarken 1;Virum;2830;55.7837740;12.4843070
DK 6470 EF;Madkonceptet ApS;Stensmosevej 22E;Albertslund;2620;55.6674560;12.3623420
DK 6475 EF;Skelleris den lille øko gård, Æggepakkeri;Præsteskov 6;Dianalund;4293;55.5294960;11.4316750
DK 6478 EF;HAVI LOGISTICS;Vejleåvej 11A-B;Ishøj;2635;55.6263677;12.3237627
DK 6479 EF;Det Velkendte;Jernholmen 49;Hvidovre;2650;55.6052590;12.4902040
DK 6480 EF;Chr. Hansen A/S;Sundsnæs 10;Gråsten;6300;54.9095090;9.5928030
DK 6485 EF;Kildespring A/S;Jerupvej 726;Sindal;9870;57.5040690;10.3180780
DK 6490 EF;International N&H Denmark ApS;Langkær 22;Haderslev;6100;55.2184390;9.4748180
DK 6491 EF;Langgadehus, Produktionskøkken;Valby Langgade 97;Valby;2500;55.6656230;12.5083460
DK 6492 EF;Ældrecenter Dalvangen, Centralkøkken;Digevangsvej 1;Glostrup;2600;55.6703980;12.4098540
DK 6496 EF;Dansk Stålkonstruktioner V/ Cheval Blanc;Samsøvej 2;Hobro;9500;56.6237340;9.8181750
DK 6497 EF;3027 Sankt Lukas Stiftelsen, Centralkøkkenet;Bernstorffsvej 20A;Hellerup;2900;55.7267180;12.5557240
DK 6498 EF;SVEND E. SØRENSEN SPEDITION A/S;Ravnhavevej 1;Christiansfeld;6070;55.3642880;9.4881040
DK 65 EF;Danish Crown A/S;Tulipvej 10;Vejle;7100;55.7351300;9.5690200
DK 6503 EF;MAMMA PRODUCTION A/S;Bygmarken 25;Farum;3520;55.8216530;12.3692600
DK 6504 EF;A. ESPERSEN A/S, testkøkken;Amager Strandvej 403;Kastrup;2770;55.6360020;12.6544220
DK 6505 EF;Dronning Ingrids Hjem, Centralkøkken;Carl Jacobsens Vej 6-10;Valby;2500;55.6545416;12.5155521
DK 6506 EF;Undergroundkitchen, engros;Victoriagade 40;Odense;5000;55.4137990;10.3885260
DK 6507 EF;Kildegården, Centralkøkken og Café;Kildebakkegårds Alle 165;Søborg;2860;55.7419030;12.5016760
DK 6508 EF;Bosoyregaard Dyr ApS;Dønnevældevej 115;Græsted;3230;56.0496990;12.2512420
DK 6509 EF;Skjulhøjgård, Centralkøkkenet;Ålekistevej 226;Vanløse;2720;55.6960750;12.4796940
DK 6510 EF;FN 462 Jeanne ApS;Rughaven 7A;Strandby;9970;57.5004370;10.4892870
DK 6514 EF;BÄKO ApS;Visherredsvej 12;Padborg;6330;54.8341400;9.3587000
DK 6518 EF;Børnehusene Humlebæk, Frugthaven Børnehave / Frugthaven Vuggestue;Baunebjergvej 550;Humlebæk;3050;55.9598600;12.5170740
DK 6523 EF;Simply Cooking I Kantine;Litauen Alle 6;Taastrup;2630;55.6383790;12.2460380
DK 6524 EF;Nordic Kingfish Hanstholm, Sashimi Royal;Nordre Strandvej 62-66;Hanstholm;7730;57.1229090;8.6255696
DK 6533 EF;Condi ApS;Roskildevej 30;Albertslund;2620;55.6634270;12.3577770
DK 6534 EF;Storstrøms Fængsel Produktionskøkken;Blichersvej 1;Nørre Alslev;4840;54.8869970;11.9192340
DK 6536 EF;Pilehuset, Køkken ved festsalen;Bystævneparken 24;Brønshøj;2700;55.7156580;12.4725000
DK 6538 EF;Søtofte Gårdmejeri;Søtoftevej 74;Ringsted;4100;55.5130430;11.6884230
DK 6539 EF;KOKKEKOMPAGNIET ApS;Hesselly 9;Kolding;6000;55.5400480;9.4886920
DK 6542 EF;Chrisfish Danmark A/S;Langerak 45;Frederikshavn;9900;57.4415310;10.5438410
DK 6544 EF;Fiskbæk Gårdbutik A.M.B.A, ved Gråsten Landbrugsskole;Fiskbækvej 15;Gråsten;6300;54.9390860;9.6017370
DK 654481 EF;Tjørnemosegård, Jens Fjordhøj;Kostervej 51;Stege;4780;54.9668390;12.2345590
DK 6546 EF;Capri Import ApS;Ribevej 6;Randers;8940;56.4367890;10.0487950
DK 6548 EF;KYST ApS;Kai Lindbergs Gade 37;Hanstholm;7730;57.1202740;8.6033730
DK 6549 EF;LANDBRUG VITTENBJERGGÅRD V/JØRGEN HEGGELUND, Ægpakkeri;Ejbyvej 105;Bjæverskov;4632;55.4759030;12.0728570
DK 6555 EF;Ingeborggården , Centralkøkken;Troels-Lunds Vej 27A;Frederiksberg;2000;55.6747360;12.4987240
DK 6557 EF;Mobrogaard Ægpakkeri;Kildevej 1B;Helsinge;3200;56.0051580;12.2438250
DK 6560 EF;CaterCorp ApS;Porsborgparken 7;Støvring;9530;56.8899260;9.8159340
DK 6560 EF;CaterCorp ApS;Hobrovej 799;Svenstrup;9230;56.9680110;9.8557630
DK 6562 EF;Centralkøkkenet Klostergårdens Plejehjem;Strandvejen 91C;København;2100;55.7215520;12.5766930
DK 6564 EF;Esbjerg Kommune, Afd. Ny Bøndergårdsvej;Ved Skoven 41;Esbjerg;6700;55.4798380;8.4406190
DK 6565 EF;GOLDEN FOODS ApS;Nyager 4;Brøndby;2605;55.6477040;12.3855860
DK 6566 EF;Meyers Køkken Hovedkøkken;Hedegaardsvej 88;København;2300;55.6459320;12.6421480
DK 6567 EF;Hallegaard Pølsemageri og Gårdbutik, Slagteri;Aspevej 3;Østermarie;3751;55.1173650;15.0603800
DK 6568 EF;Advanced Nordic Nutrition ApS;Rybergsvej 1;Ebberup;5631;55.2446830;9.9656180
DK 6569 EF;Leziz Food ApS;Broenge 1;Ishøj;2635;55.6186440;12.3192720
DK 6573 EF;Jespers Torvekøkken ApS;Vandtårnsvej 75;Søborg;2860;55.7357990;12.4844060
DK 6574 EF;Råde Fjerkræfarm, Slagteri;Raade Bygade 21;Haderslev;6100;55.2475150;9.6827610
DK 6575 EF;Søgaard Kød, Slagteri;Ørstedvej 35;Sommersted;6560;55.3759170;9.2597820
DK 6577 EF;Omsorgscentret Egegården, Centralkøkken;Klausdalsbrovej 213, Egegård Distrikt;Søborg;2860;55.7445960;12.4661040
DK 6581 EF;MIB Vejle ApS;Lysholt Allé 3;Vejle;7100;55.7335280;9.5828290
DK 6581 EF;SERWIZ Dandy Food Innovation House;Lysholt Allé 3;Vejle;7100;55.7335280;9.5828290
DK 6585 EF;Lunch Club ApS;Avedøreholmen 96;Hvidovre;2650;55.6063720;12.4666490
DK 6587 EF;VM Konference;Harald Jensens Vej 9;Aalborg;9000;57.0514260;9.8991460
DK 6588 EF;Jespers Torvekøkken Nordjylland ApS;Kristinevej 2c;Aalborg;9000;57.0357050;9.9646300
DK 6591 EF;Ispirazione;Johann Gutenbergs Vej 8;Aarhus;8200;56.2046030;10.1863430
DK 6595 EF;SWEETKITCHEN ENGROS ApS;Sortevej 8;Hornslet;8543;56.3063120;10.3123760
DK 6597 EF;Nørresundby Rederi & Shipping af 2017 A/S M/V ULLA;Østre Havnegade 18, st tv;Aalborg;9000;57.0476270;9.9385220
DK 6600 EF;Kisbæk Gårdmælk ApS;Kisbækvej 1;Løgumkloster;6240;55.0726840;9.0216490
DK 6601 EF;Urtegaarden ApS;Aldershvilevej 1;Allingåbro;8961;56.4864150;10.4217320
DK 6603 EF;Techcollege Slagteri, Slagteri;Struervej 70;Aalborg;9220;57.0379360;9.9827070
DK 6604 EF;Vester Krogsgaard, Lagerhotel;Stenbjergvej 44;Snedsted;7752;56.8973970;8.4589770
DK 6605 EF;Arla Foods amba Hoco , Engroslager, Jens Hvidbergs Vej 11;Jens Hvidbergs Vej 11;Holstebro;7500;56.3695060;8.6434750
DK 6611 EF;Vrøgum Vildt, Slagteri;Hedelundvej 9 B;Oksbøl;6840;55.6549410;8.2933970
DK 6614 EF;Meyers Køkken Aarhus;Sletvej 34;Tranbjerg;8310;56.1059440;10.1371050
DK 6616 EF;Regionshospitalet Gødstrup, Produktionskøkken;Kapelvej 5;Herning;7400;56.1553200;8.8866000
DK 6617 EF;KFT Jylland, Lager KBH;Jernholmen 40;Hvidovre;2650;55.6075090;12.4881300
DK 6620 EF;Spis godt ApS;Oceanvej 13, st;Aarhus;8000;56.1423468;10.2277775
DK 6621 EF;Meyers Festcatering;Kattegatvej 53;Nordhavn;2150;55.7225790;12.6083250
DK 6622 EF;Simons Diner Transportable ApS, Engros;Thomas Olesen Løkkens Vej 2;Aalborg;9200;57.0099670;9.8859310
DK 6624 EF;Feldskov Have, Æggepakkeri;Feldskovvej 40;Sorø;4180;55.4196920;11.5428300
DK 662496 EF;Klelund ApS;Agerbækvej 4 N;Hovborg;6682;55.5953865;8.8994885
DK 6626 EF;Skagen Smokehouse;Fabriksvej 1;Skagen;9990;57.7221690;10.5975020
DK 6627 EF;Solsikken;Fortevej 16;Horsens;8700;55.8756110;9.9203970
DK 6629 EF;Stensbølgård Ægpakkeri;Smedevej 18;Kirke Hyllinge;4070;55.7104570;11.8709990
DK 6630 EF;Gourmiddag;Sønderskovvej 15;Hørning;8362;56.0788670;10.0283640
DK 6631 EF;Vesterborg vildt og fjerkræslagteri , Slagteri;Gallemosevej 6;Vesterborg;4953;54.8445380;11.3072770
DK 6632 EF;BAS Food ApS;Aage Grams Vej 1;Vojens;6500;55.2421880;9.2985660
DK 6634 EF;Arla Foods Ingredients Group P/S, Danmark Protein, Engroslager;HI-Park 447;Herning;7400;56.1328890;9.0993570
DK 6635 EF;Plejecentret Baldersbo, Køkken;Charlotteager 7;Hedehusene;2640;55.6494440;12.2095680
DK 6636 EF;Seerupgaard Ægpakkeri;Fælledvej 120;Dragør;2791;55.5818710;12.6233970
DK 6637 EF;Sengeløse Plejecenter, Centralkøkken;Landsbygaden 4;Taastrup;2630;55.6795990;12.2599850
DK 6639 EF;Fuco & Giano Import;Njalsgade 23;København;2300;55.6661650;12.5816170
DK 6640 EF;MADHYTTEN ApS;Gummersmarkvej 7A;Bjæverskov;4632;55.4516480;11.9983330
DK 6642 EF;Ørestad Plejecenter, Centralkøkken;Asger Jorns Allé 5;København;2300;55.6193280;12.5736190
DK 6643 EF;Søften v/ Jespers Torvekøkken ApS;Rho 16;Hinnerup;8382;56.2377710;10.1024510
DK 6645 EF;Inter Dairy Food ApS;Dalager 9;Brøndby;2605;55.6449350;12.3851280
DK 6646 EF;Leon`s Ø Fisk v/Leon Mikkelsen;Ilkjæret 18;Erslev;7950;56.8398620;8.7382890
DK 6647 EF;Nordic Catering ApS;Kirsten Walthers Vej 5;Valby;2500;55.6584040;12.5131330
DK 6649 EF;La Prosciutteria Engros aps;Stensvang Allé 4;Brørup;6650;55.5025060;9.0196910
DK 6650 EF;Corporate Cooking ApS;Grønnedalsvej 14;Skanderborg;8660;56.0501020;9.9591130
DK 6651 EF;Madværftet ApS, Engros;Vejlby Centervej 51;Risskov;8240;56.1932610;10.2080010
DK 6651 EF;Madværftet, Engros;Kirkebakken 4;Beder;8330;56.0587590;10.2054300
DK 6653 EF;Madservice Hyrdehøj;Hyrdehøj Stræde 2;Roskilde;4000;55.6337390;12.0529350
DK 6654 EF;Lyksvad Caviar ApS;Ødis Kroge Vej 4;Vamdrup;6580;55.4071480;9.4033850
DK 6655 EF;Aamanns Køkken;Refshalevej 163A;København;1432;55.6919290;12.6120180
DK 6657 EF;Nordsjællands Hospital - Frederikssund, Centralkøkken;Frederikssundsvej 30;Frederikssund;3600;55.8488010;12.0852470
DK 6660 EF;Danish Crown A/S;Scandiavej 5;Låsby;8670;56.1503250;9.8248660
DK 6661 EF;Lalala;Strandgade 71;København;1401;55.6767450;12.5946980
DK 6666 EF;Yazzys Administration;Blækhatten 3b;Odense;5220;55.3689850;10.4636830
DK 6667 EF;United Group Manufacturing A/S;Ferrarivej 12;Vejle;7100;55.6726800;9.5922390
DK 6669 EF;ZBC Pølsemageri;Maglegårdsvej 8;Roskilde;4000;55.6280650;12.0779370
DK 6670 EF;Grambogård, Slagteri;Ellehaven 55;Tommerup;5690;55.3123520;10.2160030
DK 6671 EF;Fiskerøgeriet I/S;Vellingvej 55;Bryrup;8654;56.0507200;9.5268360
DK 6674 EF;OPHØRT - Ålbæk Fiskerlaug;Sdr. Havnevej 69;Ålbæk;9982;57.5924730;10.4273820
DK 6680 EF;BØNNERUP FISKERIFORENING, Kølerum;Ny Havnevej 28;Glesborg;8585;56.5338870;10.7125520
DK 6685 EF;Teglporten - centralkøkken;Teglporten 11;Birkerød;3460;55.8399670;12.4330040
DK 6688 EF;Bølling GræsÆg v. Jens Mogensen;Egtvedvej 100;Egtved;6040;55.5832450;9.3587000
DK 6689 EF;Hals Fiskeriforening, Fælles kølelager på Lodsvej 1;Lodsvej 1;Hals;9370;56.9916380;10.3094900
DK 6690 EF;Holmegårdsparken, Centralkøkkenet;Ordrupvej 32;Charlottenlund;2920;55.7651810;12.5814610
DK 6691 EF;PROCATER ApS;Erhvervsparken 57;Fårvang;8882;56.2705790;9.7200570
DK 6692 EF;KRAGERUP & KO ApS;Ejby Industrivej 91;Glostrup;2600;55.6970700;12.4162090
DK 6694 EF;SPISERIET8000 ApS;Stationsvangen 5;Skødstrup;8541;56.2597640;10.3021370
DK 6695 EF;Kejserindens gryder & kokkeri  A/S;Herstedøstervej 27;Albertslund;2620;55.6693300;12.3704660
DK 6696 EF;Madxpressen ApS;Alsvej 21;Randers;8940;56.4273910;10.0416160
DK 6700 EF;Fredensborg Ældremad - Skovgårdens køkken;Boserupvej 601;Humlebæk;3050;55.9587460;12.5163050
DK 6702 EF;Fonden JunkFood;Betty Nansens Alle 57-61;Frederiksberg;2000;55.6698073;12.5020298
DK 6703 EF;LF Vildt og Fjerkræslagteri ApS, Slagteri;Linkøpingvej 33;Nakskov;4900;54.8234830;11.1593080
DK 6705 EF;Havfruen Fisk v/Rune Mark Olsen;Kattegatvej 69;Nordhavn;2150;55.7225200;12.6070240
DK 6709 EF;Kathrinelund Gårdbutik   Ægpakkeri;Guldagervej 50;Esbjerg;6710;55.5324350;8.3813290
DK 6710 EF;Functional Future ApS;Ellekær 14;Herlev;2730;55.7210390;12.4221560
DK 6712 EF;Odder Æg v/Martin Kjær Karmisholt, Ægpakkeri;Ulvskovvej 123;Odder;8300;55.9763660;10.0916690
DK 6716 EF;Egeskovgaard, Ægpakkeri;Lebølvej 35;Sydals;6470;54.9064110;9.9603480
DK 6717 EF;Arla Foods amba Esbjerg Færdigvarelager (ekstern);Alssundvej 2-4;Esbjerg;6705;55.5067178;8.4832455
DK 6718 EF;Slagter Hejsel;Søvejen 3;Vojens;6500;55.1891360;9.3881100
DK 6719 EF;LEGO Multihuset , v/ISS Facily Services A/S;Kløvermarken 16;Billund;7190;55.7246140;9.1279920
DK 6720 EF;Compass Group DK LEGO Kløverblomsten;Kløvermarken 14;Billund;7190;55.7246770;9.1234100
DK 6720 EF;LEGO kantinen Kløverblomsten v/ISS Facility Services;Kløvermarken 14;Billund;7190;55.7246770;9.1234100
DK 6721 EF;THERMO-TRANSIT Danmark A/S;Omfartsvejen 1;Padborg;6330;54.8336390;9.3412710
DK 6722 EF;Stokmosegård;Skalkendrupvej 60;Nyborg;5800;55.3696720;10.7541600
DK 6723 EF;LYNDRUPS RENGØRING ApS;Smedebjergvej 25;Vils;7980;56.7628666;8.7291569
DK 6724 EF;DSB Depotvej v/ISS Facility Services A/S;Depotvej 12;Taastrup;2630;55.6517890;12.2859450
DK 6727 EF;HV18 Freja, v/PAU SCHRAMM;Vestervej 35;Rømø;6792;55.1710130;8.5504740
DK 6728 EF;Vores Køkken Sølund;Sølundsvej 3B;Skanderborg;8660;56.0316160;9.9224880
DK 6730 EF;Den Røde Okse Catering;Stenhuggervej 5;Esbjerg;6710;55.5097480;8.4080390
DK 6733 EF;Sole Ejendomme;Kærvej 45;Hedensted;8722;55.7711720;9.6097110
DK 6734 EF;Gilleleje Sild;Stæremosen 56;Gilleleje;3250;56.1094210;12.3222450
DK 6738 EF;Procudan A/S;Bronzevej 1;Kolding;6000;55.5088090;9.4462480
DK 6739 EF;HARTMAN LOGISTIK ApS;Lindevej 15;Vejle;7100;55.7836840;9.5778320
DK 6740 EF;Royal Nyborg Smokehouse;Lundsager 10;Ullerslev;5540;55.3597500;10.6662520
DK 6743 EF;Fam. Christoffersens gårdbutik;Teglværksvej 24;Næstved;4700;55.2214760;11.6035460
DK 6745 EF;Madklubben Catering ApS;Smedeholm 15;Herlev;2730;55.7223930;12.4205400
DK 6748 EF;City Catering ApS;Buddingevej 201B;Søborg;2860;55.7510860;12.4986900
DK 6750 EF;Color Line Danmarks A/S - Lageret;Niels Juelsvej 2-4;Hirtshals;9850;57.5862705;9.9847962
DK 6751 EF;COLOR LINE DANMARK A/S;Niels Juelsvej 45;Hirtshals;9850;57.5855590;9.9896150
DK 6752 EF;BASF A/S;Malmparken 5;Ballerup;2750;55.7254160;12.3865030
DK 6753 EF;Snap Pack A/S;Snaptunvej 59A;Juelsminde;7130;55.8202350;10.0371320
DK 6755 EF;Chr. Hansen A/S;Jernholmen 1-27;Hvidovre;2650;55.6088063;12.4897148
DK 6757 EF;Dabba Aps;Stadion Allé 70;Aarhus;8000;56.1321770;10.1937400
DK 6758 EF;Roskilde Tekniske Skole;Ledreborg Alle 50;Roskilde;4000;55.6196060;12.0286640
DK 6762 EF;Pico Pizza Production ApS;Struenseegade 9;København;2200;55.6868560;12.5504790
DK 6763 EF;DKK Engros;Roholmsvej 17L;Albertslund;2620;55.6677400;12.3592890
DK 6764 EF;Copenhagen Company, Centralkøkkenet;Kirkegårdsvej 25 B;København;2300;55.6581490;12.6122560
DK 6767 EF;SKAT_Kratbjerg 236;Kratbjerg 236;Fredensborg;3480;55.9672080;12.3889710
DK 6768 EF;Rosenborgcentret;Rosengade 1;København;1309;55.6870600;12.5839760
DK 6769 EF;Møllebakkegaard ægpakkeri, Æggepakkeri;Præstetoften 3;Mern;4735;55.0289290;12.0196350
DK 6771 EF;Frokost.menu ApS;Solnavej 65;Søborg;2860;55.7446580;12.5066880
DK 6772 EF;Royal-Skagen ApS;Jennetvej 312;Ålbæk;9982;57.5671410;10.3685190
DK 6775 EF;Finn Hansen, Slagteri;Skodsbølvej 71;Broager;6310;54.9007320;9.6503420
DK 6777 EF;Intern Service Kantine CELF;C. E. Christiansens Vej 12;Maribo;4930;54.7790640;11.5045190
DK 6778 EF;Orkla Care A/S;Industrigrenen 10-19;Ishøj;2635;55.6193800;12.3319358
DK 6781 EF;MONDRUPS KØKKEN ApS;Strandvejen 34, st tv;Hellerup;2900;55.7223240;12.5778200
DK 6782 EF;Rixgaarden - æggepakkeri;Gjandrup Byvej 9;Randers;8920;56.4556850;9.8911580
DK 6785 EF;CAMETTE ApS, Kosttilskud;Lillebæltsvej 47;Esbjerg;6715;55.5068750;8.4596850
DK 6786 EF;Birthesminde Salg ApS;Tempelvej 14;Vipperød;4390;55.6722210;11.7750520
DK 6787 EF;Frokostplus;Lilleringvej 14 A;Harlev;8462;56.1510220;9.9940460
DK 6789 EF;Panenka;Frederiksgade 35, st;Aarhus;8000;56.1552920;10.2053430
DK 6790 EF;Per Aarsleff, Autoriseret;Hasselager Allé 5;Viby;8260;56.1103500;10.1190200
DK 6791 EF;L 120 Linette;Havnegade 62;Thyborøn;7680;56.7017570;8.2160600
DK 6792 EF;Reduced ApS;Kattegatvej 45;Nordhavn;2150;55.7220360;12.6068040
DK 6794 EF;Korslund;Randersvej 5;Rønde;8410;56.3158580;10.4256260
DK 6795 EF;Just Seafood ApS;Kai Lindbergs Gade 44;Hanstholm;7730;57.1201920;8.6021190
DK 6795 EF;Just Seafood ApS;Kai Lindbergs Gade 41;Hanstholm;7730;57.1199920;8.6024820
DK 6796 EF;Mezina A/S, Kosttilskud;Energivej 4;Esbjerg;6700;55.4650720;8.4988950
DK 6797 EF;BIOSYM A/S;Lene Haus Vej 25;Ikast;7430;56.1170020;9.1456460
DK 6798 EF;Kokærgård Ægpakkeri;Kokærvej 90;Christiansfeld;6070;55.3190450;9.4651790
DK 6799 EF;IFT Denmark ApS, Stade 2028;Litauen Alle 13 2028;Taastrup;2630;55.6522136;12.2920490
DK 6801 EF;Eskeholm, Ægpakkeri;Mellerup Bygade 2;Bolderslev;6392;55.0060150;9.3016380
DK 6802 EF;JK SALATER & DRESSINGER APS;Slagterboderne 25;København;1716;55.6686480;12.5593420
DK 6803 EF;DeViKa Kantinen Snorrebakken;Snorrebakken 66;Rønne;3700;55.1082570;14.7450730
DK 6804 EF;Lille Dyrgaard Madhus & Gårdbutik;Ogstrupgårdsvej 13B;Hjortshøj;8530;56.3194620;10.2155010
DK 6806 EF;Det Gode Køkken;Vesterbo 2;Holstebro;7500;56.3613860;8.6099190
DK 6807 EF;Smagssans A/S;Vibeholms Allé 20;Brøndby;2605;55.6656050;12.4192180
DK 6809 EF;Fjord Logistics ApS;Industrivej 26B;Padborg;6330;54.8369120;9.3441780
DK 6810 EF;NA Halal Food ApS - OPHØRT, Slagteri;Månevej 7;Slangerup;3550;55.8458440;12.1948260
DK 6810 EF;Meat & More ApS, Slagteri;Månevej 7;Slangerup;3550;55.8458440;12.1948260
DK 6811 EF;Hedensted Kommune, Kantinen;Niels Espes Vej 8;Hedensted;8722;55.7677740;9.6970060
DK 6812 EF;B. Lunch ApS Køkken;Betonvej 10;Roskilde;4000;55.6452770;12.1248790
DK 6813 EF;Saxenhøj Cafeteria;Nørrevang 24;Sakskøbing;4990;54.8033450;11.6290210
DK 6814 EF;Hedensted Kommune, Kantine i Juelsminde;Tofteskovvej 4;Juelsminde;7130;55.7086120;9.9883090
DK 6815 EF;The Cantina Skødstrup;Skovlundvej 12;Skødstrup;8541;56.2504040;10.3179819
DK 6816 EF;DII Bakketoppen;Bjørnshøjvej 1C;Trige;8380;56.2527230;10.1501440
DK 6817 EF;Ældrecenter, Sydvestvej, modtagerkøkken;Sydvestvej 10;Glostrup;2600;55.6635590;12.3951390
DK 6818 EF;Fribo Holte, Centralkøkken - Cafe;Borgm.Schneiders Vej 38;Holte;2840;55.8125143;12.4687513
DK 6819 EF;Den rullende Slagter, slagteri;Bispevej 10;Farsø;9640;56.7219350;9.2568160
DK 6820 EF;HB Import ApS;Paul Bergsøes Vej 47;Glostrup;2600;55.6724960;12.4198980
DK 6821 EF;OK-Centret Dronning Anne Marie, Køkken;Solbjerg Have 7;Frederiksberg;2000;55.6829250;12.5077610
DK 6822 EF;Natoora Denmark ApS;Færgehavnsvej 36;Nordhavn;2150;55.7187470;12.5990000
DK 6823 EF;SMG Øko;Guldalderen 28A;Hedehusene;2640;55.6514790;12.1762290
DK 6826 EF;GMPACK ApS;Plastvænget 9;Hadsund;9560;56.7298790;10.0985630
DK 6827 EF;EMBORG CATERING Aps;Vardevej 1;Aalborg;9220;57.0233850;9.9741370
DK 6828 EF;DFDS Køletransport A/S Herning;Hedelandsvej 18;Herning;7400;56.1261200;8.9348730
DK 6829 EF;Arla Foods amba;Ravnevej 4;Esbjerg;6705;55.4876740;8.4791290
DK 6830 EF;Lactalis Danmark A/S;Industrivej 14-25;Skævinge;3320;55.9056000;12.1568901
DK 6831 EF;Polaris Center Herning, Café Bøg;Skovvænget 2  A;Herning;7400;56.1352050;8.9423810
DK 6832 EF;Slagterbob ApS;Industrigrenen 21;Ishøj;2635;55.6210340;12.3293340
DK 6833 EF;Gastronomiet ApS;Smedeland 30;Glostrup;2600;55.6814660;12.3934460
DK 6835 EF;Edderup Slagteri ApS, Slagteri;Havndalvej 44;Mariager;9550;56.6488150;10.0503410
DK 6840 EF;Den Gamle Gaard Ægpakkeri;Sorøvej 106;Ugerløse;4350;55.5674530;11.6436350
DK 6841 EF;All Food ApS;Suså Landevej 29;Herlufmagle;4160;55.2938420;11.7558340
DK 6846 EF;Dellen;Jydekrogen 1;Vallensbæk;2625;55.6443310;12.3740190
DK 6848 EF;FiskeLogistik Gruppen;Havnen 4;Køge;4600;55.4550180;12.1894140
DK 6849 EF;Marias Deli;Thrigesvej 27, 1.;Ikast;7430;56.1226597;9.1424157
DK 6849 EF;Maria´s Deli;Thrigesvej 27;Ikast;7430;56.1203870;9.1410410
DK 6851 EF;Hos Truberg;Solstien 1;Gudhjem;3760;55.2057980;14.9682340
DK 6852 EF;Daginstitution Torsted, Eventyrbakken;Østerhåbsalle 2;Horsens;8700;55.8525820;9.7954070
DK 6853 EF;MAGNATUM APS;Hammerholmen 39J;Hvidovre;2650;55.6073070;12.4846580
DK 6857 EF;Persano Group A/S;Skaaremosevej 11-14;Græsted;3230;56.0631535;12.2843814
DK 6858 EF;Møllehusets produktionskøkken;Edith Rodes Vej 11;København;2200;55.6937250;12.5589320
DK 6859 EF;The Catering Kitchen;Klampenborgvej 52, Klampenborg galopbane;Klampenborg;2930;55.7707590;12.5672240
DK 6860 EF;Trustrupgaard Ægpakkeri;Lykkesholmvej 2 A;Trustrup;8570;56.3477520;10.7737270
DK 6862 EF;Familiekøkkenet;Oust Møllevej 5;Randers;8920;56.4677560;9.9863860
DK 6868 EF;Sorrento Import ApS;Meterbuen 6-12 Byg 4F;Skovlunde;2740;55.7193538;12.3962329
DK 6869 EF;DDLs kantine hos AU Herning;Birk Centerpark 15, Birk;Herning;7400;56.1294350;9.0271100
DK 6870 EF;Tarup Gamle Mejeri ApS;Thulevej 6;Odense;5210;55.4140020;10.3467620
DK 6871 EF;Måltidsboxen 2022 A/S;Asgårdsvej 5;Grindsted;7200;55.7570833;8.9277576
DK 6872 EF;Gate Gourmet;Kystvejen 42;Kastrup;2770;55.6135870;12.6764160
DK 6873 EF;FREDERIKSBJERG & LANGENÆS Sundheds- og Kulturcenter, Café Frederik;Ankersgade 21;Aarhus;8000;56.1478000;10.1903320
DK 6874 EF;Søndergård;Rengevej 6;Store Heddinge;4660;55.2864510;12.4010360
DK 6876 EF;TEK Food ApS, Stade 2021 & 2022;Litauen Alle 13;Taastrup;2630;55.6421550;12.2455520
DK 6877 EF;Den Selvejende Institution Hareskovbo;Skovalleen 8;Bagsværd;2880;55.7669720;12.4456570
DK 6878 EF;Durlevs GourMæt;Stensmosevej 15;Albertslund;2620;55.6683120;12.3583740
DK 6879 EF;RI 344 Christina;Stormgade 8;Hvide Sande;6960;55.9996350;8.1261650
DK 6880 EF;Børneby Langenæs, Centralkøkkenet Langenæsstien;Langenæsstien 8B;Aarhus;8000;56.1440180;10.1825900
DK 6882 EF;Bornholmslinjen Lager;Finlandsvej 5;Rønne;3700;55.0987480;14.6902160
DK 6883 EF;Food Story ApS;Norgesvej 49 B;Haderslev;6100;55.2641750;9.4818930
DK 6884 EF;Bondens;Hovedvejen 126;Præstø;4720;55.0972370;11.9606740
DK 6885 EF;Biomega Denmark A/S;Willemoesvej 26;Hirtshals;9850;57.5913180;9.9875980
DK 6886 EF;Jægersprislejren;Hovedgaden 71;Jægerspris;3630;55.8553820;11.9915090
DK 6888 EF;Thy Slagtehus ApS, Slagteri;Høgevej 3;Thisted;7700;56.9686530;8.7396240
DK 6889 EF;Smag godt ApS;Center Boulevard 4;København;2300;55.6393770;12.5748170
DK 6892 EF;Larsen Fine Food vest;Vejlevej 357 D;Kolding;6000;55.5278540;9.4641220
DK 6894 EF;Kødkrogen;Gunnar Clausens Vej 13A, st;Viby;8260;56.1107570;10.1355450
DK 6895 EF;Madkastellet Kantiner ApS;Kay Fiskers Plads 22;København;2300;55.6306860;12.5805520
DK 6896 EF;Vendsyssel Fjerkræslagteri ApS, Engros;Lyngbyvej 120;Løkken;9480;57.4013900;9.7600620
DK 6897 EF;Køkkenproduktion NOUH;Servicebyen 95 13;Odense;5260;55.3564204;10.4266130
DK 6898 EF;FORSORGSHJEMMET DALHOFFSMINDE;Dalhoffsmindevej 3;Haderslev;6100;55.1753730;9.4598450
DK 6900 EF;Eat Event, Amager;Amager Landevej 119;Kastrup;2770;55.6293250;12.6232330
DK 6900 EF;CPH Kitchen;Amager Landevej 119;Kastrup;2770;55.6293250;12.6232330
DK 6901 EF;FE Catering / Claudias;Blegdamsvej 23;København;2100;55.6976010;12.5730370
DK 6902 EF;CABAS Køkken Højvangen;Højvangen 11;Espergærde;3060;55.9926460;12.5305890
DK 6903 EF;Crone Catering ApS;Vølundsvej 2;Hillerød;3400;55.9325140;12.2743110
DK 6904 EF;Robert Mouritsen;Kollevej 25;Nørre Nebel;6830;55.7739800;8.2999950
DK 6905 EF;Markersen ApS;Falkevej 3;Hillerød;3400;55.9474630;12.2618280
DK 6906 EF;MOS Madhus;Grynderupvejen 2;Nørager;9610;56.7019500;9.6449570
DK 6908 EF;Sørensen Seafood A/S;Auktionsgade 1;Hanstholm;7730;57.1191180;8.5984440
DK 6912 EF;Hija de Sanchez Production Kitchen;Hamborg Plads 7, Stuen;Nordhavn;2150;55.7078220;12.5972730
DK 6913 EF;Holsted Kød Aps, engros;Energivej 22;Holsted;6670;55.5227390;8.9106200
DK 6916 EF;Nordic Food Service;Andkærvej 19, A;Vejle;7100;55.6753718;9.5814385
DK 6918 EF;Åsevangsgården, Ægpakkeri;Åsevangsvej 74;Asnæs;4550;55.8345060;11.5061540
DK 6921 EF;NATUPHARMA A/S;Sorøvej 26;Ruds Vedby;4291;55.5398510;11.3880500
DK 6921 EF;Natupharma A/S;Sorøvej 89-91;Slagelse;4200;55.4088082;11.3728678
DK 6922 EF;SC Food ApS;Seggelund Hovedvej 2;Christiansfeld;6070;55.3427550;9.4864440
DK 6924 EF;Lin´s Trading ApS, A&K Foodservice;Prangervej 105;Fredericia;7000;55.5626960;9.7227870
DK 6925 EF;Rødkærsbro;Århusvej 1;Rødkærsbro;8840;56.3486360;9.5052560
DK 6926 EF;FiskeLogistk Gruppen;Slagelse Landevej 131;Vemmelev;4241;55.3658560;11.2723160
DK 6927 EF;Dagtilbud, Børnebåndet, Dr. Alexandrines børnehave;Fuglesangs Alle 16;Aarhus;8210;56.1626580;10.1813200
DK 6929 EF;Hallernes Smørrebrød, Hovedkontor;Staldgade 34;København;1699;55.6679170;12.5627950
DK 6929 EF;Hallernes smørrebrød;Georg Brandes Plads 2K;København;1307;55.6875553;12.5800598
DK 6930 EF;NEWREST INFLIGHT LOGISTICS DENMARK A/S;A.P. Møllers Allé 65;Dragør;2791;55.6062300;12.6607500
DK 6932 EF;PBE Foods ApS;Lundevej 7;Tune;4030;55.5973130;12.1896630
DK 6933 EF;Dabba Kanteen;Filmbyen 11A, st;Aarhus;8000;56.1502800;10.2133260
DK 6934 EF;Venmark Fisk A/S;Bådehavnsgade 48;København;2450;55.6392340;12.5398250
DK 6935 EF;Sønderborg Catering;Coriolisvej 1;Sønderborg;6400;54.9235960;9.7446760
DK 6937 EF;Børnehuset Børneliv;Klokkervej 53;Aarhus;8210;56.1606260;10.1554420
DK 6938 EF;JemoPharm A/S, Kosttilskud;Hasselvej 1;Stege;4780;54.9988650;12.2857680
DK 6940 EF;BM FOOD ApS;Hørskætten 20;Taastrup;2630;55.6630420;12.3003520
DK 6941 EF;Produktionskøkken Nakskov;Helgenæsvej 10;Nakskov;4900;54.8429780;11.1219680
DK 6942 EF;Kantinen 3.sal;Stamholmen 110, 3;Hvidovre;2650;55.6131076;12.4594750
DK 6943 EF;DDLs kantine hos Alsion;Alsion 2;Sønderborg;6400;54.9130420;9.7789620
DK 6944 EF;TECHCOLLEGE, Kantinen Rørdalsvej (Skolehjemskantine);Rørdalsvej 10;Aalborg;9000;57.0511660;9.9640700
DK 6946 EF;Børnehaven Tumlehøj;Ågade 14;Brande;7330;55.9408520;9.1214500
DK 6947 EF;THYBORØN STEVEDORE A/S;Langholmkaj 2;Thyborøn;7680;56.6948640;8.2210650
DK 6948 EF;Sundhedshuset Rehabilitering, Centralkøkken;Birkedalsvej 35A;Helsingør;3000;56.0193960;12.5691120
DK 6951 EF;Mad Glad ApS / Ricewood Kantine;Skanderborgvej 277;Viby;8260;56.1170910;10.1412800
DK 6952 EF;Hotherhavens Køkken;Præstemarken 76;Hårlev;4652;55.3499860;12.2398140
DK 6954 EF;Dm Æg I/S;Vejlebyvej 19;Rødby;4970;54.7489500;11.3390220
DK 6955 EF;colorboxfood ApS;Vangedevej 142C;Dyssegård;2870;55.7387670;12.5221620
DK 6956 EF;Hao Trading Aps, Lager;Nordholmen 2;Hvidovre;2650;55.6122540;12.4697870
DK 6957 EF;Louise´s Catering - Lunch ApS;Odinsvej 6;Ringkøbing;6950;56.0897080;8.2826690
DK 6958 EF;Montebello Plejehjem, Cafeteria;Gurrevej 92B;Helsingør;3000;56.0322140;12.5852210
DK 6959 EF;Bornholms Hospital, Køkkenet;Ullasvej 25;Rønne;3700;55.0924529;14.7084592
DK 6960 EF;JN Catering ApS;Logistikvej 25B;Odense;5250;55.3663910;10.3123540
DK 6961 EF;Frk-Laura - Foodproduction & Delikatesse;Søndergade 19G;Galten;8464;56.1525370;9.9040210
DK 6962 EF;Skovstjernen Centralkøkken;Tove Ditlevsens Vej 4;Grenaa;8500;56.4070240;10.8981350
DK 6963 EF;Posthaven, Trænings center Posthavens Café;Posthaven 48;Grenaa;8500;56.4126130;10.8722730
DK 6964 EF;Rømø Rejer ApS;Slippen 2;Rømø;6792;55.0874370;8.5646970
DK 6969 EF;RI 317 Nordlys;Stormgade 8, 1 th;Hvide Sande;6960;55.9996350;8.1261650
DK 6970 EF;Nagel Liller A/S;Nimvej 2;Vejle;7120;55.7494940;9.6035240
DK 6971 EF;Abildskærgård;Abildskærvej 2;Rødding;6630;55.3319880;8.9195300
DK 6972 EF;Dabba Kanteen, Atletion;Stadion Allé 70;Aarhus;8000;56.1321770;10.1937400
DK 6974 EF;Danfoods ApS;Industrivej Syd 1B;Herning;7400;56.1329820;9.0438590
DK 6975 EF;Madværftet 2;Olof Palmes Allé 25;Aarhus;8200;56.1879730;10.1870740
DK 6976 EF;N C NIELSEN BALLING A/S;Nørregade 66;Spøttrup;7860;56.6228140;8.8817820
DK 6977 EF;Specialenheden;Sverigesvej 3;Hadsund;9560;56.7379070;10.1049370
DK 6979 EF;HARALD IVERSEN & SØN A/S, Frostlager;Havnegade 15;Thyborøn;7680;56.7031770;8.2214920
DK 6980 EF;1920 ApS;Lille Strandstræde 14B, kl.;København;1254;55.6808870;12.5901880
DK 6981 EF;Kronehøj;Thygesminde Allé 3;Fredericia;7000;55.5698000;9.7032030
DK 6982 EF;Bøgeskovhus;Skovlundgårdsvej 51;Viby;8260;56.1241930;10.1298060
DK 6983 EF;Nagel Liller A/S;Jordemodervej 40;Ringsted;4100;55.4624060;11.8412950
DK 6984 EF;Madhosmads Produktion;Helge Nielsens Alle 2;Løsning;8723;55.8026070;9.6779240
DK 6985 EF;Daginstitution Lund;Silkeborgvej 145;Horsens;8700;55.8910050;9.7730050
DK 6987 EF;Lisbjergskolen - Kantine;Jørgen Clevins Gade 31;Aarhus;8200;56.2186340;10.1579480
DK 6988 EF;Sands Mad ApS;Telefonvej 6;Søborg;2860;55.7396070;12.4923950
DK 6990 EF;EK CAFéEN ApS;Hadsundvej 180 A;Aalborg;9000;57.0260250;9.9586300
DK 6991 EF;Selected Car Collection;Stensgårdvej 11;Middelfart;5500;55.5100040;9.7768360
DK 6993 EF;Frokost Kompagniet ApS;Værkstedsgården 13, st;Albertslund;2620;55.6631884;12.3431803
DK 6994 EF;Dagtilbud Bankager;Østerhåbsalle 1;Horsens;8700;55.8525780;9.7981470
DK 6995 EF;FoodDrop ApS;Helgeshøj Alle 20;Taastrup;2630;55.6626640;12.2911060
DK 6996 EF;Center for Rehabilitering og Akutpleje - Kirsebær;Kirsebærhaven 20;Valby;2500;55.6494740;12.5012910
DK 6998 EF;Skagen Salmon Partnerselskab;Buttervej 49;Skagen;9990;57.7393430;10.5658950
DK 6999 EF;Novasel EU ApS;Skårup Tværvej 11;Skårup;5881;55.0678500;10.6900660
DK 7 EF;LL COLD ApS;Havnevagtvej 4;Skagen;9990;57.7212010;10.5965390
DK 7003 EF;DANÆG A/S;Danægvej 1;Christiansfeld;6070;55.3628960;9.4885920
DK 7003 EF;La Brava Gastronomi ApS;Sønderskovvej 14;Hørning;8362;56.0788520;10.0275460
DK 7010 EF;DDL´s kantine hos NEXT Glostrup;Fabriksparken 31;Glostrup;2600;55.6839530;12.3787580
DK 7011 EF;Stars DK ApS;Jens Munksvej 4;Hirtshals;9850;57.5908380;9.9825920
DK 7012 EF;Blue Water Shipping A/S;Oceanvej 11;Aarhus;8000;56.1458610;10.2381530
DK 7013 EF;Violskrænten Produktionskøkken;Violskrænten 13;Grenaa;8500;56.4171450;10.8721670
DK 7014 EF;Pio Pharm Denmark ApS;Unovej 1;Hundested;3390;55.9617730;11.8885870
DK 7015 EF;Thai Fresh Import/Eksport ApS, Stade 2027;Litauen Alle 13;Taastrup;2630;55.6421550;12.2455520
DK 7016 EF;Ophørt, Evenues Food Forum ApS;Julius Thomsens Plads 1;Frederiksberg;1925;55.6811000;12.5528440
DK 7016 EF;Essens&Co by Evenues;Bernstorffsvej 20A;Hellerup;2900;55.7267180;12.5557240
DK 7019 EF;Plejecenter Digterparken , Produktionskøkken;Tove Ditlevsen Vej 2;Grenaa;8500;56.4134419;10.8793137
DK 7020 EF;Noodle Masters - Centralkøkken;Ellebjergvej 50-52;København;2450;55.6502205;12.5251248
DK 7022 EF;Nørgaards Gedemejeri;Bøgelyvej 14;Videbæk;6920;56.0666980;8.6784770
DK 7024 EF;Nørbygaard økologi I/S, Ægpakkeri;Roostvej 4;Løgumkloster;6240;55.1139580;8.9903450
DK 7025 EF;Renès Køkken;Ørstedsvej 11;Skanderborg;8660;56.0728420;9.9857090
DK 7026 EF;DELICATE A/S;Greve Main 12;Greve;2670;55.5833310;12.2506100
DK 7027 EF;HM 227 MYGGENES;Havnegade 26;Thyborøn;7680;56.7040830;8.2207670
DK 7028 EF;All about Fish;Sirvej 51;Holstebro;7500;56.4049040;8.5916680
DK 7029 EF;Steensgaard Ost;Steensgaard 3;Millinge;5642;55.1405100;10.1840320
DK 7031 EF;Samsø Køkken;Sygehusvej 26;Samsø;8305;55.8306460;10.5911690
DK 7032 EF;Tranbjergskolen afdeling Grønløkke Alle;Grønløkke Allé 9;Tranbjerg;8310;56.0941760;10.1245310
DK 7033 EF;VD_Teglgårdsparken 102 v/ISS FACILITY SERVICES A/S;Teglgårdsparken 102;Middelfart;5500;55.4981790;9.7241030
DK 7034 EF;Simply Cooking A/S - Fredericia Idrætscenter;Vestre Ringvej 100;Fredericia;7000;55.5769300;9.7274840
DK 7035 EF;Dabba Kanteen Skøjtehallen;Gøteborg Allé, Christiansbjerg 9, 1;Aarhus;8200;56.1836055;10.1916376
DK 7036 EF;Dalsgaard og Barsøe Agro I/S, Slagteri;Kabdrupvej 49;Haderslev;6100;55.3072910;9.5410890
DK 7036 EF;Dalsgaard og Barsøe I/S, Slagteri;Kabdrupvej 49;Haderslev;6100;55.3072910;9.5410890
DK 7037 EF;Italfw ApS;Svejsegangen 3;Karlslunde;2690;55.5726240;12.2400760
DK 7038 EF;SERWIZ Kansas;Østerbro 3;Odense;5000;55.4020630;10.4037020
DK 7039 EF;Smagssans A/S, Kantine;Stationsparken 37;Glostrup;2600;55.6612130;12.3915510
DK 7040 EF;Teddys kantine aps;Ørnegårdsvej 16;Gentofte;2820;55.7588160;12.5198440
DK 7041 EF;Chefmania;Slagtehusgade 36, 1;København;1715;55.6690424;12.5604129
DK 7043 EF;Jysk Firmafrugt;Vestermarksvej 38, Kliplev;Aabenraa;6200;54.9359440;9.3881200
DK 7045 EF;CARL J. NIELSEN A/S;Nyholmsvej 16;Randers;8930;56.4710700;10.0819140
DK 7046 EF;Forsyningskøkkenet Skovvang;Abildgade 9;Aarhus;8200;56.1772830;10.2077710
DK 7047 EF;Limfjords hummer fisk og skaldyr;Dornen 6;Stoholm Jyll;7850;56.4876210;9.1531180
DK 7049 EF;DD CPH ApS;Københavns Lufthavn Syd, Kompasrosevej 6;Dragør;2791;55.5924870;12.6719953
DK 7050 EF;Filetfabrikken Hanstholm 2 ApS;Kai Lindbergs Gade 22;Hanstholm;7730;57.1219600;8.6074060
DK 7053 EF;Mad-Symfonien ApS;Viborgvej 13;Holstebro;7500;56.3593600;8.6318740
DK 7054 EF;European Freeze Dry Aps;Hovedgaden 2A;Skibby;4050;55.7601470;11.9567590
DK 7055 EF;GB MEAT GROUP  Hadsund;Gl Visborgvej 51;Hadsund;9560;56.7299310;10.1146230
DK 7056 EF;Fællesskaberne Skb Pensionatet Skanderborg Øst;Kildevej 14 K;Skanderborg;8660;56.0407370;9.9446020
DK 7057 EF;Gravlund Øko Æg, Ægpakkeri;Baungårdsvej 65;Vejen;6600;55.4851820;9.1239730
DK 7058 EF;Mark Andersen;Præstegårdsvej 9;Gredstedbro;6771;55.4166260;8.7931830
DK 7059 EF;RønhaveSlagteren v/ Sune Hansen;Hestehave 24;Sønderborg;6400;54.9522980;9.7706110
DK 7060 EF;Kantinebistro ApS;Frydenlundsvej 30;Vedbæk;2950;55.8374730;12.5610880
DK 7063 EF;LD consulting;Havnevej 11;Frederiksværk;3300;55.9711110;12.0147440
DK 7064 EF;Sydbank Arena v Jespers Torvekøkken;Ambolten 2;Kolding;6000;55.4643310;9.4758220
DK 7065 EF;Kompetencecentret (EUC);Plantagevej 35;Tønder;6270;54.9393250;8.8563330
DK 7066 EF;Middelfart Sygehus, Køkkenet;Østre Hougvej 55;Middelfart;5500;55.4966670;9.7386820
DK 7067 EF;Steensgaard Produktion;Steensgaard 3;Millinge;5642;55.1405100;10.1840320
DK 7070 EF;Fishmaster Engros ApS;Lihmevej 5;Randbøl;7183;55.6957400;9.2809970
DK 7072 EF;Multimarketing Food & Packaging;Åvænget 9;Ansager;6823;55.7069850;8.7486880
DK 7073 EF;Sult Engros;Gunnar Clausens Vej 13A;Viby;8260;56.1107570;10.1355450
DK 7074 EF;Insula Fersk Fisk A/S;Rundageren 2A;Hedehusene;2640;55.6515450;12.2098590
DK 7075 EF;Hos Nielsen;Rosentorvet 10;Roskilde;4000;55.7371130;12.1490640
DK 7077 EF;Skrillinge Strand Bundgarnsfiskeri;Skrillinge Strand 22;Middelfart;5500;55.4830910;9.7357830
DK 7080 EF;DEN SELVEJ INST SØNDERVANG;Nyelandsvej 87;Frederiksberg;2000;55.6851460;12.5198880
DK 7082 EF;Arla Foods Distribution A/S, Hobro;Skivevej 39;Hobro;9500;56.6370310;9.7786420
DK 7084 EF;BistroNord A/S, Kantinen Port of Aalborg;Langerak 19;Aalborg;9220;57.0477670;10.0499550
DK 7085 EF;Dabba KBH A/S;Emdrupvej 26;København;2100;55.7190320;12.5525750
DK 7086 EF;DDLs kantine hos UC Syd Aabenraa;Campusalle 20;Aabenraa;6200;55.0436480;9.4059090
DK 7087 EF;DDLs kantine hos UC Syd Haderslev;Lembckesvej 7A, st;Haderslev;6100;55.2556080;9.4853260
DK 7088 EF;Stenbideren APS / Hjulspinderen;Flyvepladsen 10;Padborg;6330;54.8710810;9.2773740
DK 7089 EF;Nicolas Cuisine;Kongelundsvej 36, st;København;2300;55.6399250;12.5887580
DK 7090 EF;Gastronomi Expressen;Toftebakken 9B;Birkerød;3460;55.8397000;12.4400820
DK 7091 EF;Hedelykke Græsæg, Ægpakkeri;Grindstedvej 80;Vandel;7184;55.7211640;9.1649070
DK 7092 EF;Vildtkøkken og Slagteri, Slagteri;Industrivej 24 K, stue;Slangerup;3550;55.8477830;12.1908580
DK 7093 EF;Gastroværket ApS;Lyøvej 8 A;Haderslev;6100;55.2431300;9.5362530
DK 7094 EF;Stæremosegård, Ægpakkeri;Tornebjergvej 22;Rødvig Stevns;4673;55.2753890;12.3478160
DK 7095 EF;Ambar Food ApS;Smedeland 24;Glostrup;2600;55.6808220;12.3906670
DK 7096 EF;Fyns GræsÆg;Snarupvejen 24;Ringe;5750;55.1803350;10.4405230
DK 7100 EF;Scandic Salmon A/S, Thyborøn;Sydhalevej 2;Thyborøn;7680;56.7014690;8.2168210
DK 7101 EF;SKAT_Parallelvej 11 v/ISS FACILITY SERVICES A/S;Parallelvej 11;Hjørring;9800;57.4569050;9.9894480
DK 7102 EF;DDL´s kantine hos NEXT Sukkertoppen;Carl Jacobsens Vej 25;Valby;2500;55.6543380;12.5157460
DK 7103 EF;BO-INSTITUTIONEN BIRKEBAKKEN;Hejredalsvej 144;Brabrand;8220;56.1538313;10.1176565
DK 7104 EF;BDK_Godsbanevej 2 v/ISS FACILITY SERVICES A/S;Godsbanevej 2;Ringsted;4100;55.4374880;11.7899360
DK 7105 EF;Tingbjerghjemmet, Centralkøkken;Midtfløjene 1;Brønshøj;2700;55.7204830;12.4817330
DK 7107 EF;Fra Kæret;Emmelev Kærvej 5;Grenaa;8500;56.4715650;10.7969300
DK 7108 EF;Brøndby Stadion v/Jespers Torvekøkken ApS;Brøndby Stadion 28;Brøndby;2605;55.6484010;12.4198440
DK 7109 EF;SKAT_Sorsigvej 35, v/ISS FACILITY SERVICES A/S;Sorsigvej 35;Ribe;6760;55.3520360;8.7876180
DK 711 EF;Danpo A/S, Danpo A/S;Vestre Skovvej 3;Aars;9600;56.8006380;9.4922970
DK 7111 EF;Scandic Salmon A/S;Langholmkaj 2;Thyborøn;7680;56.6948640;8.2210650
DK 7113 EF;Centralkøkkenet Elme Allé;Elme Alle 6;Auning;8963;56.4284710;10.3734960
DK 7114 EF;Farsøhthus Ældrecenter;I P Farsøhts Alle 4;Allingåbro;8961;56.4648830;10.3224710
DK 7115 EF;Ahaaa Engros ApS;Rugvænget 46;Taastrup;2630;55.6496920;12.2867260
DK 7116 EF;Dansk Farmaceutisk Industri A/S, Kosttilskud;Dam Enge 4;Stenløse;3660;55.7742050;12.2001720
DK 7117 EF;Kraghøjgaard Gårdbutik, Engros Frost Lager;Høgevej 3;Thisted;7700;56.9686530;8.7396240
DK 7118 EF;Strandcentret, Centralkøkkenet;Frydenhøj Alle 100;Greve;2670;55.5969010;12.3339310
DK 7119 EF;Plejecenter Solgården;Aggersundvej 31;Fjerritslev;9690;57.0821290;9.2645040
DK 7121 EF;Norlax A/S;Gartnervænget 31;Outrup;6855;55.7140370;8.3482670
DK 7122 EF;Kostområde Struer Kommune;Anlægsvej 8;Struer;7600;56.4904220;8.5905540
DK 7123 EF;La Petite Ferme I/S;Hulgaden 17;Ebeltoft;8400;56.2682640;10.7704180
DK 7124 EF;OPHØRT Fest-Best;Viborgvej 792A;Sabro;8471;56.2145360;10.0053660
DK 7125 EF;THAI FOOD IMPORT;Litauen Alle 13;Taastrup;2630;55.6421550;12.2455520
DK 7126 EF;Tripple Food ApS, Stade 2019;Litauen Alle 13;Taastrup;2630;55.6421550;12.2455520
DK 7128 EF;Den Gamle Slagter v/M. Vangsgaard,  Engros;Vestergade 74;Thisted;7700;57.0924110;8.9806180
DK 7129 EF;Danske Andeæg;Møllevej 3;Jerslev Sjælland;4490;55.6194820;11.2173130
DK 7131 EF;Vindelevgård gårdbutik, Ægpakkeri;Vindelevvej 7;Jelling;7300;55.7953140;9.4898720
DK 7132 EF;Møllens Køkken Væddeløbsbanen;Observatorievejen 2;Aarhus;8000;56.1287510;10.1949000
DK 7134 EF;Fipros A/S;Sinaivej 16;Broby;5672;55.1975200;10.3139210
DK 7135 EF;TREATMENT PHARMA ApS;Ove Jensens Alle 35K;Horsens;8700;55.8542210;9.8676430
DK 7137 EF;Tayyib food Lager;Tonsbakken 3;Skovlunde;2740;55.7118340;12.4236320
DK 7138 EF;DinnerdeLuxe Rebild;Rådyret 1;Støvring;9530;56.8914830;9.8457640
DK 7139 EF;Mørsons Færdigretter ApS;Kronborgvej 1;Helsingør;3000;56.0389040;12.6161350
DK 7140 EF;DinnerdeLuxe Hammel;Industrivej 6A;Hammel;8450;56.2522860;9.8581500
DK 7141 EF;KJØ ApS;Vestergade 3;Nordborg;6430;54.9889330;9.8642940
DK 7142 EF;WERNER LARSSON FISKEEKSPORT A/S;Ellehammervej 12;Skagen;9990;57.7348250;10.5740190
DK 7143 EF;Madværk ApS;Erhvervsvej 17, 2;Glostrup;2600;55.6976591;12.4268348
DK 7144 EF;Center for Rehabilitering og Forebyggelse, Hovedkøkken;Schioldannsvej 31;Charlottenlund;2920;55.7623420;12.5823380
DK 7145 EF;noon;Sundkaj 125;Nordhavn;2150;55.7092950;12.6004660
DK 7147 EF;Sundbusserne af 2010 A/S, Sundbussernes Køkken;Statshavnen Færgevej 24;Helsingør;3000;56.0348739;12.6130073
DK 7149 EF;CPH Food Network, Lager;Bådehavnsgade 48;København;2450;55.6392340;12.5398250
DK 7150 EF;Dagtilbud 5131 - Åbyhøj afd. Børnehuset Klokkervej;Klokkervej 38;Aarhus;8210;56.1614280;10.1585020
DK 7151 EF;Mums!;Alstrup Alle 4;Hasselager;8361;56.1042550;10.0947390
DK 7152 EF;Flex Kitchen ApS;Topstykket 25;Birkerød;3460;55.8342110;12.4060560
DK 7153 EF;Madplan Aps;Skejby Nordlandsvej 311;Aarhus;8200;56.2054400;10.1834140
DK 7154 EF;Center for Døve;Egebækvej 159;Nærum;2850;55.8259410;12.5456630
DK 7155 EF;Gastromani 2 ApS;Ørestads Boulevard 73;København;2300;55.6322490;12.5811760
DK 7156 EF;Fourfeldt Børnehus;Norddalsparken 34;Esbjerg;6710;55.4981750;8.4209640
DK 7158 EF;HOUSE OF WINDSOR ApS;Bådehavnsgade 48;København;2450;55.6392340;12.5398250
DK 7159 EF;Almega A/S;Sleipnersvej 23;Ringsted;4100;55.4242690;11.7928850
DK 7160 EF;By Kavsman Group;Stamholmen 140A;Hvidovre;2650;55.6137760;12.4718980
DK 7161 EF;Sæsonens Madleverandør ApS;Gummersmarkvej 7;Bjæverskov;4632;55.4519910;11.9975580
DK 7162 EF;Lemvig Centralkøkken;Nygade 14;Lemvig;7620;56.5464160;8.3113400
DK 7163 EF;SP Catering ApS;Farverland 4, st;Glostrup;2600;55.6812000;12.3835080
DK 7164 EF;ESPERIENZE Gianluca Barbisan;Middelfartvej 63H;Vissenbjerg;5492;55.3952400;10.1100200
DK 7165 EF;Dagtilbud Jerne-Spangsbjerg - Afd. Bydelens Børnehus;Stengårdsvej 313;Esbjerg;6705;55.4852490;8.4915280
DK 7166 EF;Aars Rådhus, Vesthimmerlands kommune;Vestre Boulevard 7;Aars;9600;56.7992630;9.5053790
DK 7167 EF;AAU Niels Bohrs Vej Esbjerg /Jespers torvekøkken;Niels Bohrs Vej 8;Esbjerg;6700;55.4912520;8.4460190
DK 7168 EF;Kotra Logistics Denmark A/S;Hermesvej 14;Padborg;6330;54.8253390;9.3381580
DK 7169 EF;Præstø Multicenter;Rosagervej 37;Præstø;4720;55.1162870;12.0464010
DK 7170 EF;Green Goddess ApS;Bøgekildevej 30N, R, P;Hasselager;8361;56.1034730;10.0836900
DK 7171 EF;Compass Group DK A/S 669410, Produktionskøkken;Avedøreholmen 96;Hvidovre;2650;55.6063720;12.4666490
DK 7172 EF;Compass Group DK A/S 669411 , FOOD & CO - Frokost køkken;Avedøreholmen 96;Hvidovre;2650;55.6063720;12.4666490
DK 7173 EF;Banh Mi Bandits Køkken Sintrupvej;Sintrupvej 71D;Brabrand;8220;56.1653920;10.0956310
DK 7174 EF;Taabbel Frost;Hamborgvej 2;Hanstholm;7730;57.1151220;8.6404330
DK 7175 EF;Det Sunde Køkken, Lyngby ApS;Lyngby Hovedgade 76;Kongens Lyngby;2800;55.7692530;12.5049360
DK 7176 EF;Maarager Gårdbutik (Ægpakkeri);Lyngby Torp 60;Løkken;9480;57.4048700;9.7768300
DK 7177 EF;Carbis Convenience World ApS;Kløvervej 71;Haderslev;6100;55.2359160;9.4988880
DK 7177 EF;CarBis Convenience Food ApS;Kløvervej 71;Haderslev;6100;55.2359160;9.4988880
DK 7178 EF;AB CATERING KØBENHAVN A/S;Ventrupvej 18A;Greve;2670;55.5928943;12.2619643
DK 7179 EF;Slagterens Gårdbutik, Slagteri;Gl. Viborgvej 86;Aalestrup;9620;56.6575960;9.5110210
DK 7180 EF;Organic Market Lager;Roskildevej 17;Havdrup;4622;55.5556870;12.1496420
DK 7181 EF;Rygeosten ApS;Industrivænget 14;Vemmelev;4241;55.3632610;11.2411560
DK 7182 EF;Ume Lager;Kirstinehøj 17;Kastrup;2770;55.6147940;12.6161910
DK 7183 EF;MAGNATUM APS;Nørre Farimagsgade 35, kl;København;1364;55.6833456;12.5664184
DK 7184 EF;Messecenter Herning, Hovedkøkkenet;Vardevej 1, 1;Herning;7400;56.1174793;8.9467726
DK 7185 EF;Jyske Bank Boxen;Kaj Zartows Vej 7;Herning;7400;56.1182060;8.9528800
DK 7186 EF;Loop kantiner;Bregnerødvej 124;Birkerød;3460;55.8391320;12.4051550
DK 7188 EF;BHS Logistics A/S;Egedesvej 40;Køge;4600;55.5106630;12.1562460
DK 7189 EF;Moughal Trading ApS;Mårkærvej 5;Taastrup;2630;55.6587840;12.2915850
DK 7190 EF;THAIFOOD IMPORT ApS;Litauen Alle 13;Taastrup;2630;55.6421550;12.2455520
DK 7191 EF;MARLI foods ApS;Herlev Hovedgade 102, st mf;Herlev;2730;55.7227400;12.4424790
DK 7192 EF;VKS.Aps Vildtkøkken.dk;Industrivej 24K;Slangerup;3550;55.8477830;12.1908580
DK 7193 EF;FS DK ApS;Hammerholmen 43B;Hvidovre;2650;55.6066020;12.4832450
DK 7194 EF;Johannesgården, Centralkøkken;Fuglsang Allé 103;Brønshøj;2700;55.6977190;12.4957780
DK 7195 EF;Copenhagen Dockside;Sundkrogskaj 17;København;2100;55.7124920;12.5904780
DK 7196 EF;Ambar Food Produktion;Bindeledet 16;Bagsværd;2880;55.7624290;12.4542430
DK 7197 EF;Chr. Hansen A/S, Application & Technology Center;Bøge Alle 10-12;Hørsholm;2970;55.8761745;12.4881025
DK 7198 EF;Hospitalsbyen, servicehuset, Produktionskøkken;Hospitalsbyen 22;Gistrup;9260;57.0133660;10.0021920
DK 7199 EF;OLE LARSEN TRANSPORT A/S;Greve Main 36;Greve;2670;55.5836210;12.2467760
DK 7200 EF;DSV Horsens v/ISS FACILITY SERVICES A/S;Mossvej 29;Horsens;8700;55.8851230;9.7509830
DK 7201 EF;LUva ApS;Værkstedvej 67, kld.;Valby;2500;55.6527970;12.5067770
DK 7202 EF;Baglokalet;Sundbyvestervej 60;København;2300;55.6463090;12.5989500
DK 7203 EF;Green Cretan ApS;Blomstervej 44;Tilst;8381;56.1849000;10.1364910
DK 7203 EF;Simply Pure;Bådehavnsgade 48;København;2450;55.6392340;12.5398250
DK 7204 EF;Jobigen Viborg, Kantine;Nørremarksvej 17;Viborg;8800;56.4747290;9.4007220
DK 7205 EF;HYTTELS RØGERI A/S;Rømøvej 2;Hjørring;9800;57.4510610;10.0193730
DK 7206 EF;Børnehuset Molevitten;Mallinggårdsvej 4;Malling;8340;56.0427810;10.2055080
DK 7207 EF;Deli Deluxe v/Poul Bilde Nielsen;Eskebæk Plads 6;Skanderborg;8660;56.0358930;9.9047840
DK 7208 EF;Bofællesskabet Inge Marie;Skansen 1;Ringsted;4100;55.4504990;11.8112670
DK 7209 EF;Fuli ApS;Gummersmarkvej 7A;Bjæverskov;4632;55.4516480;11.9983330
DK 7210 EF;HANEGAL A/S Syd;Niels Bohrs Vej 5;Haderslev;6100;55.2652940;9.5000930
DK 7211 EF;Aabenraa Slagteren ApS;Søndergade 9B;Aabenraa;6200;55.0416060;9.4194330
DK 7212 EF;Arla Foods Amba Hobro Mejericenter;Skivevej 43;Hobro;9500;56.6346980;9.7774200
DK 7213 EF;CENTRALRØGERIET A/S;Tingbjergvej 5;Bjæverskov;4632;55.4552230;12.0128280
DK 7215 EF;Den Bornholmske Gårdbutiks Leverandører;Bjergebakkevejen 2;Rønne;3700;55.1190060;14.8271160
DK 7217 EF;Frederiks Køkken;Islevbrovej 54;Rødovre;2610;55.7048890;12.4411380
DK 7218 EF;Neqi A/S, Slagteri;Fiskervej B 99, Postboks 69;Narsaq;3921;60.9127453;-46.0452698
DK 7220 EF;Jysk seafood , Engros;Peter Kaads Vej 2;Sønderborg;6400;54.9255750;9.8519850
DK 7221 EF;Best Transport Danmark ApS;Rugvænget 56;Taastrup;2630;55.6495740;12.2840090
DK 7222 EF;Varde Laks A/S;Snedkervej 2;Varde;6800;55.6071740;8.4985030
DK 7223 EF;WFS Cargocenter;Kystvejen 32;Kastrup;2770;55.6187550;12.6730230
DK 7224 EF;JP Dynasty ApS;Slagtehusgade 40, 1;København;1715;55.6690424;12.5604129
DK 7225 EF;Gastro 13 ApS;Ågade 32;Engesvang;7442;56.1661580;9.3471300
DK 7226 EF;Mejeriet ved fjorden;Sjoltevej 25;Tappernøje;4733;55.1665660;12.0259570
DK 7227 EF;Forenede Care A/S, Langagergård Plejecenter, Køkken;Karlslunde Parkvej 33, st.;Karlslunde;2690;55.5658240;12.2657990
DK 7228 EF;Far Sea Aps;Sløjfen 4, 4 tv;Frederiksberg;2000;55.6791720;12.5127250
DK 7229 EF;Norlin Wagyu ApS;Jenslevvej 50;Kirke Hyllinge;4070;55.6857240;11.8889650
DK 7231 EF;PENSIONATET KAMAGER;Brønderslev Alle 21;Kastrup;2770;55.6179450;12.6107460
DK 7232 EF;CHEF - MAD TIL DØREN ApS;Krakasvej 17;Hillerød;3400;55.9302080;12.2669860
DK 7234 EF;FGU Østjylland, Ryomgård;Vestergade 67;Ryomgård;8550;56.3818370;10.4901800
DK 7235 EF;OLE LARSEN TRANSPORT A/S;Holkebjergvej 100;Odense;5250;55.3594060;10.3309740
DK 7236 EF;BRDR. KJÆR ApS IMPORT & EXPORT, Stade 2008;Litauen Alle 13;Taastrup;2630;55.6421550;12.2455520
DK 7237 EF;Omfaun Landbrug, Ægpakkeri;Slotsgade 6;Dronninglund;9330;57.1582990;10.2983600
DK 7238 EF;Brodamgaard ægpakkeri;Brodam 5;Vodskov;9310;57.0778250;10.1345000
DK 7239 EF;Einar Christensens Fiskerøgeri;Pakkerivej 16;Aarhus;8000;56.1654930;10.2197480
DK 7240 EF;Æggepakkeriet Kiku;Næssundvej 488;Karby;7960;56.7521470;8.5515890
DK 7242 EF;Rønhøjgaard, Engros salg;Gunderupvej 26;Farsø;9640;56.8134160;9.2798550
DK 7243 EF;BJERREFISK A/S;Gyldendalsvej 4;Sæby;9300;57.3179930;10.4920600
DK 7243 EF;DAVA Foods Denmark A/S;Glerupvej 5;Hadsund;9560;56.7432450;10.0924530
DK 7244 EF;Meyers Contract Catering, BIF;Gammel Køge Landevej 43;Valby;2500;55.6584380;12.5147340
DK 7245 EF;Nøvling Gårdbutik;Blüchersvej 2;Vildbjerg;7480;56.1918150;8.8249560
DK 7246 EF;HG264 Signet;Park Alle 19;Hirtshals;9850;57.5774290;9.9672880
DK 7249 EF;Boys Import;Rosbjergvej 22R;Brabrand;8220;56.1553740;10.0650570
DK 7250 EF;Scandic Salmon Moeskjærvej;Moeskjærvej 2;Lemvig;7620;56.5615900;8.3419950
DK 7251 EF;Takryma;Vibevej 30;Ringsted;4100;55.4419010;11.8059550
DK 7252 EF;Interfood;Krogsgårdsvej 6;Kjellerup;8620;56.3211730;9.3341840
DK 7253 EF;Hoppes Cafe & Bar;Læderstræde 11A;København;1201;55.6780390;12.5780420
DK 7254 EF;samosa factory / desi food factory;Farverland 4;Glostrup;2600;55.6812000;12.3835080
DK 7255 EF;Nexø Fisk;Kuttervej 2;Nexø;3730;55.0591450;15.1352090
DK 7256 EF;DM Seafood ApS;Nordre Strandvej 62;Hanstholm;7730;57.1220550;8.6273440
DK 7257 EF;Produktionskøkken, Pendanten;Strandgade 25B;København;1401;55.6745700;12.5904410
DK 7259 EF;KALU A/S, Slagteri;Saltøvej 118;Næstved;4700;55.2466050;11.6512200
DK 7260 EF;KAJ MADSEN FJELSTRUP A/S;Venusvej 27;Kolding;6000;55.5442450;9.4544890
DK 7261 EF;DFDS Køletransport A/S;Industrivej 24;Bramming;6740;55.4659330;8.6833850
DK 7262 EF;FoodByRD;Danmarksvej 11;Løgstør;9670;56.9620370;9.2663730
DK 7263 EF;Maarten Damsteegt;Smedagervej 4;Tinglev;6360;54.9631350;9.1600390
DK 7265 EF;KAYAN ApS;Tinghøjvej 5;Ølstykke;3650;55.7639150;12.1399730
DK 7266 EF;Prime Ocean A/S;Østre Strandvej 16;Skagen;9990;57.7220830;10.5951860
DK 7267 EF;Euro Kitch;Frydenborgvej 27D, 1 1;Hillerød;3400;55.9499870;12.3088690
DK 7269 EF;Emilie Seafood ApS;Emilievej 13;Frederikshavn;9900;57.4356180;10.5278930
DK 7270 EF;Rojava Ost ApS;Ebstrupvej 58;Silkeborg;8600;56.2195460;9.5598240
DK 7271 EF;Tuttitalia;Fabriksparken 23;Glostrup;2600;55.6840410;12.3821700
DK 7272 EF;Butcher-CPH ApS;Kødboderne 7-9;København;1717;55.6662779;12.5580001
DK 7273 EF;Persano Group A/S;Knud Bro Alle 3;Stenløse;3660;55.7770810;12.1948650
DK 7274 EF;Mekong Lager;Røllikevej 7;Vodskov;9310;57.1024270;10.0279430
DK 7275 EF;Frokost.menu ApS;Industrivej 24K;Slangerup;3550;55.8477830;12.1908580
DK 7276 EF;Vejle Kommunes Kantine;Skolegade 1;Vejle;7100;55.7106810;9.5290560
DK 7277 EF;PEDERS FISK;Svenningsvej 3;Kirke Hyllinge;4070;55.6894800;11.8500620
DK 7279 EF;Græs-Æg Møn;Vindebækvej 17;Askeby;4792;54.8890930;12.1959610
DK 7280 EF;Bjergsted græs æg V Bertram Berntsen;Bjergstedvej 50;Jyderup;4450;55.6783020;11.3580620
DK 7284 EF;Niels Thams ApS;Geminivej 29;Greve;2670;55.6086900;12.3033330
DK 7308 EF;Dueholm Ægpakkeri;Hovedgårdvej 7;Skanderborg;8660;55.9723110;9.9423970
DK 7310 EF;KEA Lygten 16 | Simply Cooking A/S;Lygten 16;København;2400;55.7063630;12.5391710
DK 7311 EF;&deli;Bohrsgade 44;København;1799;55.6663590;12.5352910
DK 7312 EF;CFD Døves Vaskeri sociale tilbud, Kantine;Generatorvej 2 S;Søborg;2860;55.7312750;12.4707840
DK 7313 EF;Badsha A/S;Roskildevej 622;Jystrup Midtsj;4174;55.5206330;11.9058680
DK 733 EF;Rose Poultry A/S, Vinderup;Tværmosevej 10;Vinderup;7830;56.5213240;8.8079750
DK 7369 EF;Gårdbutikken Lystlunden, Ægpakkeri;Vestergade 166;Almind;6051;55.5666840;9.4545630
DK 7430 EF;Cater Food A/S;Europavej 22;Ikast;7430;56.1239620;9.1791180
DK 756923 EF;Oreby & Berritzgaard Gods;Orebygaard 16;Sakskøbing;4990;54.8453180;11.5945160
DK 76 EF;LL COLD ApS;Niels Juelsvej 1;Hirtshals;9850;57.5906280;9.9772340
DK 763 EF;ROSE Poultry A/S, Skovsgaard;Elmegårdsvej 4;Brovst;9460;57.0844110;9.4834990
DK 766411 EF;Løvenholm Gods;Løvenholmvej 66;Auning;8963;56.4514760;10.4439080
DK 774264 EF;Hr.;Visbyvej 11;Bedsted;7755;56.8030600;8.4158840
DK 7821 EF;Arla Innovation Centre;Agro Food Park 19;Aarhus;8200;56.1987500;10.1593160
DK 7837 EF;Lekapharm A/S;Industrivej 8;Kværndrup;5772;55.1821230;10.5218530
DK 7911 EF;FIPROS A/S;Rybergsvej 1;Ebberup;5631;55.2446830;9.9656180
DK 801 EF;Tican Fresh Meat A/S;Markedsvej 9;Brørup;6650;55.4828770;9.0110140
DK 803 EF;STRYHNS A/S LANGELAND;Kassebøllevej 4;Rudkøbing;5900;54.9481560;10.7593650
DK 803762 EF;Jørgen Elmegaard / På Bjerget;Holme Parkvej 167;Højbjerg;8270;56.1052070;10.1792270
DK 804 EF;Svendborg Slagtehus A/S, Slagteri;Porthusvej 75;Svendborg;5700;55.0737550;10.6096860
DK 81587 EF;Holckenhavn Gods vildtdepot;Dyrehavevej 102;Nyborg;5800;55.2902620;10.7735390
DK 818 EF;HØJER PØLSER A/S;Søndergade 1;Højer;6280;54.9623590;8.6963060
DK 823 EF;GLUMSØ SLAGTEHUS APS;Søvej 5;Glumsø;4171;55.3507910;11.6903830
DK 824 EF;S 255 NORTH SEA ApS;Damstedvej 19;Skagen;9990;57.7156550;10.5693230
DK 829 EF;House of Foods A/S;Sundsholmen 12;Nørresundby;9400;57.0653330;9.9522940
DK 83098 EF;Rønningesøgård Land- og Skovbrug, v/Stig Bille Brahe Selby;Søgårdsvej 10;Ullerslev;5540;55.3378900;10.6310440
DK 83830 EF;Brahetrolleborg Skov og Landbrug, Vildtdepot;Reventlowsvej 1  C, Korinth;Faaborg;5600;55.1333670;10.3017010
DK 83839 EF;Egebjerggaard Jagtvæsen, Vilddepot;Agernæsvej 11;Otterup;5450;55.5897890;10.3445710
DK 83847 EF;Brahesborg Gods Jagtvæsen;Brahesborgvej 32;Assens;5610;55.2799140;9.9530200
DK 842 EF;Danish Crown A/S;Mukkerten 13;Esbjerg;6715;55.5275040;8.4517350
DK 845 EF;Delika Aarhus A/S;Gunnar Clausens Vej 13 A;Viby;8260;56.1107570;10.1355450
DK 849 EF;Jensens Foods A/S;Energivej 5;Struer;7600;56.4819020;8.5808880
DK 855 EF;Oscar A/S;Industrivej 36;Rønnede;4683;55.2654970;12.0292210
DK 856 EF;Danish Pork Meat ApS;Rugvænget 8;Slagelse;4200;55.3924560;11.3407320
DK 862 EF;DANPO A/S, Forædling;Tykhøjetvej 44, Farre;Give;7323;55.8056020;9.2567300
DK 865 EF;DanePork A/S;Tørskindvej 19;Randbøl;7183;55.6944820;9.3145820
DK 868 EF;BHJ A/S, Essentia;Sundsnæs 33;Gråsten;6300;54.9100210;9.5933580
DK 869 EF;Hanegal A/S;Finlandsvej 12;Haderslev;6100;55.2651770;9.4766120
DK 872 EF;Slagter Theilgaard A/S;Oddesundvej 25;Esbjerg;6715;55.5162280;8.4637880
DK 87296 EF;Kattrup Gods Vildtdepot;Kattrupvej 18;Jyderup;4450;55.6107090;11.3712760
DK 873 EF;JN MEAT ApS, Genz Kød;Elmedalsvej 8;Slagelse;4200;55.4185760;11.3402470
DK 87547 EF;Kongsdal Gods;Kongsdalvej 5  A;Mørkøv;4440;55.6174710;11.5511800
DK 87548 EF;Giesegaard Jagtvæsen;Giesegaardvej 72;Ringsted;4100;55.4468170;11.7975218
DK 876 EF;OPHØRT Kivan-Food A/S;Saltøvej 118;Næstved;4700;55.2466050;11.6512200
DK 8770 EF;Pedersens Laboratorium ApS;Jens Grøns Vej 17;Vejle;7100;55.6780180;9.5685550
DK 878 EF;Danish Crown;Erhvervsparken 2;Sønder Felding;7280;55.9469050;8.7809320
DK 879 EF;DSV Road A/S;Søndervang 27;Vojens;6500;55.2464268;9.3082416
DK 87970 EF;Gisselfelt Jagtvæsen;Gisselfeltvej 12 A;Haslev;4690;55.3271115;11.9567297
DK 88015 EF;Boelsgaard I/S;Slagelse Landevej 76;Skælskør;4230;55.2789330;11.2861190
DK 88181 EF;Pandebjerg Gods;Ny Kristinebergvej 7;Nykøbing;4800;54.7646137;11.8709918
DK 88182 EF;Selchausdal Gods;Selchausdalvej 6;Ruds Vedby;4291;55.5851170;11.3266610
DK 88209 EF;Gavnø Slot;Gavnø 2;Næstved;4700;55.1888280;11.7251510
DK 883 EF;Lundsøe Køl & Frys, Frostlager;Jellingvej 5;Svenstrup;9230;56.9635070;9.8556810
DK 88346 EF;Lekkende Jagtværn;Lekkendevej 17;Mern;4735;55.0636000;12.0126890
DK 88347 EF;Michael Skjødt;Knuthenborg Park 13  A;Bandholm;4941;54.8217520;11.5232850
DK 88348 EF;Lystrup Jagtvæsen;Lystrupvej 7;Faxe;4640;55.2615600;12.0640700
DK 884 EF;Danish Crown A/S;Østerbro 40;Aalborg;9000;57.0446500;9.9358260
DK 885 EF;Delika Christiansfeld A/S;Kongensgade 47;Christiansfeld;6070;55.3603380;9.4826140
DK 88505 EF;Østerhovedgaard A/S, Lars Kjedgaard;Sevedøvej 49;Skælskør;4230;55.1959720;11.3102140
DK 88519 EF;Rudbjerggaard;Hovvasen 9;Dannemare;4983;54.7664130;11.1245130
DK 886 EF;Stryhns A/S;Vestre Kirkevej 13, Himmelev;Roskilde;4000;55.6674096;12.0938503
DK 88632 EF;Sparresholm jagtselskab APS;Trondhjems Plads 3;København;2100;55.6941050;12.5880980
DK 887 EF;Hvidebæk Pølsefabrik;Industrivej 17D;Jerslev Sjælland;4490;55.6121090;11.2130590
DK 89095 EF;Borreby Godskontor;Borrebyvej 41;Skælskør;4230;55.2333360;11.2906960
DK 89096 EF;Engestofte-Søholt;Engestoftevej 95;Maribo;4930;54.7626810;11.5617250
DK 89097 EF;Langø A/S;Langø 3;Langebæk;4772;54.9808270;12.1195920
DK 892 EF;Lineage Regstrup ApS;Virkelyst 7;Regstrup;4420;55.6632320;11.6393600
DK 892 EF;Lineage Regstrup;Virkelyst 7;Regstrup;4420;55.6632320;11.6393600
DK 89327 EF;Lidsø Gods;Lidsøvej 14;Rødby;4970;54.6864450;11.3274520
DK 894 EF;Moesgaard Meat 2012 A/S;Naurvej 3A;Holstebro;7500;56.3765280;8.5174370
DK 89412 EF;Det Classenske Fideicommis;Tromnæs Alleén 2 F;Nykøbing;4800;54.7677720;12.0202670
DK 895 EF;ROBERT DAMKJÆR A/S;Anslet Landevej 10;Haderslev;6100;55.3395340;9.5815590
DK 897 EF;DENCON FOODS A/S;Finlandsvej 16;Haderslev;6100;55.2646910;9.4796060
DK 8987 EF;Statsfængslet ved Sønder Omme;Holdgårdsvej 142;Sønder Omme;7260;55.8325110;8.9175490
DK 89998 EF;Dønnerup A/S;Dønnerupvej 18;Jyderup;4450;55.6210390;11.4185860
DK 90708 EF;Herlufsholm Skovdistrikt;Herlufsholm Allé 170;Næstved;4700;55.2458160;11.7463380
DK 90711 EF;Niels Jacobsen;Nyrupvej 19;Rude;4243;55.2473030;11.4865850
DK 90792 EF;Per Agersted;Spragelsevej 1;Herlufmagle;4160;55.3133770;11.7537470
DK 913004 EF;Quistrup v/Janus Skak Olufsen;Hjermvej 59 b;Struer;7600;56.4713987;8.6060228
DK 91626 EF;DEN SUHRSKE STIFTELSES SKOVDISTRIKT OG GODSKONTOR;Bonderupvej 148;Store Merløse;4370;55.5676140;11.6864130
DK 92103 EF;Vildthuset, Vildtdepot i Dyrehaven;Lundtoftevej 299;Kongens Lyngby;2800;55.7992320;12.5447410
DK 921032 EF;Julianelyst Gods;Julianelystvej 1;Østbirk;8752;55.9431900;9.7569260
DK 9217 EF;Dragør Isværk , Kølerum;Gl. Havn 6;Dragør;2791;55.5933270;12.6770440
DK 9231 EF;KLAAS PUUL DANMARK A/S;Kommandørkaj 3;Rømø;6792;55.0870430;8.5648430
DK 9257 EF;Lerøy Seafood Hirtshals A/S;Søren Nordbysvej 27;Hirtshals;9850;57.5866820;9.9893790
DK 9267 EF;O.H. FISKEEKSPORT A/S;Niels Juelsvej 15;Hirtshals;9850;57.5872450;9.9841690
DK 9287 EF;Søby Fisk;Søby Havn 12;Søby;5985;54.9416660;10.2580400
DK 9290 EF;Vagn P Fisk, V/Hans Marius;Vestre Kaj 8;Næstved;4700;55.2272570;11.7549940
DK 9290 EF;Sjógæti ApS;Vestre Kaj 8;Næstved;4700;55.2272570;11.7549940
DK 9317 EF;agustson A/S;Lundahl Nielsens Vej 2;Vejle;7100;55.6766660;9.5707670
DK 9321 EF;LL COLD ApS;Kai Lindbergs Gade 80;Hanstholm;7730;57.1180260;8.5955350
DK 9322 EF;Amager Fiskehus ApS, Engros;Holmbladsgade 3;København;2300;55.6641950;12.6013820
DK 9329 EF;SEAWELL HIRTSHALS A/S;Søren Nordbysvej 24-26;Hirtshals;9850;57.5880977;9.9859484
DK 955076 EF;Basnæs Jagtkonsortium;Basnæsvej 164;Skælskør;4230;55.2055590;11.3904800
DK 9626 EF;Hirtshals Stevedore ApS;Herluf Trollesvej 3;Hirtshals;9850;57.5932560;9.9773990
DK 9638 EF;Omø Superfisk, v/ Jon Krüger;Omø Havnevej 111, Omø Havnevej 41;Omø;4245;55.1712220;11.1590630
DK 9644 EF;Fiskelogistik Gruppen A/S;Nordvej 12;Frederikshavn;9900;57.3909190;10.5125810
DK 9646 EF;Schramm Skibe  ApS, Katharine HV16, Schramm Skibe I ApS;Vestervej 35;Rømø;6792;55.1710130;8.5504740
DK 9646 EF;HV16 Katharine, Schramm Skibe ApS;Vestervej 35;Rømø;6792;55.1710130;8.5504740
DK 9648 EF;RI 78 Kathrine Helt;Holmsland Klitvej 100;Ringkøbing;6950;56.0827930;8.1208990
DK 9651 EF;Nyborg Fiskeriforening;Fiskerivej 17;Nyborg;5800;55.3067491;10.7882918
DK 9653 EF;Alsfisk ApS, Kølehus;Sundgade 13;Sønderborg;6400;54.9087650;9.7805700
DK 9660 EF;Blue Water Shipping A/S;Istedvej 7;Padborg;6330;54.8349500;9.3554340
DK 9662 EF;Spodsbjerg Fiskerihavn;Spodsbjerg Havn;Rudkøbing;5900;54.9377498;10.7167568
DK 9666 EF;Hirtshals Seafood A/S;Saturnvej 2;Grenaa;8500;56.4137330;10.9215960
DK 969969 EF;Naturstyrelsen Hovedstaden;Kalvebodvej 166;Dragør;2791;55.5690430;12.5869240
DK 974109 EF;Bagger Sørensen & Co;Sønderskovvej 5;Daugård;8721;55.7356553;9.7095269
DK 990289 EF;Nordjysk Biavlscenter ApS, detail;Ølsvej 46;Hobro;9500;56.6342980;9.7638410
DK 993229 EF;K/S Bregentved;Koldinghus Alle 1;Haslev;4690;55.3058530;12.0030180
DK 995615 EF;Hverringe Gods, Vilddepot;Hverringevej 206;Kerteminde;5300;55.4798890;10.6993600
DK M104 EF;Ingstrup Mejeri A/S, Asaa mejeri;Søgade 4;Asaa;9340;57.1473090;10.4001460
DK M106 EF;Barrit Mejeri a.m.b.a.;Brølbæk 5;Barrit;7150;55.7334670;9.9049880
DK M111 EF;Bornholms Andelsmejeri a.m.b.a.;Sct. Klemensgade 17;Klemensker;3782;55.1762380;14.8097710
DK M116 EF;Cremo Ingredients A/S;Toftegårdsvej 3;Glamsbjerg;5620;55.2679560;10.1236700
DK M119 EF;Arla Foods Ingredients Group P/S,  Danmark Protein;Sønderupvej 26, Nr Vium;Videbæk;6920;56.0496560;8.6684100
DK M123 EF;Thise Mejeri A.m.b.a.;Sundsørevej 62, Thise;Roslev;7870;56.7039780;9.1268210
DK M133 EF;Gedsted Mejeri A/S;Østergade 23;Gedsted;9631;56.6902340;9.3392840
DK M137 EF;Gormsen Gourmet ApS;Stenhuggervej 12;Odense;5230;55.3790020;10.4171600
DK M150 EF;DRAGSBÆK A/S;Simons Bakke 46;Thisted;7700;56.9508350;8.6671120
DK M154 EF;Ingstrup Mejeri A/S;Hovedgaden 48;Løkken;9480;57.3144170;9.7097100
DK M155 EF;J. B. Jacobsen Seden A/S;Havegårdsvej 6-8;Odense;5240;55.4181590;10.4451681
DK M159 EF;Jernved Mejeri ApS;Jernvedvej 242;Gredstedbro;6771;55.4168490;8.7854110
DK M165 EF;Arla Foods Amba Arinco;Mælkevejen 4;Videbæk;6920;56.0849920;8.6298790
DK M166 EF;Arla Foods Amba, Kruså Mejeri;Åbenråvej 2 A;Kruså;6340;54.8479278;9.4075596
DK M175 EF;LACTOSAN A/S;Nordbakken 2;Ringe;5750;55.2502580;10.4813070
DK M183 EF;Mammen Mejerierne A/S;Mammen Byvej 32;Bjerringbro;8850;56.4087750;9.6166900
DK M184 EF;Drøsbro Mejeri;Tingvej 31;Thorsø;8881;56.3123190;9.7568310
DK M185 EF;K. Mathiasen Ost En Gros A/S;Ribe Landevej 483;Vejle;7100;55.6829470;9.4569710
DK M187 EF;Arla Foods Amba, Akafa;Svenstrup Skolevej 25;Svenstrup;9230;56.9743970;9.8447970
DK M189 EF;Arla Foods Amba, Birkum Ost;Ørbækvej 723;Odense;5220;55.3361030;10.5025010
DK M190 EF;Arla Foods Amba, Bislev Mejeri;Hvalpsundvej 3;Nibe;9240;56.9438770;9.6102160
DK M192 EF;Arla Foods Amba, Branderup Mejeri;Engdraget 4;Branderup;6535;55.1211200;9.0713320
DK M197 EF;Arla Foods Amba, Hobro Mejeri;Skivevej 39;Hobro;9500;56.6370310;9.7786420
DK M198 EF;Arla Foods Amba Holstebro Mejeri , Flødeost;Hjermvej 28;Holstebro;7500;56.3828210;8.6217040
DK M199 EF;Arla Foods Amba Holstebro Mejeri, Smør;Hjermvej 24;Holstebro;7500;56.3810600;8.6220850
DK M200 EF;Arla Foods Amba Hoco;Bülowsvej 9;Holstebro;7500;56.3489490;8.6124030
DK M201 EF;Arla Foods Amba, Høgelund Mejeri;Bregnehøjvej 16;Vojens;6500;55.2046590;9.3542350
DK M204 EF;Arla Foods amba Nørre Vium Mejeri;Sønderupvej 24, Nr Vium;Videbæk;6920;56.0498170;8.6663160
DK M206 EF;Arla Foods Amba, Rødkærsbro Mejeri;Århusvej 15;Rødkærsbro;8840;56.3474000;9.5138440
DK M210 EF;Arla Foods Amba, Slagelse Mejericenter;Karolinevej 1;Slagelse;4200;55.3971960;11.3299990
DK M212 EF;Arla Foods amba Troldhede Mejeri;Industrivej 1, Troldhede;Videbæk;6920;55.9942360;8.7423530
DK M213 EF;Arla Foods Amba, Christiansfeld Mejericenter;Arlavej 2;Christiansfeld;6070;55.3551600;9.4947240
DK M224 EF;Arla Foods Amba, Esbjerg Mejeri;Kvaglundvej 84;Esbjerg;6705;55.4882840;8.4738550
DK M233 EF;Arla Foods Amba, Tistrup Mejeri;Vardevej 31;Tistrup;6862;55.7203010;8.6121020
DK M235 EF;Mejerigården Premier Is A/S;Sennelsvej 1;Thisted;7700;56.9608500;8.7188490
DK M242 EF;NØRAGER MEJERI A/S;Bredgade 67;Nørager;9610;56.7103380;9.6224490
DK M243 EF;Nørup Mejeri;Billundvej 33;Bredsten;7182;55.7025335;9.3848026
DK M244 EF;JYDERUP OST APS;Gyvelvænget 2;Jyderup;4450;55.6591780;11.4090460
DK M262 EF;Uhrenholt A/S, Skodborg Mejeri;Skodborg Søndergade 25;Rødding;6630;55.4163120;9.1548550
DK M265 EF;Storstrøms Ost A/S;Nr Tvedevej 27;Holmegaard;4684;55.2239690;11.8828950
DK M268 EF;Mammen Mejerierne A/S, afd. Onsild Mejeri;Mejerivej 2;Hobro;9500;56.5764940;9.7477490
DK M274 EF;Them Andelsmejeri A.m.b.a, Mejeriet;Rustrupvej 16;Them;8653;56.0958200;9.5444960
DK M276 EF;Arla Foods amba Gjesing mejeri;Gl. Horsensvej 389;Skanderborg;8660;55.9838449;10.0161386
DK M277 EF;Arla Foods amba, Korsvej Mejeri;Højrupvej 116;Fredericia;7000;55.5682210;9.6056150
DK M282 EF;Ulvedal Ost ApS;Tudvadvej 1 A;Egtved;6040;55.6196380;9.3190450
DK M286 EF;COOL & GREEN;Rønnevej 28;Nørre Aaby;5580;55.4627380;9.8644970
DK M293 EF;Aabybro Mejeri A/S, v/ Niels Henrik Lindhardt;Brogårdsvej 148;Aabybro;9440;57.1684080;9.7167690
DK M302 EF;NATURMÆLK A.M.B.A.;Gerrebækvej 24;Tinglev;6360;54.8985460;9.2466650
DK M305 EF;P B FOODS APS;Kastanievej 4;Glamsbjerg;5620;55.2784280;10.0965390
DK M306 EF;Øllingegaard Mejeri;Borupvej 69;Skævinge;3320;55.8999520;12.1881880
DK M309 EF;Falengreen A/S;Niels Bohrs Vej 45;Skanderborg;8660;56.0703200;9.9965410
DK M321 EF;Skee Ismejeri Aps;Langebjergvej 101;Store Merløse;4370;55.5277410;11.7840360
DK M323 EF;Arla Foods Amba, Taulov Mejeri;Danbovej 2;Fredericia;7000;55.5361200;9.6447190
DK M5630 EF;TEBSTRUP;Vrinners Bygade 45;Knebel;8420;56.2419220;10.4933170
DK P20 EF;OVODAN FOODS A/S;Havnegade 31-35, 36, + Gøteborggade 2-4, Tolderlundsvej 100;Odense;5000;55.4261903;10.3978127
DK P201 EF;Danæg Products A/S;Maglegårdsvej 13;Roskilde;4000;55.6272540;12.0790970
DK P81 EF;DANÆG PRODUCTS A/S;Danægvej 3;Christiansfeld;6070;55.3620950;9.4872100
