country	code	name	postcode	town	address	adr2	lat	lng
Bács-Kiskun	HU-02-TH-00009	Dunafalvi Mezőgazdasági Zrt.	6513	Dunafalva	Külterület 0280/1 hrsz	Külterület 0280/1 hrsz , 6513 , Dunafalva	47,4601589	18,9288926
Bács-Kiskun	HU-02-TH-00012	Nemesnádudvari Állattenyésztő Kft.	6345	Nemesnádudvar	Központi major	Központi major , 6345 , Nemesnádudvar	46,3421118	19,0535723
Bács-Kiskun	HU-02-TH-00002	Forgó István és Forgó Istvánné	6032	Nyárlőrinc	I. ker. 0133/46	I. ker. 0133/46 , 6032 , Nyárlőrinc	46,856117	19,8843465
Bács-Kiskun	HU-02-TH-00008	Klein Tamás	6345	Nemesnádudvar	Külterület 0391/2	Külterület 0391/2 , 6345 , Nemesnádudvar	46,3421118	19,0535723
Bács-Kiskun	HU-02-TH-00011	Pongo Farm Kft.	6500	Baja	III. kerület 136	III. kerület 136 , 6500 , Baja	47,5671768	19,0368517
Bács-Kiskun	HU-02-TH-00003	Polyák Antal/Polyákné Bimbó Dóra	6032	Nyárlőrinc	I. kerület 0133/46	I. kerület 0133/46 , 6032 , Nyárlőrinc	46,856117	19,8843465
Bács-Kiskun	HU-02-TH-00036	Vakula Lászlóné	6440	Jánoshalma	Hrsz. 5250/38	Hrsz. 5250/38 , 6440 , Jánoshalma	46,2863504	19,3172257
Bács-Kiskun	HU-02-TH-00034	Bácsalmási Agráripari Zrt.	6422	Tompa	Örökföld Tanya 52.	Örökföld Tanya 52. , 6422 , Tompa	46,1874762	19,5429681
Bács-Kiskun	HU-02-TH-00031	Bácsbokodi Aranykalász Zrt.	6453	Bácsbokod	Külterület, Hrsz. 078	Külterület, Hrsz. 078 , 6453 , Bácsbokod	46,1471474	19,1481093
Bács-Kiskun	HU-02-TH-00035	Dicső Istvánné	6400	Kiskunhalas	Felsőöregszőlők 159.	Felsőöregszőlők 159. , 6400 , Kiskunhalas	46,4190297	19,4686364
Bács-Kiskun	HU-02-TH-00010	Dávodi Augusztus 20 ZM MGI RT.	6524	Dávod	Külterület Hrsz 0254	Külterület Hrsz 0254 , 6524 , Dávod	45,9880864	18,9240954
Bács-Kiskun	HU-02-TH-00037	Szegedi Mihály	6440	Jánoshalma/Parcelok	V. kerület 36 hrsz.0493/10	V. kerület 36 hrsz.0493/10 , 6440 , Jánoshalma/Parcelok	47,5002319	19,0520181
Bács-Kiskun	HU-02-TH-00033	Katymár Food Kft.	6455	Katymár	Hrsz. 0285/5	Hrsz. 0285/5 , 6455 , Katymár	46,0300883	19,1954901
Bács-Kiskun	HU-02-TH-00032	Katymári Mezőgazdasági Zrt.	6455	Katymár	Hrsz. 0285/5	Hrsz. 0285/5 , 6455 , Katymár	46,0300883	19,1954901
Bács-Kiskun	HU-02-TH-00001	Városföldi Agrár Gazdaság Zrt.	6033	Városföld	II. körzet 38.	II. körzet 38. , 6033 , Városföld	46,824445	19,786065
Bács-Kiskun	HU-02-TH-00025	Melis József András	6050	Lajosmizse	Mizse tanya 149.	Mizse tanya 149. , 6050 , Lajosmizse	47,0542207	19,5373177
Bács-Kiskun	HU-02-TH-00024	Városföldi Agrár Gazdaság Zrt.	6065	Lakitelek	Felsőalpár 10.	Felsőalpár 10. , 6065 , Lakitelek	46,8891229	19,9919134
Bács-Kiskun	HU-02-TH-00027	Kapcsándi Jenő Zoltán	6066	Tiszaalpár	Újmajor körzet 62.	Újmajor körzet 62. , 6066 , Tiszaalpár	46,8241103	19,949916
Bács-Kiskun	HU-02-TH-00005	Törőcsik Dezső/Törőcsik Dezsőné/Törőcsik Rajmund/id. Törőcsik Dezső	6060	Tiszakécske	Sárhalom Vigyázó major	Sárhalom Vigyázó major , 6060 , Tiszakécske	46,9358726	20,0969279
Bács-Kiskun	HU-02-TH-00004	Béni Farm Kft.	6031	Szentkirály	Felső tanya 147/a	Felső tanya 147/a , 6031 , Szentkirály	46,8963448	19,9281953
Bács-Kiskun	HU-02-TH-00006	Törőcsik Sándor, Törőcsikné Kastély Mónika	6060	Tiszakécske	Pereghalom Zoboki major 0419/23	Pereghalom Zoboki major 0419/23 , 6060 , Tiszakécske	46,9358726	20,0969279
Bács-Kiskun	HU-02-TH-00004	Chjaviza Kft.	6066	Tiszaalpár	Csongrádi út körzet 8.	Csongrádi út körzet 8. , 6066 , Tiszaalpár	46,8241103	19,949916
Bács-Kiskun	HU-02-TH-00039	Jávorka Bt.	6076	Ágasegyháza	Zsombos dűlő 64/a	Zsombos dűlő 64/a , 6076 , Ágasegyháza	46,8446482	19,4501185
Bács-Kiskun	HU-02-TH-00007	Botka Vincze Irén és Csikós Zsolt	6060	Tiszakécske	Kerekdomb 0277/1	Kerekdomb 0277/1 , 6060 , Tiszakécske	46,902467	20,056521
Bács-Kiskun	HU-02-TH-00026	Szabó János	6050	Lajosmizse	Bene tanya 501.	Bene tanya 501. , 6050 , Lajosmizse	47,0068667	19,4795427
Bács-Kiskun	HU-331-TH-00167	Borsodi István	6000	Kecskemét	Belsőnyír 11.	Belsőnyír 11. , 6000 , Kecskemét	46,9544218	19,634578
Bács-Kiskun	HU 331 TH 00013	Szigeti Jánosné	6336	Szakmár	Kistény major 0149/4 hrsz.	Kistény major 0149/4 hrsz. , 6336 , Szakmár	46,574847	19,070873
Bács-Kiskun	HU 331 TH 00014	Dózsa Mezőgazdasági Zrt. - Tass Zrt.	6098	Tass	0194/58	0194/58 , 6098 , Tass
Bács-Kiskun	HU 331 TH 00015	Extra Jó Tej Kft.	6085	Fülöpszállás	Szabó tanya 0382/6	Szabó tanya 0382/6 , 6085 , Fülöpszállás	46,8283079	19,2467734
Bács-Kiskun	HU 331 TH 00016	Hun Farm & Gasztro Kft.	6070	Izsák	0192/6	0192/6 , 6070 , Izsák	46,7942934	19,3838146
Bács-Kiskun	HU 331 TH 00017	Herkány Kft.	6311	Öregcsertő	037/14.	037/14. , 6311 , Öregcsertő	46,515272	19,1090595
Bács-Kiskun	HU 331 TH 00018	Kákonyi Csaba	6311	Öregcsertő	Zrínyi u. 27.	Zrínyi u. 27. , 6311 , Öregcsertő	46,5071753	19,0952936
Bács-Kiskun	HU 331 TH 00019	Golf-Szelid Bt	6328	Dunapataj	Szelid	Szelid , 6328 , Dunapataj	46,6239015	19,0418426
Bács-Kiskun	HU 331 TH 00020	Németh Jánosné	6325	Dunatetétlen	025/5	025/5 , 6325 , Dunatetétlen	46,7578624	19,0932563
Bács-Kiskun	HU 331 TH 00021	Hild Tej kft	6344	Hajós	külter.  Csikójárás	külter.  Csikójárás , 6344 , Hajós	46,4001409	19,1193255
Bács-Kiskun	HU 331 TH 00022	Kék Duna mg szöv	6352	Fajsz	külter. Tehenészeti telep	külter. Tehenészeti telep , 6352 , Fajsz	46,4157936	18,9191954
Bács-Kiskun	HU 331 TH 00023	Terra-Bos kft	6341	Homokmégy	Örjeg	Örjeg , 6341 , Homokmégy	46,4710354	19,1140593
Bács-Kiskun	HU 331 TH 00037	Szegedi Mihály	6440	Jánoshalma	Kélesi u. 22	Kélesi u. 22 , 6440 , Jánoshalma	46,3002945	19,3025986
Bács-Kiskun	HU 331 TH 00038	Gyuris Árpád	6440	Jánoshalma	I.körzet Tanya 37. hrsz0436/2	I.körzet Tanya 37. hrsz0436/2 , 6440 , Jánoshalma	46,2863504	19,3172257
Bács-Kiskun	HU 331 TH 00039	Jávorka Bt.	6076	Ágasegyháza	Galambháza dűlő 64/a.	Galambháza dűlő 64/a. , 6076 , Ágasegyháza	46,837043	19,5079621
Bács-Kiskun	HU 331 TH 00040	Csupor Katalin	6042	Fülöpháza	II. körzet 144.	II. körzet 144. , 6042 , Fülöpháza	46,8903871	19,466401
Bács-Kiskun	HU 331 TH 00041	Kalmár Ferenc	6042	Fülöpháza	Mező I. u. 30.	Mező I. u. 30. , 6042 , Fülöpháza	46,8939986	19,4384734
Bács-Kiskun	HU 331 TH 00042	FM Kelet-magyarországi Agrár-Szak	6440	Jánoshalma	I.körzet Tanya 19. hrsz 0358	I.körzet Tanya 19. hrsz 0358 , 6440 , Jánoshalma	46,2863504	19,3172257
Bács-Kiskun	HU 331 TH 00043	Papp Emma	6341	Zsana	IV. körzet 84.	IV. körzet 84. , 6341 , Zsana	46,3802847	19,6600846
Bács-Kiskun	HU 331 TH 00044	Papp Gábor	6341	Zsana	Kossuth L. u. 44.	Kossuth L. u. 44. , 6341 , Zsana	46,3802847	19,6600846
Bács-Kiskun	HU 331 TH 00045	Brunner Edina	6136	Harkakötöny	Árpád u 50.	Árpád u 50. , 6136 , Harkakötöny	46,4667582	19,6095288
Bács-Kiskun	HU 331 TH 00046	Lencsés Mihály	6136	Harkakötöny	Kossuth u 11.	Kossuth u 11. , 6136 , Harkakötöny	46,4633698	19,6049798
Bács-Kiskun	HU 331 TH 00047	Boda János	6100	Kiskunfélegyháza	IX.körzet 294.	IX.körzet 294. , 6100 , Kiskunfélegyháza	46,65851	19,819394
Bács-Kiskun	HU 331 TH 00048	Dósai Nándor	6100	Kiskunfélegyháza	XII.körzet 97.	XII.körzet 97. , 6100 , Kiskunfélegyháza	46,7108345	19,8529733
Bács-Kiskun	HU 331 TH 00049	Ferenczi Imre	6100	Kiskunfélegyháza	VII. körzet 39.	VII. körzet 39. , 6100 , Kiskunfélegyháza	46,6874343	19,9213509
Bács-Kiskun	HU 331 TH 00051	Király Mihály	6100	Kiskunfélegyháza	XIII.körzet 139.	XIII.körzet 139. , 6100 , Kiskunfélegyháza	46,6422665	19,7951584
Bács-Kiskun	HU 331 TH 00052	Kiss István	6100	Kiskunfélegyháza	VII.körzet 33.	VII.körzet 33. , 6100 , Kiskunfélegyháza	46,688477	19,926683
Bács-Kiskun	HU 331 TH 00053	Kiss Mihály	6100	Kiskunfélegyháza	XII.körzet 133.	XII.körzet 133. , 6100 , Kiskunfélegyháza	46,7108345	19,8529733
Bács-Kiskun	HU 331 TH 00054	Kovács-István Péter	6100	Kiskunfélegyháza	IX.körzet 314.	IX.körzet 314. , 6100 , Kiskunfélegyháza	46,652112	19,819603
Bács-Kiskun	HU 331 TH 00055	Mészáros Ilona Erzsébet	6100	Kiskunfélegyháza	VIII.körzet 80.	VIII.körzet 80. , 6100 , Kiskunfélegyháza	46,7108345	19,8529733
Bács-Kiskun	HU 331 TH 00056	Palotás Lászlóné	6100	Kiskunfélegyháza	Mészöly Gy.u. 10.	Mészöly Gy.u. 10. , 6100 , Kiskunfélegyháza	46,678098	19,887258
Bács-Kiskun	HU 331 TH 00057	Sinkó János	6100	Kiskunfélegyháza	VIII.körzet 76.	VIII.körzet 76. , 6100 , Kiskunfélegyháza	46,7108345	19,8529733
Bács-Kiskun	HU 331 TH 00058	Tarjányi János	6100	Kiskunfélegyháza	VII.körzet 5.	VII.körzet 5. , 6100 , Kiskunfélegyháza	46,688477	19,926683
Bács-Kiskun	HU 331 TH 00059	Urbán Zoltán	6100	Kiskunfélegyháza	VII.körzet 40.	VII.körzet 40. , 6100 , Kiskunfélegyháza	46,688477	19,926683
Bács-Kiskun	HU 331 TH 00060	Ván Jenő	6100	Kiskunfélegyháza	XIII.körzet 31.	XIII.körzet 31. , 6100 , Kiskunfélegyháza	46,655186	19,8134278
Bács-Kiskun	HU 331 TH 00061	Simonyi József	6100	Kiskunfélegyháza	Gábor Á. U.22.	Gábor Á. U.22. , 6100 , Kiskunfélegyháza	46,7033231	19,8509098
Bács-Kiskun	HU 331 TH 00062	Udvardyné Gáll Irén	6100	Kiskunfélegyháza	V. körzet 87	V. körzet 87 , 6100 , Kiskunfélegyháza	46,7563795	19,908191
Bács-Kiskun	HU 331 TH 00063	Faragó István	6100	Kiskunfélegyháza	IV. körzet 81	IV. körzet 81 , 6100 , Kiskunfélegyháza	46,7108345	19,8529733
Bács-Kiskun	HU 331 TH 00064	Vidács Imre	6100	Kiskunfélegyháza	I. körzet 293	I. körzet 293 , 6100 , Kiskunfélegyháza	46,7108345	19,8529733
Bács-Kiskun	HU 331 TH 00065	Tapodi Mihály	6100	Kiskunfélegyháza	V. körzet 90.	V. körzet 90. , 6100 , Kiskunfélegyháza	46,7488965	19,9173102
Bács-Kiskun	HU 331 TH 00066	Magony Ferenc	6100	Kiskunfélegyháza	IV. körzet 101	IV. körzet 101 , 6100 , Kiskunfélegyháza	46,7108345	19,8529733
Bács-Kiskun	HU 331 TH 00067	Kiss Gáborné	6133	Jászszentlászló	hrsz.0148/7	hrsz.0148/7 , 6133 , Jászszentlászló	46,575302	19,7698589
Bács-Kiskun	HU 331 TH 00068	Csontos Benő	6120	Kiskunmajsa	Marispuszta 137.	Marispuszta 137. , 6120 , Kiskunmajsa	46,4926226	19,7839563
Bács-Kiskun	HU 331 TH 00069	Szikora János	6120	Kiskunmajsa	Marispuszta 256.	Marispuszta 256. , 6120 , Kiskunmajsa	46,4827559	19,7729093
Bács-Kiskun	HU 331 TH 00070	Szűcsné Nyerges Ida	6120	Kiskunmajsa	Marispuszta 92	Marispuszta 92 , 6120 , Kiskunmajsa	46,5033842	19,7852202
Bács-Kiskun	HU 331 TH 00071	Hunyadi Dávid	6120	Kiskunmajsa	Marispuszta 139.	Marispuszta 139. , 6120 , Kiskunmajsa	46,4940879	19,7851731
Bács-Kiskun	HU 331 TH 00072	Kis-Bús Sándorné	6120	Kiskunmajsa	Marispuszta 107/A.	Marispuszta 107/A. , 6120 , Kiskunmajsa	46,5027932	19,788571
Bács-Kiskun	HU 331 TH 00073	Kis-Bús András	6120	Kiskunmajsa	Marispuszta 95.	Marispuszta 95. , 6120 , Kiskunmajsa	46,5027932	19,788571
Bács-Kiskun	HU 331 TH 00074	Víkor István	6120	Kiskunmajsa	Marispuszta 11/A.	Marispuszta 11/A. , 6120 , Kiskunmajsa	46,5028051	19,7431677
Bács-Kiskun	HU 331 TH 00075	Nyerges László Kálmán	6120	Kiskunmajsa	Marispuszta 237.	Marispuszta 237. , 6120 , Kiskunmajsa	46,4834569	19,7717767
Bács-Kiskun	HU 331 TH 00076	Gémes Józsefné	6134	Kömpöc	Sivány dűlő 19.	Sivány dűlő 19. , 6134 , Kömpöc	46,4811054	19,8484208
Bács-Kiskun	HU 331 TH 00077	Dávid Sándorné	6134	Kömpöc	Sivány dűlő 26.	Sivány dűlő 26. , 6134 , Kömpöc	46,4811054	19,8484208
Bács-Kiskun	HU 331 TH 00078	Bitó Sándor	6134	Kömpöc	József A. u. 2.	József A. u. 2. , 6134 , Kömpöc	46,4626421	19,864171
Bács-Kiskun	HU 331 TH 00079	Szabó Jánosné	6134	Kömpöc	Hunyadi J. u. 9.	Hunyadi J. u. 9. , 6134 , Kömpöc	46,4635012	19,8691097
Bács-Kiskun	HU 331 TH 00081	Czombos Ferenc	6134	Kömpöc	Rákóczi F. u.44.	Rákóczi F. u.44. , 6134 , Kömpöc	46,4678579	19,8653708
Bács-Kiskun	HU 331 TH 00082	Rokolya Erika	6135	Csólyospálos	Felsőcsólyos T. 12	Felsőcsólyos T. 12 , 6135 , Csólyospálos	46,4176512	19,8403484
Bács-Kiskun	HU 331 TH 00083	Antal Imre	6114	Bugac	Felsőmonostor 62	Felsőmonostor 62 , 6114 , Bugac	46,7091294	19,7305552
Bács-Kiskun	HU 331 TH 00084	Kunszabó Ferenc	6114	Bugac	Árpád u 2/a	Árpád u 2/a , 6114 , Bugac	46,685548	19,6777468
Bács-Kiskun	HU 331 TH 00085	Horák József	6114	Bugac	Dózsa György 45	Dózsa György 45 , 6114 , Bugac	46,682365	19,688206
Bács-Kiskun	HU 331 TH 00086	Bognár Mihály	6114	Bugacpusztaháza	Nagybugac 15	Nagybugac 15 , 6114 , Bugacpusztaháza	46,7022143	19,6356538
Bács-Kiskun	HU 331 TH 00087	Vízhányó Ferenc	6114	Bugac	Kada Elek u. 30	Kada Elek u. 30 , 6114 , Bugac	46,683312	19,686113
Bács-Kiskun	HU 331 TH 00088	Négy- B BT	6114	Bugac	Alsómonostor 175	Alsómonostor 175 , 6114 , Bugac	46,66769	19,7341971
Bács-Kiskun	HU 331 TH 00089	Csontos Tibor	6120	Kiskunmajsa	Ágasegyháza 233	Ágasegyháza 233 , 6120 , Kiskunmajsa	46,8386043	19,4502899
Bács-Kiskun	HU 331 TH 00090	Babenyecz Jenőné	6120	Kiskunmajsa	Kígyós Hold u. 27	Kígyós Hold u. 27 , 6120 , Kiskunmajsa	46,4056131	19,7680194
Bács-Kiskun	HU 331 TH 00091	Behány László	6120	Kiskunmajsa	Ágasegyháza 53	Ágasegyháza 53 , 6120 , Kiskunmajsa	46,8386043	19,4502899
Bács-Kiskun	HU 331 TH 00092	Bera András	6120	Kiskunmajsa	Ötfa 241	Ötfa 241 , 6120 , Kiskunmajsa	46,5195179	19,742562
Bács-Kiskun	HU 331 TH 00093	Csontos Ferencné	6120	Kiskunmajsa	Margitsziget 1	Margitsziget 1 , 6120 , Kiskunmajsa	46,4831477	19,7393704
Bács-Kiskun	HU 331 TH 00094	ifj. Csontos Imre	6120	Kiskunmajsa	Madách u. 4	Madách u. 4 , 6120 , Kiskunmajsa	46,4857249	19,7389073
Bács-Kiskun	HU 331 TH 00095	Csontos Imre	6120	Kiskunmajsa	hrsz.0411/70	hrsz.0411/70 , 6120 , Kiskunmajsa	46,4904848	19,7366569
Bács-Kiskun	HU 331 TH 00096	Csontos Máté	6120	Kiskunmajsa	Ágasegyháza 178	Ágasegyháza 178 , 6120 , Kiskunmajsa	46,8386043	19,4502899
Bács-Kiskun	HU 331 TH 00097	Csukonyi Sándor	6135	Csólyospálos	hrsz.027/21	hrsz.027/21 , 6135 , Csólyospálos	46,4180837	19,8402638
Bács-Kiskun	HU 331 TH 00098	Deli Sándor	6120	Kiskunmajsa	Kígyós 84	Kígyós 84 , 6120 , Kiskunmajsa	46,4041559	19,7702369
Bács-Kiskun	HU 331 TH 00099	Farkas Péter	6135	Csólyospálos	hrsz.0111/45	hrsz.0111/45 , 6135 , Csólyospálos	46,4180837	19,8402638
Bács-Kiskun	HU 331 TH 00100	ifj. Felföldi János	6120	Kiskunmajsa	Ágasegyh. D. 197/A	Ágasegyh. D. 197/A , 6120 , Kiskunmajsa	46,4978287	19,6995589
Bács-Kiskun	HU 331 TH 00101	Felföldi János	6120	Kiskunmajsa	Ágasegyh. D. 197/A	Ágasegyh. D. 197/A , 6120 , Kiskunmajsa	46,4978287	19,6995589
Bács-Kiskun	HU 331 TH 00102	Gyuris Ibolya	6120	Kiskunmajsa	Kőkút 98	Kőkút 98 , 6120 , Kiskunmajsa	46,5230091	19,7464667
Bács-Kiskun	HU 331 TH 00103	Hunyadiné Lehoczki Katalin	6120	Kiskunmajsa	Ágasegyháza 332	Ágasegyháza 332 , 6120 , Kiskunmajsa	46,8386043	19,4502899
Bács-Kiskun	HU 331 TH 00104	Kispál János	6120	Kiskunmajsa	Kígyós 331	Kígyós 331 , 6120 , Kiskunmajsa	46,4041559	19,7702369
Bács-Kiskun	HU 331 TH 00105	Kovács András Gábor	6120	Kiskunmajsa	hrsz. 0423/115	hrsz. 0423/115 , 6120 , Kiskunmajsa	46,4978287	19,6995589
Bács-Kiskun	HU 331 TH 00106	Kovács János	6120	Kiskunmajsa	hrsz. 0350/18	hrsz. 0350/18 , 6120 , Kiskunmajsa	46,4978287	19,6995589
Bács-Kiskun	HU 331 TH 00107	Krupincza Imrené	6120	Kiskunmajsa	Ötfa 198	Ötfa 198 , 6120 , Kiskunmajsa	46,5195179	19,742562
Bács-Kiskun	HU 331 TH 00108	Minkó István	6120	Kiskunmajsa	Ágasegyháza d. 294	Ágasegyháza d. 294 , 6120 , Kiskunmajsa	46,8386043	19,4502899
Bács-Kiskun	HU 331 TH 00109	Nagy Ferenc	6120	Kiskunmajsa	hrsz.0475/28	hrsz.0475/28 , 6120 , Kiskunmajsa	46,4904848	19,7366569
Bács-Kiskun	HU 331 TH 00111	Patyi László	6120	Kiskunmajsa	Kőkút 98	Kőkút 98 , 6120 , Kiskunmajsa	46,5230091	19,7464667
Bács-Kiskun	HU 331 TH 00112	Nagy Ignácz Istvánné	6120	Kiskunmajsa	Kígyós u. 174/a.	Kígyós u. 174/a. , 6120 , Kiskunmajsa	46,4041559	19,7702369
Bács-Kiskun	HU 331 TH 00113	Patyi László Zoltán	6120	Kiskunmajsa	Fecske u. 2	Fecske u. 2 , 6120 , Kiskunmajsa	46,4894639	19,7292009
Bács-Kiskun	HU 331 TH 00114	Szikora Alajos Imréné	6120	Kiskunmajsa	Ötfa 164	Ötfa 164 , 6120 , Kiskunmajsa	46,5195179	19,742562
Bács-Kiskun	HU 331 TH 00115	Szikora János	6120	Kiskunmajsa	hrsz.0394/8	hrsz.0394/8 , 6120 , Kiskunmajsa	46,4904848	19,7366569
Bács-Kiskun	HU 331 TH 00116	Tandari Lászlóné	6120	Kiskunmajsa	Kígyós 124	Kígyós 124 , 6120 , Kiskunmajsa	46,4041559	19,7702369
Bács-Kiskun	HU 331 TH 00117	Tari Raduán Zoltán	6120	Kiskunmajsa	Konyha d. 45	Konyha d. 45 , 6120 , Kiskunmajsa	46,4978287	19,6995589
Bács-Kiskun	HU 331 TH 00118	Tisóczki László	6120	Kiskunmajsa	Ötfa T. 22	Ötfa T. 22 , 6120 , Kiskunmajsa	46,5195179	19,742562
Bács-Kiskun	HU 331 TH 00119	Varga Béla	6120	Kiskunmajsa	Konyha d. T.5	Konyha d. T.5 , 6120 , Kiskunmajsa	46,4978287	19,6995589
Bács-Kiskun	HU 331 TH 00120	Varga István	6120	Kiskunmajsa	hrsz.0422/9	hrsz.0422/9 , 6120 , Kiskunmajsa	46,4904848	19,7366569
Bács-Kiskun	HU 331 TH 00121	Varga Tamás	6120	Kiskunmajsa	hrsz.0418/9	hrsz.0418/9 , 6120 , Kiskunmajsa	46,4904848	19,7366569
Bács-Kiskun	HU 331 TH 00122	Vargáné Vikor Henrietta	6120	Kiskunmajsa	hrsz.0418/9	hrsz.0418/9 , 6120 , Kiskunmajsa	46,4904848	19,7366569
Bács-Kiskun	HU 331 TH 00123	Zádori Károly György	6120	Kiskunmajsa	Kígyós 141	Kígyós 141 , 6120 , Kiskunmajsa	46,4041559	19,7702369
Bács-Kiskun	HU 331 TH 00124	Zádori Nándor	6120	Kiskunmajsa	hrsz.4505	hrsz.4505 , 6120 , Kiskunmajsa	46,4978287	19,6995589
Bács-Kiskun	HU 331 TH 00125	Zsolnai László Norbert	6120	Kiskunmajsa	Ágasegyháza 82	Ágasegyháza 82 , 6120 , Kiskunmajsa	46,8386043	19,4502899
Bács-Kiskun	HU 331 TH 00126	Albus Unicornis	6100	Kiskunfélegyháza	hrsz 0511/29	hrsz 0511/29 , 6100 , Kiskunfélegyháza	46,7108345	19,8529733
Bács-Kiskun	HU 331 TH 00127	Csillag Zoltán	6100	Kiskunfélegyháza	hrsz 022/10	hrsz 022/10 , 6100 , Kiskunfélegyháza	46,7112802	19,8515196
Bács-Kiskun	HU 331 TH 00128	Lengyel Levente	6100	Kiskunfélegyháza	hrsz 0532/2	hrsz 0532/2 , 6100 , Kiskunfélegyháza	46,7108345	19,8529733
Bács-Kiskun	HU 331 TH 00129	Tajti Péterné	6100	Kiskunfélegyháza	IX. ker. 156/A.	IX. ker. 156/A. , 6100 , Kiskunfélegyháza	46,7108345	19,8529733
Bács-Kiskun	HU 331 TH 00130	Vági Judit Katalin	6100	Kiskunfélegyháza	hrsz 0532/2	hrsz 0532/2 , 6100 , Kiskunfélegyháza	46,7108345	19,8529733
Bács-Kiskun	HU 331 TH 00131	Németh Géza	6112	Pálmonostora	Postaházi dűlő 2.	Postaházi dűlő 2. , 6112 , Pálmonostora	46,5901951	19,9228043
Bács-Kiskun	HU 331 TH 00132	Varga Márton	6112	Pálmonostora	Postaházi dűlő 205.	Postaházi dűlő 205. , 6112 , Pálmonostora	46,5901951	19,9228043
Bács-Kiskun	HU 331 TH 00133	Bordi Erzsébet	6113	Petőfiszállás	hrsz 025/18.	hrsz 025/18. , 6113 , Petőfiszállás	46,6241671	19,8585091
Bács-Kiskun	HU 331 TH 00134	Bordi Géza	6113	Petőfiszállás	tanya 480.	tanya 480. , 6113 , Petőfiszállás	46,6191794	19,8602483
Bács-Kiskun	HU 331 TH 00135	Csenki János	6113	Petőfiszállás	tanya 298	tanya 298 , 6113 , Petőfiszállás	46,6241671	19,8585091
Bács-Kiskun	HU 331 TH 00136	Czakó Flórián János	6113	Petőfiszállás	tanya 649	tanya 649 , 6113 , Petőfiszállás	46,6122305	19,8438834
Bács-Kiskun	HU 331 TH 00137	Czakó Flóriánné	6113	Petőfiszállás	tanya 651	tanya 651 , 6113 , Petőfiszállás	46,6122305	19,8438834
Bács-Kiskun	HU 331 TH 00138	Dósa Lajos	6113	Petőfiszállás	tanya 482	tanya 482 , 6113 , Petőfiszállás	46,6122305	19,8438834
Bács-Kiskun	HU 331 TH 00139	Fekete Ferenc	6113	Petőfiszállás	Kossuth Lajos u. 87	Kossuth Lajos u. 87 , 6113 , Petőfiszállás	46,6246807	19,8583263
Bács-Kiskun	HU 331 TH 00141	Nemes-Nagy László	6113	Petőfiszállás	tanya 95	tanya 95 , 6113 , Petőfiszállás	46,6122305	19,8438834
Bács-Kiskun	HU 331 TH 00142	Palotás János	6113	Petőfiszállás	tanya 570	tanya 570 , 6113 , Petőfiszállás	46,6122305	19,8438834
Bács-Kiskun	HU 331 TH 00143	Pintér Lászlóné	6113	Petőfiszállás	tanya 454	tanya 454 , 6113 , Petőfiszállás	46,6122305	19,8438834
Bács-Kiskun	HU 331 TH 00144	Seres József	6113	Petőfiszállás	hrsz 024/34.	hrsz 024/34. , 6113 , Petőfiszállás	46,6241671	19,8585091
Bács-Kiskun	HU 331 TH 00145	Seres József Attiláné	6113	Petőfiszállás	tanya 288.	tanya 288. , 6113 , Petőfiszállás	46,6122305	19,8438834
Bács-Kiskun	HU 331 TH 00146	Seres Józsefné	6113	Petőfiszállás	hrsz 024/34	hrsz 024/34 , 6113 , Petőfiszállás	46,6241671	19,8585091
Bács-Kiskun	HU 331 TH 00147	Seres Mihály László	6113	Petőfiszállás	tanya 492	tanya 492 , 6113 , Petőfiszállás	46,6122305	19,8438834
Bács-Kiskun	HU 331 TH 00148	Szabó János	6113	Petőfiszállás	tanya 500	tanya 500 , 6113 , Petőfiszállás	46,6191794	19,8602483
Bács-Kiskun	HU 331 TH 00149	Török Károly	6113	Petőfiszállás	tanya 627	tanya 627 , 6113 , Petőfiszállás	46,6122305	19,8438834
Bács-Kiskun	HU 331 TH 00150	Vizhányó Pál	6113	Petőfiszállás	Petőfi Sándor u. 17	Petőfi Sándor u. 17 , 6113 , Petőfiszállás	46,6191243	19,8620721
Bács-Kiskun	HU 331 TH 00151	Szilágyi Biró László Mihályné	6120	Kiskunmajsa	Bodoglár 55.	Bodoglár 55. , 6120 , Kiskunmajsa	46,5150179	19,655234
Bács-Kiskun	HU 331 TH 00152	Czinkóczi Sándorné	6120	Kiskunmajsa	Konyha dűlő 68.	Konyha dűlő 68. , 6120 , Kiskunmajsa	46,4978287	19,6995589
Bács-Kiskun	HU 331 TH 00153	Harkai Balázsné	6120	Kiskunmajsa	Bodoglár 60.	Bodoglár 60. , 6120 , Kiskunmajsa	46,5150179	19,655234
Bács-Kiskun	HU 331 TH 00154	Hegedűs János	6120	Kiskunmajsa	hrsz 0585/4	hrsz 0585/4 , 6120 , Kiskunmajsa	46,4978287	19,6995589
Bács-Kiskun	HU 331 TH 00155	Kóbor Lajos	6120	Kiskunmajsa	Konyha dűlő 116	Konyha dűlő 116 , 6120 , Kiskunmajsa	46,4978287	19,6995589
Bács-Kiskun	HU 331 TH 00156	Kurgyis Lajos	6120	Kiskunmajsa	Bodoglár 52.	Bodoglár 52. , 6120 , Kiskunmajsa	46,5150179	19,655234
Bács-Kiskun	HU 331 TH 00157	Nagy-Ajtai György	6120	Kiskunmajsa	Bodoglár 247.	Bodoglár 247. , 6120 , Kiskunmajsa	46,5150179	19,655234
Bács-Kiskun	HU 331 TH 00158	Oláh Péter János	6120	Kiskunmajsa	hrsz 0593/10	hrsz 0593/10 , 6120 , Kiskunmajsa	46,4978287	19,6995589
Bács-Kiskun	HU 331 TH 00159	Pajor Lászlóné	6120	Kiskunmajsa	hrsz 0562/17	hrsz 0562/17 , 6120 , Kiskunmajsa	46,4978287	19,6995589
Bács-Kiskun	HU 331 TH 00160	Tóth Margit	6120	Kiskunmajsa	Konyha dűlő 44.	Konyha dűlő 44. , 6120 , Kiskunmajsa	46,4978287	19,6995589
Bács-Kiskun	HU 331 TH 00161	Kránicz János	6120	Kiskunmajsa	Konyha dűlő 14.	Konyha dűlő 14. , 6120 , Kiskunmajsa	46,4978287	19,6995589
Bács-Kiskun	HU 331 TH 00162	Patyi Lajos	6131	Szank	Halasi út 40.	Halasi út 40. , 6131 , Szank	46,5507453	19,6762751
Bács-Kiskun	HU 331 TH 00163	Tímár Zsolt	6131	Szank	Küküllő u. 19.	Küküllő u. 19. , 6131 , Szank	46,5607131	19,6694524
Bács-Kiskun	HU 331 TH 00164	Tímár Zsoltné Kun Ibolya	6131	Szank	Küküllő u. 19.	Küküllő u. 19. , 6131 , Szank	46,5607131	19,6694524
Bács-Kiskun	HU 331 TH 00168	Kecső Péter József	6067	Tiszaalpár	Vasút körzet 45	Vasút körzet 45 , 6067 , Tiszaalpár	46,8140236	19,9936556
Bács-Kiskun	HU 331 TH 00169	Kecső József	6067	Tiszaalpár	Borsihalmi k.72	Borsihalmi k.72 , 6067 , Tiszaalpár	46,7790455	19,976309
Bács-Kiskun	HU 331 TH 00170	Barcsa Lajosné	6067	Tiszaalpár	Újmajor körzet 55	Újmajor körzet 55 , 6067 , Tiszaalpár	46,7790455	19,976309
Bács-Kiskun	HU 331 TH 00171	Kapus István	6067	Tiszaalpár	Csongrádi körzet 35	Csongrádi körzet 35 , 6067 , Tiszaalpár	46,7790455	19,976309
Bács-Kiskun	HU 331 TH 00172	Eszik Nándor	6078	Jakabszállás	Tavasz u. 57	Tavasz u. 57 , 6078 , Jakabszállás	46,7555	19,606967
Bács-Kiskun	HU 331 TH 00174	Kovács József	6078	Jakabszállás	I. körzet 76	I. körzet 76 , 6078 , Jakabszállás	46,7416096	19,6250309
Bács-Kiskun	HU 331 TH 00175	Király János	6078	Jakabszállás	Kossuth u. 5	Kossuth u. 5 , 6078 , Jakabszállás	46,764587	19,6049669
Bács-Kiskun	HU 331 TH 00176	Juhász István	6078	Jakabszállás	Tavasz u. 33	Tavasz u. 33 , 6078 , Jakabszállás	46,7578869	19,604531
Bács-Kiskun	HU 331 TH 00177	Varga Tiborné	6078	Jakabszállás	III. körzet 185/a	III. körzet 185/a , 6078 , Jakabszállás	46,7416096	19,6250309
Bács-Kiskun	HU 331 TH 00178	Berente Lőrinc	6078	Jakabszállás	III. körzet 96	III. körzet 96 , 6078 , Jakabszállás	46,7416096	19,6250309
Bács-Kiskun	HU 331 TH 00179	Szűcs Benedek	6078	Jakabszállás	III. körzet 132	III. körzet 132 , 6078 , Jakabszállás	46,7416096	19,6250309
Bács-Kiskun	HU 331 TH 00180	Csupor Katalin	6042	Fülöpháza	II. körzet 144	II. körzet 144 , 6042 , Fülöpháza	46,8903871	19,466401
Bács-Kiskun	HU 331 TH 00181	Bende Balázsné	6041	Kerekegyháza	Kunpuszta 46	Kunpuszta 46 , 6041 , Kerekegyháza	46,9182593	19,4440184
Bács-Kiskun	HU 331 TH 00182	Boczek János	6041	Kerekegyháza	Kunpuszta 71	Kunpuszta 71 , 6041 , Kerekegyháza	46,9182593	19,4440184
Bács-Kiskun	HU 331 TH 00183	Kalácska Sándor	6041	Kerekegyháza	Rákóczi u. 41	Rákóczi u. 41 , 6041 , Kerekegyháza	46,9399265	19,4755296
Bács-Kiskun	HU 331 TH 00184	Kiss Gábor Imre	6042	Fülöpháza	II. körzet 106	II. körzet 106 , 6042 , Fülöpháza	46,8914016	19,4432493
Bács-Kiskun	HU 331 TH 00185	Kollár Sándor	6041	Kerekegyháza	Kölcsey u. 54	Kölcsey u. 54 , 6041 , Kerekegyháza	46,9391231	19,4655199
Bács-Kiskun	HU 331 TH 00186	Ludányi Mihály	6041	Kerekegyháza	Kunpuszta 130	Kunpuszta 130 , 6041 , Kerekegyháza	46,9182593	19,4440184
Bács-Kiskun	HU 331 TH 00187	Markacz Ilona	6041	Kerekegyháza	Akácfa u. 25	Akácfa u. 25 , 6041 , Kerekegyháza	46,9445676	19,4845793
Bács-Kiskun	HU 331 TH 00188	Ordasi Gábor	6041	Kerekegyháza	Kölcsey u. 38	Kölcsey u. 38 , 6041 , Kerekegyháza	46,9400949	19,4641216
Bács-Kiskun	HU 331 TH 00189	Pál Gáborné	6042	Fülöpháza	II. körzet 110	II. körzet 110 , 6042 , Fülöpháza	46,8914016	19,4432493
Bács-Kiskun	HU 331 TH 00190	Planéta Ferenc	6041	Kerekegyháza	Deák F. u. 1	Deák F. u. 1 , 6041 , Kerekegyháza	46,9379308	19,4820691
Bács-Kiskun	HU 331 TH 00191	Szivák Sándor	6041	Kerekegyháza	Rákóczi u. 89/a	Rákóczi u. 89/a , 6041 , Kerekegyháza	46,933889	19,48388
Bács-Kiskun	HU 331 TH 00192	Virág Mihály	6041	Kerekegyháza	Repülő dűlő 35	Repülő dűlő 35 , 6041 , Kerekegyháza	46,9634944	19,4582733
Bács-Kiskun	HU 331 TH 00193	Zupka György	6041	Kerekegyháza	Falu dűlő 9	Falu dűlő 9 , 6041 , Kerekegyháza	46,9487298	19,4783227
Bács-Kiskun	HU 331 TH 00194	Kaldenekker Szabolcs	6041	Kerekegyháza	Akácfa u. 19	Akácfa u. 19 , 6041 , Kerekegyháza	46,9452474	19,4834904
Bács-Kiskun	HU 331 TH 00195	Pánczél László	6041	Kerekegyháza	Kun u. 5	Kun u. 5 , 6041 , Kerekegyháza	46,9449048	19,4818491
Bács-Kiskun	HU 331 TH 00208	Virág István	6000	Kecskemét-Méntelek	tanya 233	tanya 233 , 6000 , Kecskemét-Méntelek	46,9791369	19,574102
Bács-Kiskun	HU 331 TH 00203	Németh Attila	6000	Kecskemét-Méntelek	tanya 196	tanya 196 , 6000 , Kecskemét-Méntelek	46,9791369	19,574102
Bács-Kiskun	HU 331 TH 00207	Polyák Márk Gergely	6000	Kecskemét-Méntelek	tanya 256	tanya 256 , 6000 , Kecskemét-Méntelek	46,9791369	19,574102
Bács-Kiskun	HU 331 TH 00211	Horváth Sándor Zoltán	6000	Kecskemét	Szalag u. 26	Szalag u. 26 , 6000 , Kecskemét	47,5013422	19,0374598
Bács-Kiskun	HU 331 TH 00206	Orlov Mihály	6000	Kecskemét-Méntelek	tanya 229	tanya 229 , 6000 , Kecskemét-Méntelek	46,9791369	19,574102
Bács-Kiskun	HU 331 TH 00200	Gál Mihály	6000	Kecskemét-Méntelek	tanya 164	tanya 164 , 6000 , Kecskemét-Méntelek	46,9791369	19,574102
Bács-Kiskun	HU 331 TH 00210	Kovács Anna	6000	Kecskemét-Méntelek	tanya 12	tanya 12 , 6000 , Kecskemét-Méntelek	46,9791369	19,574102
Bács-Kiskun	HU 331 TH 00205	Takács Miklós Mihályné	6000	Kecskemét-Méntelek	Őszibarack u. 5	Őszibarack u. 5 , 6000 , Kecskemét-Méntelek	46,9815794	19,5686039
Bács-Kiskun	HU 331 TH 00209	Virág Ferenc	6000	Kecskemét-Méntelek	tanya 12	tanya 12 , 6000 , Kecskemét-Méntelek	46,9791369	19,574102
Bács-Kiskun	HU 331 TH 00204	Tormási László	6000	Kecskemét-Méntelek	tanya 196	tanya 196 , 6000 , Kecskemét-Méntelek	46,9791369	19,574102
Baranya	HU-231-TH-00015	Belvárdgyulai Mezőgazdasági Zrt.	7664	Berkesd	Hrsz.  012/2, 018/6	Hrsz.  012/2, 018/6 , 7664 , Berkesd	46,0766759	18,4078442
Baranya	HU-223-TH-00037	Székely Szilárd	7391	Kisbeszterce	Székely Major 1.	Székely Major 1. , 7391 , Kisbeszterce	46,2054937	18,033257
Békés	HU-332-TH-00018	Békési Egyetértés Szarvasmarhatenyésztő Kft.	5641	Tarhos	Berke major Hrsz. 0322/5	Berke major Hrsz. 0322/5 , 5641 , Tarhos	46,8132012	21,2109597
Békés	HU-332-TH-00019	CDG Agráripari és Állattenyésztő Kft.	5662	Csanádapáca	Hrsz 049	Hrsz 049 , 5662 , Csanádapáca	46,539984	20,886843
Békés	HU-332-TH-00008	Csorvási Gazdák Mezőgazdasági Termelő és Értékesítő Zrt.	5920	Csorvás	Tanya 152	Tanya 152 , 5920 , Csorvás	46,6463872	20,8000082
Békés	HU-332-TH-00016	For Milk Mezőgazdasági Termelő és Szolgáltató Kft.	5675	Telekgerendás	Külterület 86/A	Külterület 86/A , 5675 , Telekgerendás	46,6396493	20,9400761
Békés	HU-332-TH-00005	Gyulai Agrár Zrt.	5700	Gyula	Szeregyháza         Hrsz. 0733	Szeregyháza         Hrsz. 0733 , 5700 , Gyula
Békés	HU-332-TH-00007	Hidasháti Mezőgazdasági Zrt.	5630	Békés	VIII. kerület 18.	VIII. kerület 18. , 5630 , Békés	47,4894184	19,070668
Békés	HU-332-TH-00009	Holstein Farm Kft.	5925	Gerendás	Tanya 317	Tanya 317 , 5925 , Gerendás	46,597731	20,8626
Békés	HU-332-TH-00004	Körös-Maros Biofarm Kft.	5711	Gyula	Külterület 2.	Külterület 2. , 5711 , Gyula	46,649301	21,33987
Békés	HU-332-TH-00013	Mazula Béla	5662	Csanádapáca	Rákóczi Ferenc utca 64.	Rákóczi Ferenc utca 64. , 5662 , Csanádapáca	46,5435072	20,895282
Békés	HU-332-TH-00010	Nemzeti Ménesbirtok és Tangazdaság  Zrt.	5820	Mezőhegyes	11-es Major            Hrsz. 0454/8	11-es Major            Hrsz. 0454/8 , 5820 , Mezőhegyes	46,3172449	20,8173892
Békés	HU-332-TH-00003	Munkács Tej Kft.	5700	Gyula	Pejrét 2.	Pejrét 2. , 5700 , Gyula	46,633357	21,184999
Békés	HU-332-TH-00006	Rákóczi Mezőgazdasági Szövetkezet	5674	Kétsoprony	Hrsz. 090	Hrsz. 090 , 5674 , Kétsoprony	46,7208319	20,8870273
Békés	HU-332-TH-00015	Rock-Dairy Kft	5811	Végegyháza	Hrsz. 103	Hrsz. 103 , 5811 , Végegyháza	46,3736372	20,8607167
Békés	HU-332-TH-00011	Rózsás Major Mezőgazdasági Termelő Szolgáltató és Kereskedelmi Kft.	5540	Szarvas	V.kk.230 Hrsz. 0370/2	V.kk.230 Hrsz. 0370/2 , 5540 , Szarvas	46,8635641	20,5526535
Békés	HU-332-TH-00012	Seres Ferenc András	5700	Gyula	Damjanich u. 20/a	Damjanich u. 20/a , 5700 , Gyula	46,643124	21,2772645
Békés	HU-332-TH-00017	Vadas Mezőgazdasági Termelő és Kereskedelmi Zrt.	5643	Bélmegyer	Újmajor	Újmajor , 5643 , Bélmegyer	46,8717575	21,1994681
Békés	HU-332-TH-00014	Szarvasi Agrár Zrt.	5556	Örménykút	VI. kerület 119	VI. kerület 119 , 5556 , Örménykút	46,837743	20,7520506
Békés	HU-332-TH-00014	Szarvasi Agrota Alcsired Kft.	5540	Szarvas	II. kerület Tanya 204.	II. kerület Tanya 204. , 5540 , Szarvas	46,8533489	20,6122334
Békés	HU-332-TH-00024	Macskási Tejtermelő Zrt.	5525	Füzesgyarmat	Macskási major	Macskási major , 5525 , Füzesgyarmat	47,106307	21,211067
Békés	HU-332-TH-00025	Kórodi Ferenc	5836	Dombegyháza	Külterület 013/10 hrsz.	Külterület 013/10 hrsz. , 5836 , Dombegyháza	46,3415879	21,1342664
Békés	HU-332-TH-00021	Mezőkovácsházi Új Alkotmány Mezőgazdasági Szolgáltató Kft.	5800	Mezőkovácsháza	Henrik major külterület 0117 hrsz.	Henrik major külterület 0117 hrsz. , 5800 , Mezőkovácsháza	46,4093003	20,9112692
Békés	HU-332-TH-00022	Haladás Plus Mezőgazdasági Szolgáltató Kft.	5666	Medgyesegyháza	Külterület 0146/1 hrsz.	Külterület 0146/1 hrsz. , 5666 , Medgyesegyháza	46,498758	21,0462052
Békés	HU-332-TH-00031	Kisdombegyházi Agro-Ferr Mezőgazdasági Termelő és Szolgáltató Kft.	5836	Dombegyháza	Nyéki major 0165/9 hrsz	Nyéki major 0165/9 hrsz , 5836 , Dombegyháza	46,353253	21,098587
Békés	HU-332-TH-00027	Gyoma Trade Kft.	5500	Gyomaendrőd	Tanya 113.	Tanya 113. , 5500 , Gyomaendrőd	46,9751929	20,8249924
Békés	HU-332-TH-00026	Fríz Tej Kft.	5553	Kondoros	Külterület Tanya 11 sz.	Külterület Tanya 11 sz. , 5553 , Kondoros	46,7444354	20,8147156
Békés	HU-332-TH-00030	Art-Farm Kft.	5551	Csabacsűd	Tanya 406	Tanya 406 , 5551 , Csabacsűd	46,7790939	20,6311484
Békés	HU-332-TH-00029	Rózsási Állattenyésztési Kft.	5540	Szarvas	0254/8-9 hrsz.	0254/8-9 hrsz. , 5540 , Szarvas	46,8533489	20,6122334
Békés	HU-332-TH-00032	Kovácsné dr. Kutasi Erzsébet	5520	Szeghalom	Töviskes 11160/22 hrsz.	Töviskes 11160/22 hrsz. , 5520 , Szeghalom	47,1039689	21,0763049
Békés	HU-332-TH-00028	Laktárius Kft.	5540	Szarvas	II. kerület Káka központ 263	II. kerület Káka központ 263 , 5540 , Szarvas	46,8079534	20,5280921
Békés	HU-332-TH-00029	Rózsási Állattenyésztési Kft.	5540	Szarvas	Hrsz. 0254/8-9	Hrsz. 0254/8-9 , 5540 , Szarvas	46,8635641	20,5526535
Békés	HU-332-TH-00035	Tárnok Sándorné	5520	Szeghalom	Hrsz. 0231	Hrsz. 0231 , 5520 , Szeghalom	47,0308105	21,1709728
Békés	HU-332-TH-00036	Kőrös 2000 Kft.	5520	Szeghalom	Halas Major	Halas Major , 5520 , Szeghalom	47,0308105	21,1709728
Békés	HU-332-TH-00040	Vegetáció Kft.	5900	Orosháza	Belsőhosszúsor 2.	Belsőhosszúsor 2. , 5900 , Orosháza	46,572927	20,691092
Békés	HU-332-TH-00039	Béke Agrár Kft.	5900	Orosháza	Északi sor 1.	Északi sor 1. , 5900 , Orosháza	47,599002	21,5561598
Békés	HU-332-TH-00038	Agro M Zrt.	5900	Orosháza	Virágos dűlő 40.	Virágos dűlő 40. , 5900 , Orosháza	46,5921906	20,7140348
Békés	HU-332-TH-00033	Agrolakt Tejtermelő Kft.	5650	Mezőberény	Rákóczi major 012 hrsz.	Rákóczi major 012 hrsz. , 5650 , Mezőberény	46,8218187	21,0181101
Békés	HU-332-TH-00034	Bencsik János Pál	5672	Murony	IV. kerület 2.	IV. kerület 2. , 5672 , Murony	46,7622489	21,0389365
Békés	HU-332-TH-00037	Vértes Gábor	5622	Kőröstarcsa	Külterület 21.	Külterület 21. , 5622 , Kőröstarcsa	46,8882338	21,0152196
Békés	HU-332-TH-00043	Váczi és Trsa Kft.	5720	Sarkad	Bercsényi u. 35.	Bercsényi u. 35. , 5720 , Sarkad	46,7400441	21,3591886
Békés	HU-332-TH-00044	Dán és Társa Mezőgazdasági Termelő Szolgáltató Bt.	5530	Vésztő	Kótpuszta, Külterület (0555/14 hrsz.)	Kótpuszta, Külterület (0555/14 hrsz.) , 5530 , Vésztő	46,957448	21,33646
Borsod	HU-311-TH-00003	Akácvölgye Mezőgazdasági és Szolgáltató kft.	3974	Semjén	Hrsz. 032	Hrsz. 032 , 3974 , Semjén	48,3521396	21,9671011
Borsod	HU-311-TH-00002	Akácvölgye Mezőgazdasági és Szolgáltató kft.	3950	Sárospatak	Apróhomok Hrsz. 0455/2	Apróhomok Hrsz. 0455/2 , 3950 , Sárospatak	48,2658929	21,5837359
Borsod	HU-311-TH-00010	Dél-borsodi Agrár Kft.	3444	Gelej	Vörösmarty u. 19.	Vörösmarty u. 19. , 3444 , Gelej	47,8327639	20,7734683
Borsod	HU-311-TH-00009	Emődi Mezőgazdasági Zrt.	3432	Emőd	Keresztesi u. 10.	Keresztesi u. 10. , 3432 , Emőd	47,9286069	20,803526
Borsod	HU-311-TH-00001	Geo-Fríz Kft.	3562	Onga	Bogsin tanya Hrsz. 0263/6	Bogsin tanya Hrsz. 0263/6 , 3562 , Onga	48,150167	20,938675
Borsod	HU-311-TH-00007	GTO Start Kft.	3564	Hernádnémeti	Külterület Hrsz. 058/16	Külterület Hrsz. 058/16 , 3564 , Hernádnémeti	48,071895	20,9733761
Borsod	HU-311-TH-00008	Haladás Szövetkezet Bőcs	3574	Bőcs	Munkácsy u. 42	Munkácsy u. 42 , 3574 , Bőcs	48,0360792	20,9700742
Borsod	HU-311-TH-00004	Lippai István Lóránd	3974	Simon	Domb u. 14.	Domb u. 14. , 3974 , Simon
Borsod	HU-311-TH-00006	Szirmaterm Mezőgazdasági Kereskedelmi Szolgáltató Kft.	3555	Harsány	Hrsz. 041/7	Hrsz. 041/7 , 3555 , Harsány	47,9642821	20,7377849
Borsod	HU-311-TH-00011	Varga Pálné	3987	Bodroghalom	Új Tanya 0108/2 hrsz	Új Tanya 0108/2 hrsz , 3987 , Bodroghalom	48,3009977	21,707044
Borsod	HU-311-TH-00012	Csikai László	3929	Tiszaladány	Külterület 069/2 hrsz	Külterület 069/2 hrsz , 3929 , Tiszaladány	48,0621067	21,4101619
Borsod	HU-311-TH-00013	Takta Ipari és mezőgazdasági Termelő és Szolgáltató Kft.	3927	Csobaj	2. számú telep 057/4	2. számú telep 057/4 , 3927 , Csobaj	48,0485163	21,3382189
Borsod	HU-311-TH-00014	Pásztor János	3915	Tarcal	Vásártér tanya 0249/2 hrsz	Vásártér tanya 0249/2 hrsz , 3915 , Tarcal	48,1094497	21,3332997
Borsod	HU-311-TH-00015	Ivanics Imre	3927	Csobaj	Külterület 057/3 hrsz	Külterület 057/3 hrsz , 3927 , Csobaj	48,0485163	21,3382189
Borsod	HU-311-TH-00017	Simkó Jánosné	3916	Bodrogkeresztúr	Kastély köz 16.	Kastély köz 16. , 3916 , Bodrogkeresztúr	48,1681951	21,356695
Borsod	HU-311-TH-00003	Akácvölgye Mezőgazdasági és Szolgáltató Kft.	3974	Semjén	Külterület telep 032	Külterület telep 032 , 3974 , Semjén	48,3521396	21,9671011
Borsod	HU-311-TH-00002	Geo Milk Növénytermesztő és Szarvasmarhatenyésztő és Szolgáltató Kft.	3950	Sárospatak	Apróhomok Dorkó telep	Apróhomok Dorkó telep , 3950 , Sárospatak	48,2474759	21,631913
Borsod	HU-311-TH-00025	Kenézlő Dózsa Mezőgazdasági Zrt.	3955	Kenézlő	050 hrsz	050 hrsz , 3955 , Kenézlő	48,2004193	21,5311235
Borsod	HU-311-TH-00024	Gondáné Kiss Mária	3932	Erdőbénye Liget tanya	029/2 hrsz	029/2 hrsz , 3932 , Erdőbénye Liget tanya	48,2662769	21,3547995
Borsod	HU-311-TH-00026	Polyán Egyesület	3989	Vilyvitány	0133/3 hrsz	0133/3 hrsz , 3989 , Vilyvitány	48,4952223	21,5589737
Borsod	HU-311-TH-00027	Miklós Rudolf	3989	Vilyvitány	0128 hrsz	0128 hrsz , 3989 , Vilyvitány	48,4952223	21,5589737
Borsod	HU-311-TH-00028	Juhász Béla	3989	Mikóháza	036/1-036/2 hrsz	036/1-036/2 hrsz , 3989 , Mikóháza	48,4617944	21,592572
Borsod	HU-311-TH-00029	Juhász Sándor	3989	Mikóháza	Külterület 036/1 hrsz	Külterület 036/1 hrsz , 3989 , Mikóháza	48,4617944	21,592572
Borsod	HU-311-TH-00030	Juhász Péter Sándor	3989	Mikóháza	Külterület 036/2/A hrsz	Külterület 036/2/A hrsz , 3989 , Mikóháza	48,4617944	21,592572
Borsod	HU-311-TH-00019	Szerencsi Mg. Tsz.	3900	Szerencs	Vince tanya 0109/1 hrsz	Vince tanya 0109/1 hrsz , 3900 , Szerencs	48,1655279	21,2045743
Borsod	HU-311-TH-00020	Bio Goods Kft.	3526	Újcsanálos	Felső tanya 029/2 hrsz	Felső tanya 029/2 hrsz , 3526 , Újcsanálos	48,1380468	21,0036907
Borsod	HU-311-TH-00022	Gulyás István	3571	Alsózsolca	Cinegés tanya	Cinegés tanya , 3571 , Alsózsolca	48,0582846	20,8909243
Borsod	HU-311-TH-00023	Bihari Tibor	3931	Mezőzombor	Fehér tó tanya	Fehér tó tanya , 3931 , Mezőzombor	48,1501209	21,2575954
Borsod	HU-311-TH-00023	Bodó József	3554	Bükkaranyos	Bodó tanya	Bodó tanya , 3554 , Bükkaranyos	47,9920891	20,7822121
Borsod	HU-311-TH-00021	Hagisz Mg Zrt.	3842	Halmaj	Központi telep	Központi telep , 3842 , Halmaj	48,246489	20,996326
Borsod	HU-311-TH-00016	Ivanics Imre Andrásné	3927	Csobaj	Külterület 057/3 hrsz	Külterület 057/3 hrsz , 3927 , Csobaj	48,0485163	21,3382189
Borsod	HU-311-TH-00018	Zubik Józsefné	3987	Bodroghalom	Szabadság u. 172	Szabadság u. 172 , 3987 , Bodroghalom	48,2908983	21,6991141
Borsod	HU-311-TH-00038	Pécsi József	3579	Kiscsécs	Dózsa György u. 2.	Dózsa György u. 2. , 3579 , Kiscsécs	47,965874	21,011977
Csongrád	HU-333-TH-00003	Borbola János	6793	Forráskút	Átokháza dűlő 85. hrsz. 0317	Átokháza dűlő 85. hrsz. 0317 , 6793 , Forráskút	46,35001	19,9143305
Csongrád	HU-333-TH-00001	Vass Brigitta	6793	Forráskút	Gyapjas dűlő 43.	Gyapjas dűlő 43. , 6793 , Forráskút	46,381031	19,9011431
Csongrád	HU-333-TH-00006	Veszelinov Dániel	6754	Újszentiván	Felszabadulás u. 8/b	Felszabadulás u. 8/b , 6754 , Újszentiván	46,1874974	20,1796763
Csongrád	HU-333-TH-00004	Bódi Ferenc István	6756	Tiszasziget	Béke u. 14	Béke u. 14 , 6756 , Tiszasziget	46,1697033	20,1665589
Csongrád	HU-333-TH-00005	Bódi Ferencné	6756	Tiszasziget	Béke u. 14	Béke u. 14 , 6756 , Tiszasziget	46,1697033	20,1665589
Csongrád	HU-333-TH-00011	Börcsök József	6710	Szeged	Harcos u. 107	Harcos u. 107 , 6710 , Szeged	46,2114787	20,0648864
Csongrád	HU-333-TH-00007	Csányi István	6756	Tiszasziget	Béke u. 12	Béke u. 12 , 6756 , Tiszasziget	46,1698553	20,1667678
Csongrád	HU-333-TH-00010	Márkiné Széchi Katalin	6781	Domaszék	Tanya 677	Tanya 677 , 6781 , Domaszék	46,253213	20,0046626
Csongrád	HU-333-TH-00009	Sebők Attiláné	6781	Domaszék	Vasút u.22	Vasút u.22 , 6781 , Domaszék	46,245483	20,008361
Csongrád	HU-333-TH-00017	Makai Zoltán	6640	Csongrád	Tanya 70.	Tanya 70. , 6640 , Csongrád	46,7191121	20,1066628
Csongrád	HU-333-TH-00017	Makai Imréné	6640	Csongrád	Tanya 70.	Tanya 70. , 6640 , Csongrád	46,7191121	20,1066628
Csongrád	HU-333-TH-00013	Agrár Ker Mezőgazdasági és Szolgáltató Kft.	6913	Csanádpalota	0186/9 hrsz.	0186/9 hrsz. , 6913 , Csanádpalota	46,2435593	20,7025748
Csongrád	HU-333-TH-00014	Zombortej Kft.	6775	Kiszombor	Nagyszentmiklósi út Fortner tanya	Nagyszentmiklósi út Fortner tanya , 6775 , Kiszombor	46,1856953	20,4265486
Csongrád	HU-333-TH-00015	Makói Hagymakertész Kft.	6900	Makó	Királyhegyesi út 0626/3 hrsz.	Királyhegyesi út 0626/3 hrsz. , 6900 , Makó	46,2215169	20,498787
Csongrád	HU-333-TH-00016	Négy Határ 99 Kft.	6914	Pitvaros	Deák Ferenc u. 2.	Deák Ferenc u. 2. , 6914 , Pitvaros	46,326236	20,743125
Csongrád	HU-333-TH-00039	Elek András István	6821	Székkutas	VII. körzet 54	VII. körzet 54 , 6821 , Székkutas	46,5061804	20,5301817
Csongrád	HU-333-TH-00040	Elekné Kiss Erzsébet	6821	Székkutas	VII. körzet 54	VII. körzet 54 , 6821 , Székkutas	46,5061804	20,5301817
Csongrád	HU-333-TH-00038	Molnár József	6800	Hódmezővásárhely	Tanya 1428	Tanya 1428 , 6800 , Hódmezővásárhely	46,4199346	20,3474549
Csongrád	HU-333-TH-00037	Tonkó Tibor	6800	Hódmezővásárhely	0516/151	0516/151 , 6800 , Hódmezővásárhely	46,4199346	20,3474549
Csongrád	HU-333-TH-00036	Halász Imre	6800	Hódmezővásárhely	Tanya 1526	Tanya 1526 , 6800 , Hódmezővásárhely	46,4199346	20,3474549
Csongrád	HU-333-TH-00035	Szunyi Jánosné Nagypál Emília	6636	Mártély	Tanya 310	Tanya 310 , 6636 , Mártély	46,4679227	20,2502494
Csongrád	HU-333-TH-00034	Nagypál Ferenc	6636	Mártély	Tanya 310	Tanya 310 , 6636 , Mártély	46,4679227	20,2502494
Csongrád	HU-333-TH-00031	Vásárhelyi Róna Mg. Tsz.	6800	Hódmezővásárhely	Hrsz 0607/1-3 01211/12	Hrsz 0607/1-3 01211/12 , 6800 , Hódmezővásárhely	46,4181262	20,3300315
Csongrád	HU-333-TH-00026	Barna Imre	6800	Hódmezővásárhely	Tanya 3276	Tanya 3276 , 6800 , Hódmezővásárhely	46,4199346	20,3474549
Csongrád	HU-333-TH-00029	Csáki Lajos	6800	Hódmezővásárhely	Hrsz 1714/17 01718/2	Hrsz 1714/17 01718/2 , 6800 , Hódmezővásárhely	46,4181262	20,3300315
Csongrád	HU-333-TH-00027	Hódagro Mg. Termelő Szövetkezet	6800	Hódmezővásárhely	Hrsz. 01884/1	Hrsz. 01884/1 , 6800 , Hódmezővásárhely	46,4181262	20,3300315
Csongrád	HU-333-TH-00030	Hód Mezőgazda Zrt.	6800	Hódmezővásárhely	Hrsz. 01261/10	Hrsz. 01261/10 , 6800 , Hódmezővásárhely	46,4181262	20,3300315
Csongrád	HU-333-TH-00025	Kucsoráné Kobzi Éva	6800	Hódmezővásárhely	Hrsz. 0717/4	Hrsz. 0717/4 , 6800 , Hódmezővásárhely	46,4199346	20,3474549
Csongrád	HU-333-TH-00028	Pál Dezső Mihályné	6800	Hódmezővásárhely	Hrsz. 01784/11	Hrsz. 01784/11 , 6800 , Hódmezővásárhely	46,4181262	20,3300315
Csongrád	HU-333-TH-00033	Tejút 2000 Kft.	6821	Székkutas	Hrsz. 0116/32	Hrsz. 0116/32 , 6821 , Székkutas	46,5063976	20,537673
Csongrád	HU-333-TH-00045	SZTE Tangazdaság Kft.	6800	Hódmezővásárhely	Hrsz. 0521	Hrsz. 0521 , 6800 , Hódmezővásárhely	46,4199346	20,3474549
Csongrád	HU-333-TH-00043	Gorzsai Mg Tsz	6922	Földeák	Hrsz. 075/9	Hrsz. 075/9 , 6922 , Földeák	46,3047691	20,4828757
Csongrád	HU-333-TH-00042	Gorzsai Mg Tsz	6800	Hódmezővásárhely	Hrsz. 083/8	Hrsz. 083/8 , 6800 , Hódmezővásárhely	46,4181262	20,3300315
Csongrád	HU-333-TH-00023	Agro-Gárda Zrt.	6624	Eperjes	Tanya 297	Tanya 297 , 6624 , Eperjes	46,7088168	20,5608469
Csongrád	HU-333-TH-00024	Aranykalász Mezőgazdasági Szövetkezet	6621	Derekegyház	Tompahát 6366/55 hrsz	Tompahát 6366/55 hrsz , 6621 , Derekegyház	46,5406779	20,406714
Csongrád	HU-333-TH-00022	Árpád Agrár Zrt.	6600	Szentes	Kistőke-Szegi tanya	Kistőke-Szegi tanya , 6600 , Szentes	46,721048	20,284719
Csongrád	HU-333-TH-00021	Kinizsi 2000 Zrt.	6625	Fábiánsebestyén	Külső dűlő 111.	Külső dűlő 111. , 6625 , Fábiánsebestyén	46,6700335	20,4500103
Csongrád	HU-333-TH-00020	Nagymágocsi Farmer Kft.	6622	Nagymágocs	Lajosszállás 0219 hrsz.	Lajosszállás 0219 hrsz. , 6622 , Nagymágocs	46,5857132	20,4833875
Csongrád	HU-333-TH-00019	Puskin Tej Kft.	6635	Szegvár	III. kerület 9.	III. kerület 9. , 6635 , Szegvár	47,5671768	19,0368517
Csongrád	HU-333-TH-00012	Bonavitus Kft.	6792	Zsombó	Márták dűlő 23.	Márták dűlő 23. , 6792 , Zsombó	46,3334469	20,0146558
Csongrád	HU-333-TH-00041	Csanyteleki Agrárszövetkezet	6647	Csanytelek	Tisza út 18/A	Tisza út 18/A , 6647 , Csanytelek	46,5976253	20,1170629
Csongrád	HU-333-TH-00046	Magony Ferenc	6640	Csongrád	Tanya 80.	Tanya 80. , 6640 , Csongrád	46,7191121	20,1066628
Csongrád	HU-333-TH-00051	Baranyi Csaba	6775	Kiszombor	Szántó Kovács J. u. 52.	Szántó Kovács J. u. 52. , 6775 , Kiszombor	46,188182	20,4405905
Csongrád	HU-333-TH-00050	Győri Imre	6900	Makó	Ugar tanya 50/3.	Ugar tanya 50/3. , 6900 , Makó	46,2533903	20,5204597
Csongrád	HU-333-TH-00047	Kovács László	6900	Makó	Ószegedi út 16.	Ószegedi út 16. , 6900 , Makó	46,2149125	20,4541311
Csongrád	HU-333-TH-00049	Mészáros Andor	6922	Földeák	Táncsics Mihály u. 52.	Táncsics Mihály u. 52. , 6922 , Földeák	46,32214	20,4930471
Csongrád	HU-333-TH-00052	Gut Pál	6646	Tömörkény	Bánomhegyi dűlő 53.	Bánomhegyi dűlő 53. , 6646 , Tömörkény
Csongrád	HU-333-TH-00054	Keller Józsefné	6645	Felgyő	V.k. 47.	V.k. 47. , 6645 , Felgyő	46,6570332	20,0941641
Csongrád	HU-333-TH-00053	Varga Pálné	6640	Csongrád	Tanya 224	Tanya 224 , 6640 , Csongrád	46,7085028	20,0875196
Csongrád	HU-333-TH-00065	Héjja Attila	6800	Hódmezővásárhely	Bordás Tanya 4013	Bordás Tanya 4013 , 6800 , Hódmezővásárhely	46,4017323	20,284997
Csongrád	HU-333-TH-00066	Kristó Zoltán	6800	Hódmezővásárhely	Gosztonyi J. u. 6.	Gosztonyi J. u. 6. , 6800 , Hódmezővásárhely	46,4033301	20,3031336
Csongrád	HU-333-TH-00067	Németh Zsolt	6821	Székkutas	Gosztonyi J. u. 6.	Gosztonyi J. u. 6. , 6821 , Székkutas	46,5061804	20,5301817
Csongrád	HU-333-TH-00073	Rébék Nagy Sándorné	6800	Hódmezővásárhely	Tanya 2046.	Tanya 2046. , 6800 , Hódmezővásárhely	46,4199346	20,3474549
Csongrád	HU-333-TH-00069	Dajka Andrásné	6821	Székkutas	Hrsz.: 0331/4 és 0332/19	Hrsz.: 0331/4 és 0332/19 , 6821 , Székkutas	46,5063976	20,537673
Csongrád	HU-333-TH-00070	Forrai István Lajosné	6800	Hódmezővásárhely	Dózsa György u. 93.	Dózsa György u. 93. , 6800 , Hódmezővásárhely	46,4256934	20,3086354
Csongrád	HU-333-TH-00068	Bánfiné Vári Helga	6800	Hódmezővásárhely	Hrsz.: 839/8	Hrsz.: 839/8 , 6800 , Hódmezővásárhely	46,4199346	20,3474549
Csongrád	HU-333-TH-00071	Gyapjas Sándor	6800	Hódmezővásárhely	Hrsz.: 2024	Hrsz.: 2024 , 6800 , Hódmezővásárhely	46,4181262	20,3300315
Csongrád	HU-333-TH-00072	Paksi Márta	6800	Hódmezővásárhely	Tanya 4285	Tanya 4285 , 6800 , Hódmezővásárhely	46,4199346	20,3474549
Csongrád	HU-333-TH-00074	Török Imre	6800	Hódmezővásárhely	Hrsz: 0323/5	Hrsz: 0323/5 , 6800 , Hódmezővásárhely	46,4199346	20,3474549
Csongrád	HU-333-TH-00081	Kiss István	6630	Mindszent	Ady E. u. 48.	Ady E. u. 48. , 6630 , Mindszent	46,5322041	20,1891368
Csongrád	HU-333-TH-00075	Bugyi Imréné	6630	Mindszent	Táncsics Mihály u. 8.	Táncsics Mihály u. 8. , 6630 , Mindszent	46,5275932	20,1810797
Csongrád	HU-333-TH-00076	Csende László	6800	Hódmezővásárhely	Szikács, Petófi Sándor u. 14.	Szikács, Petófi Sándor u. 14. , 6800 , Hódmezővásárhely	46,361015	20,4478717
Csongrád	HU-333-TH-00078	Karácsonyi Pál	6800	Hódmezővásárhely	Tanya 1024.	Tanya 1024. , 6800 , Hódmezővásárhely	46,4199346	20,3474549
Csongrád	HU-333-TH-00079	Kis Lajosné	6800	Hódmezővásárhely	Róka u. 16.	Róka u. 16. , 6800 , Hódmezővásárhely	46,4225668	20,34079
Csongrád	HU-333-TH-00064	Olasz Sándor	6800	Hódmezővásárhely	Tanya 4012	Tanya 4012 , 6800 , Hódmezővásárhely	46,4199346	20,3474549
Csongrád	HU-333-TH-00061	Takács Istvánné	6630	Mindszent	Tanya 446	Tanya 446 , 6630 , Mindszent	46,5351962	20,2113783
Csongrád	HU-333-TH-00083	Kapunovics József	6800	Hódmezővásárhely	Kert u. 28.	Kert u. 28. , 6800 , Hódmezővásárhely	46,4239889	20,3483064
Csongrád	HU-333-TH-00084	Ménesi István	6800	Hódmezővásárhely	Hrsz: 20951	Hrsz: 20951 , 6800 , Hódmezővásárhely	46,4199346	20,3474549
Csongrád	HU-333-TH-00085	Oláh Sándor	6800	Hódmezővásárhely	Délibáb u. 37.	Délibáb u. 37. , 6800 , Hódmezővásárhely	46,4080026	20,349716
Csongrád	HU-333-TH-00082	Kristó Zoltánné	6636	Mártély	Hrsz.: 0/22 és Hmvhely Gosztonyi J u. 6.	Hrsz.: 0/22 és Hmvhely Gosztonyi J u. 6. , 6636 , Mártély	46,4682451	20,2416146
Csongrád	HU-333-TH-00062	Ördögné Kiss Mónika	6630	Mindszent	Áchim András u. 3.	Áchim András u. 3. , 6630 , Mindszent	46,5186282	20,1913567
Csongrád	HU-333-TH-00060	Végh Mihály	6800	Hódmezővásárhely	Tanya 6.	Tanya 6. , 6800 , Hódmezővásárhely	46,4199346	20,3474549
Csongrád	HU-333-TH-00063	Révész Pál Zoltánné	6800	Hódmezővásárhely	Hrsz.: 5993	Hrsz.: 5993 , 6800 , Hódmezővásárhely	46,4199346	20,3474549
Csongrád	HU-333-TH-00057	Tülkös István	6766	Dóc	Petőfi Sándor u. 4.	Petőfi Sándor u. 4. , 6766 , Dóc	46,4391713	20,1342414
Csongrád	HU-333-TH-00059	Faragó Tibor	6766	Dóc	Kossuth u. 7-9.	Kossuth u. 7-9. , 6766 , Dóc
Csongrád	HU-333-TH-00056	Korom Lajos	6766	Dóc	Bodorszék 47.	Bodorszék 47. , 6766 , Dóc	46,435295	20,075058
Csongrád	HU-333-TH-00055	Balog János	6795	Csengele	Tanya 213	Tanya 213 , 6795 , Csengele	46,5490745	19,8331884
Csongrád	HU-333-TH-00058	Faragó Sándor	6766	Dóc	József A. u. 4.	József A. u. 4. , 6766 , Dóc
Csongrád	HU-333-TH-00086	Palotás Ferencné	6767	Ópusztaszer	Karakás telep 485.	Karakás telep 485. , 6767 , Ópusztaszer	46,4766783	20,0314399
Csongrád	HU-333-TH-00088	Némethné Blazsek Zsuzsanna	6795	Csengele	Tanya 640.	Tanya 640. , 6795 , Csengele	46,5454215	19,837983
Csongrád	HU-333-TH-00046	Magony Ferenc	6640	Csongrád	Tanya 80.	Tanya 80. , 6640 , Csongrád	46,7191121	20,1066628
Csongrád	HU-333-TH-00090	Pigniczki László	6760	Kistelek	Tanya 309	Tanya 309 , 6760 , Kistelek	46,4692544	19,9796433
Csongrád	HU-333-TH-00087	Sipos Sándorné	6767	Ópusztaszer	Testhalom 41.	Testhalom 41. , 6767 , Ópusztaszer
Csongrád	HU-333-TH-00091	Sutka László	6764	Balástya	Gajgonya tanya, 198	Gajgonya tanya, 198 , 6764 , Balástya	46,444071	20,019178
Csongrád	HU-333-TH-00089	Horváth József Lászlóné	6762	Sándorfalva	Csúzdi dűlő 20	Csúzdi dűlő 20 , 6762 , Sándorfalva	46,4202205	20,1122446
Csongrád	HU-333-TH-00094	Bito Lászlo	6764	Balástya	Gajgonya tanya, 287	Gajgonya tanya, 287 , 6764 , Balástya	46,4583889	20,011365
Csongrád	HU-333-TH-00093	Mucsi Sándor	6764	Balástya	Tanya 494	Tanya 494 , 6764 , Balástya	46,4176471	19,978175
Csongrád	HU-333-TH-00092	Maczik Sándor	6764	Balástya	Gajgonya tanya 382	Gajgonya tanya 382 , 6764 , Balástya	46,4330799	20,055844
Csongrád	HU-333-TH-00105	Sutka László	6785	Pusztamérges	III. kerület 116.	III. kerület 116. , 6785 , Pusztamérges	46,3443098	19,7206843
Csongrád	HU-333-TH-00102	Négyökrű Istvánné	6785	Pusztamérges	Kossúth u. 97.	Kossúth u. 97. , 6785 , Pusztamérges	46,323885	19,690827
Csongrád	HU-333-TH-00103	Lajkó Dániel	6793	Forráskút	Gyapjas dűlő 7/1	Gyapjas dűlő 7/1 , 6793 , Forráskút	46,376777	19,897436
Csongrád	HU-333-TH-00104	Varga Lajos	6782	Mórahalom	VII. kerület 189.	VII. kerület 189. , 6782 , Mórahalom	47,5027289	19,073376
Csongrád	HU-333-TH-00100	Tari József	6794	Üllés	Árpád dűlő 112.	Árpád dűlő 112. , 6794 , Üllés	46,341791	19,799594
Csongrád	HU-333-TH-00098	Rokolya Kálmán	6787	Zákányszék	Tanya 392	Tanya 392 , 6787 , Zákányszék	46,2701854	19,8333273
Csongrád	HU-333-TH-00109	Szabó Tamás	6769	Pusztaszer	Tanya 254	Tanya 254 , 6769 , Pusztaszer	46,529323	19,992142
Csongrád	HU-333-TH-00108	Szabó Sándor	6769	Pusztaszer	Tanya 254	Tanya 254 , 6769 , Pusztaszer	46,529323	19,992142
Csongrád	HU-333-TH-000106	Ördögh Gábor	6781	Domaszék	Tanya 421	Tanya 421 , 6781 , Domaszék	46,2466283	19,9990365
Csongrád	HU-333-TH-00107	Túri Béla	6646	Tömörkény	Újmajori dűlő 39.	Újmajori dűlő 39. , 6646 , Tömörkény	46,616763	20,0417139
Csongrád	HU-333-TH-00097	Csányi Tibor László	6800	Hódmezővásárhely	Tanya 2032	Tanya 2032 , 6800 , Hódmezővásárhely	46,292077	20,4221669
Csongrád	HU 333 TH 00110	Kovács István Józsefné	6767	Ópusztaszer	Kis-zer hrsz.: 228.	Kis-zer hrsz.: 228. , 6767 , Ópusztaszer	46,4957061	20,0665358
Csongrád	HU 333 TH 00111	Németh Jánosné	6794	Üllés	Dorozsmai út 1.	Dorozsmai út 1. , 6794 , Üllés	46,3386585	19,8576835
Csongrád	HU-333-TH-00117	Vass Mihály Alex	6793	Forráskút	Gyapjas dűlő 43/1	Gyapjas dűlő 43/1 , 6793 , Forráskút	46,381031	19,9011431
Fejér	HU-211-TH-00009	Agárdi Farm Állattenyésztő és Növénytermelő Kft.	8111	Seregélyes	Elzamajor 0101/34 , 40 , 0108 hrsz.	Elzamajor 0101/34 , 40 , 0108 hrsz. , 8111 , Seregélyes	47,1445595	18,5737511
Fejér	HU-211-TH-00004	Agrobaracs Mezőgazdasági Zrt.	2427	Baracs Apátszállás	067/2, 069/2 hrsz	067/2, 069/2 hrsz , 2427 , Baracs Apátszállás	46,9136378	18,8682981
Fejér	HU-211-TH-00005	Annamajori Mezőgazdasági és Kereskedelmi Kft.	2471	Baracska	072/6 hrsz	072/6 hrsz , 2471 , Baracska	47,2741881	18,7640715
Fejér	HU-211-TH-00001	Arany János Mezőgazdasági Kft.	7011	Alap	Tavasz major 1. 0337/1 hrsz	Tavasz major 1. 0337/1 hrsz , 7011 , Alap
Fejér	HU-211-TH-00047	Aranybulla Mg Tsz. Zrt.	8000	Székesfehérvár	020216/4 hrsz.	020216/4 hrsz. , 8000 , Székesfehérvár	47,1980222	18,4351262
Fejér	HU-211-TH-00011	Bicskei Mezőgazdasági Termelő és Szolgáltató Zrt.	2091	Etyek	Ödönmajor 078,081, 082 hrsz.	Ödönmajor 078,081, 082 hrsz. , 2091 , Etyek	47,4267359	18,7708124
Fejér	HU-211-TH-00044	Cucer István	8143	Sárszentmihály	026/4 hrsz	026/4 hrsz , 8143 , Sárszentmihály	47,1634572	18,3394341
Fejér	HU-211-TH-00038	Cseprekál István	2465	Ráckersztúr	059/2 hrsz	059/2 hrsz , 2465 , Ráckersztúr	47,2834016	18,8290649
Fejér	HU-211-TH-00015	Csilléri Zoltán	7013	Cece	Széchenyi u. 17	Széchenyi u. 17 , 7013 , Cece	46,7621589	18,633152
Fejér	HU-211-TH-00034	Egyetértés Mezőgazdasági Kft.	8154	Polgárdi	Bálint major 394/2	Bálint major 394/2 , 8154 , Polgárdi	47,0631084	18,3041273
Fejér	HU-211-TH-00008	Enyingi Agrár Zrt.	8155	Polgárdi Kiscséripuszta	0265/10, 0265/11,0265/8,0265/9 hrsz	0265/10, 0265/11,0265/8,0265/9 hrsz , 8155 , Polgárdi Kiscséripuszta
Fejér	HU-211-TH-00006	Erigeron 1949 Kft.	2456	Besnyő	Szarvasmarhatelep	Szarvasmarhatelep , 2456 , Besnyő	47,1892568	18,7936832
Fejér	HU-211-TH-00039	Forster József	7000	Sárbogárd	0916/4 hrsz	0916/4 hrsz , 7000 , Sárbogárd	46,879104	18,6213353
Fejér	HU-211-TH-00041	Fülöpné Szigeti Zsuzsanna	8143	Sárszentmihály	Kossúth u. 35.	Kossúth u. 35. , 8143 , Sárszentmihály	47,156923	18,337816
Fejér	HU-211-TH-00028	Isztiméri Bakony Mg Kft.	8045	Isztimér	Hrsz 0281	Hrsz 0281 , 8045 , Isztimér	47,2736195	18,2075181
Fejér	HU-211-TH-00048	Gorsium Tej Kft.	8121	Tác	0308/2 hrsz	0308/2 hrsz , 8121 , Tác
Fejér	HU-211-TH-00040	Habi Tamás	8143	Sárszentmihály	Bagódomb	Bagódomb , 8143 , Sárszentmihály	47,1537282	18,3235014
Fejér	HU-211-TH-00016	Kuzsmiczkiné Szabó Márta	7013	Cece	0310/2 hrsz	0310/2 hrsz , 7013 , Cece	46,7693776	18,6541282
Fejér	HU-211-TH-00013	Lajoskomáromi Tejtermelő Kft.	8136	Lajoskomárom	062/44 hrsz	062/44 hrsz , 8136 , Lajoskomárom	46,8582522	18,3270466
Fejér	HU-211-TH-00030	Magyaralmási Agrár Zrt.	8071	Magyaralmás	Központi telep	Központi telep , 8071 , Magyaralmás	47,3002905	18,335932
Fejér	HU-211-TH-00010	Mezőfalvi Mezőgazdasági Termelő és Szolgáltató Kft.	2434	Hantos	Világospuszta 069/3	Világospuszta 069/3 , 2434 , Hantos	46,9806514	18,7103863
Fejér	HU-211-TH-00031	Mezőföldi Mezőgazdasági Szövetkezet	7017	Mezőszilas	0245/26 hrsz.	0245/26 hrsz. , 7017 , Mezőszilas	46,8221231	18,4588212
Fejér	HU-211-TH-00029	Mohai Gábor	8136	Lajoskomárom	Köztársaság u. 17.	Köztársaság u. 17. , 8136 , Lajoskomárom	46,8485749	18,396856
Fejér	HU-211-TH-00042	Pados Zoltán	8143	Sárszentmihály	032 hrsz	032 hrsz , 8143 , Sárszentmihály	47,1634572	18,3394341
Fejér	HU-211-TH-00036	Pálhalmi Agrospeciál kft.	2459	Rácalmás	Hangos puszta 0191/1 hrsz	Hangos puszta 0191/1 hrsz , 2459 , Rácalmás	47,0261765	18,9163481
Fejér	HU-211-TH-00046	Pélpusztai Mg Tsz.	8139	Szabadhígvég - Pélpuszta	0156/6 hrsz	0156/6 hrsz , 8139 , Szabadhígvég - Pélpuszta
Fejér	HU-211-TH-00045	Pölöskei Gyuláné	8138	Szabadhídvég	Hegyalja utca 1.	Hegyalja utca 1. , 8138 , Szabadhídvég	46,8216756	18,2758166
Fejér	HU-211-TH-00037	Prograg-Agrárcentrum Mezőgazdasági és Termelő Kft.	2465	Ráckeresztúr	0201/1, 0201/2, 0203/10, 0203/12 hrsz	0201/1, 0201/2, 0203/10, 0203/12 hrsz , 2465 , Ráckeresztúr	47,461894	18,9961391
Fejér	HU-211-TH-00012	Pusztavámi Tejszövetkezet Zrt.	8086	Pusztvám	072/2 hrsz	072/2 hrsz , 8086 , Pusztvám	47,4297438	18,2317401
Fejér	HU-211-TH-00032	Sárkeresztesi Mg. Zrt.	8042	Moha	052/4 hrsz	052/4 hrsz , 8042 , Moha
Fejér	HU-211-TH-00014	Sereg Tej Kft.	8111	Seregélyes	Pálinkaháza 0543/3 hrsz	Pálinkaháza 0543/3 hrsz , 8111 , Seregélyes	47,1001429	18,5834528
Győr-Sopron	HU-221-TH-00051	Zöld Mező Mg Tsz.	9181	Kunsziget	Központi telep	Központi telep , 9181 , Kunsziget	47,7385858	17,5176565
Győr-Sopron	HU-221-TH-00048	Inícia Zrt.	9141	Ikrény	Vasút sor 1.	Vasút sor 1. , 9141 , Ikrény	47,6937592	17,5375539
Győr-Sopron	HU-221-TH-00053	Mórich Kft.	9131	Mórichida	Téti u. 1.	Téti u. 1. , 9131 , Mórichida	47,5106437	17,4364564
Győr-Sopron	HU-221-TH-00050	Horváth Józsefné	9131	Mórichida	Fő u. 152	Fő u. 152 , 9131 , Mórichida	47,5171377	17,4129699
Győr-Sopron	HU-221-TH-00042	Kisalföldi Mg Tsz	9072	Nagyszentjános	Fő u. 2.	Fő u. 2. , 9072 , Nagyszentjános	47,7092998	17,8721203
Győr-Sopron	HU-221-TH-00046	Bakonyi Agrár Kft.	8438	Veszprémvarsány	Központi telep	Központi telep , 8438 , Veszprémvarsány	47,4109741	17,8422328
Győr-Sopron	HU-221-TH-00045	Bakonyi Agrár Mg Tsz.	8434	Románd	Külterület 012/2 hrsz.	Külterület 012/2 hrsz. , 8434 , Románd
Győr-Sopron	HU-221-TH-00047	Agro-Milch Mezőgazdasági és Szolgáltató Kft.	8438	Veszprémvarsány	Központi telep	Központi telep , 8438 , Veszprémvarsány	47,4109741	17,8422328
Győr-Sopron	HU-221-TH-00044	Bosflór Mezőgazdasági és Szolgáltató Kft.	8434	Románd	Külterület 012/2 hrsz.	Külterület 012/2 hrsz. , 8434 , Románd
Győr-Sopron	HU-221-TH-00039	Tóth Lajos	9082	Nyúl	Potyondi u. 1.	Potyondi u. 1. , 9082 , Nyúl	47,5893214	17,6998809
Győr-Sopron	HU-221-TH-00049	Horváth Imre	9086	Töltéstava	Széchenyi u. 03.	Széchenyi u. 03. , 9086 , Töltéstava	47,6289251	17,7419779
Győr-Sopron	HU-221-TH-00052	Huszár Viktor	9141	Ikrény	Ószhelypuszta	Ószhelypuszta , 9141 , Ikrény	47,6743009	17,4954817
Győr-Sopron	HU-221-TH-00040	Kisalföldi Mg Tsz	9072	Nagyszentjános	Tejtermelő gazdaság	Tejtermelő gazdaság , 9072 , Nagyszentjános	47,704141	17,8792701
Győr-Sopron	HU-221-TH-00041	Kisalföldi Mg Tsz	9072	Rétalap-Balogh	Tejtermelő gazdaság	Tejtermelő gazdaság , 9072 , Rétalap-Balogh	47,6072246	17,9071507
Győr-Sopron	HU-221-TH-00073	Mihályi Agrár Zrt.	9363	Gyóró	Külterület 053/7 hrsz.	Külterület 053/7 hrsz. , 9363 , Gyóró	47,49714	17,0332921
Győr-Sopron	HU-221-TH-00005	Tóth Lajos	9327	Rábasebes	Fő u. 17 . 68 hrsz	Fő u. 17 . 68 hrsz , 9327 , Rábasebes	47,4392738	17,2423807
Győr-Sopron	HU-221-TH-00012	Rábamenti Mezőgazdasági Kft.	9344	Rábakecöl	Szarvasmarha telep 042/10 hrsz	Szarvasmarha telep 042/10 hrsz , 9344 , Rábakecöl	47,4324946	17,1126349
Győr-Sopron	HU-221-TH-00013	Extra Tej Tejtermelő Kft.	9343	Beled	Külterület 0161/12 hrsz	Külterület 0161/12 hrsz , 9343 , Beled	47,4662675	17,0959263
Győr-Sopron	HU-221-TH-00007	Németh Vilmos	9365	Dénesfa	Ady u. 37. 071/16 hrsz.	Ady u. 37. 071/16 hrsz. , 9365 , Dénesfa	47,4558445	17,0335351
Győr-Sopron	HU-221-TH-00019	Szabó László	9165	Rábcakapi	Szabó major Külterület 044/12 hrsz.	Szabó major Külterület 044/12 hrsz. , 9165 , Rábcakapi	47,7079835	17,2755839
Győr-Sopron	HU-221-TH-00018	Győrig Zoltán	9165	Rábcakapi	Szabó major Külterület 015/1 hrsz.	Szabó major Külterület 015/1 hrsz. , 9165 , Rábcakapi	47,7079835	17,2755839
Győr-Sopron	HU-221-TH-00054	Szabó Zsolt	9145	Bágyogszovát	Bágyogi Szarvasmarha telep Külterület 0174/3 hrsz.	Bágyogi Szarvasmarha telep Külterület 0174/3 hrsz. , 9145 , Bágyogszovát	47,5866036	17,3617273
Győr-Sopron	HU-221-TH-00001	Cankó 2000 Kft.	9324	Bogyoszló	Központi telep 014/27 hrsz	Központi telep 014/27 hrsz , 9324 , Bogyoszló	47,5609657	17,1850606
Győr-Sopron	HU-221-TH-00002	Hektáros Kft.	9321	Farád	Prépost major 0830/14 hrsz	Prépost major 0830/14 hrsz , 9321 , Farád
Győr-Sopron	HU-221-TH-00010	Takács László	9167	Bősárkány	Külterület 026/9 hrsz	Külterület 026/9 hrsz , 9167 , Bősárkány	47,6881947	17,2507143
Győr-Sopron	HU-221-TH-00016	Kónyi Haladás Mezőgazdasági Kft.	9144	Kóny	0122/5 hrsz	0122/5 hrsz , 9144 , Kóny	47,6233313	17,3631465
Győr-Sopron	HU-221-TH-00022	Mihályi Agrár Zrt.	9342	Mihályi	44 hrsz	44 hrsz , 9342 , Mihályi	47,5076026	17,0969811
Győr-Sopron	HU-221-TH-00014	Magyarkeresztúri Mezőgazdasági Faluszövetkezet	9346	Magyarkeresztúr	06 hrsz	06 hrsz , 9346 , Magyarkeresztúr	47,5200063	17,1660121
Győr-Sopron	HU-221-TH-00017	Tejtermelő Kft.	9300	Csorna	Bartók Béla u. 68	Bartók Béla u. 68 , 9300 , Csorna	47,594481	17,2482379
Győr-Sopron	HU-221-TH-00009	Dózsa Mezőgazdasági Zrt.	9371	Szany	042/22 hrsz	042/22 hrsz , 9371 , Szany	47,4620733	17,3027671
Győr-Sopron	HU-221-TH-00020	Rábapordányi Mezőgazdasági Zrt.	9146	Rábapordány	097/1	097/1 , 9146 , Rábapordány	47,5643699	17,3189648
Győr-Sopron	HU-221-TH-00011	Hanság Szövetkezet	9167	Bősárkány	02613 hrsz	02613 hrsz , 9167 , Bősárkány	47,6881947	17,2507143
Győr-Sopron	HU-221-TH-00015	Mészáros Szabolcs	9324	Bogyoszló	Fő u. 41.	Fő u. 41. , 9324 , Bogyoszló	47,5609657	17,1850606
Győr-Sopron	HU-221-TH-00023	Horváthné Kiss Mihály Judit	9330	Kapuvár	010/18 hrsz	010/18 hrsz , 9330 , Kapuvár	47,6574419	17,010052
Győr-Sopron	HU-221-TH-00003	Lang Kft.	9314	Egyed	039 hrsz.	039 hrsz. , 9314 , Egyed	47,5213756	17,3352132
Győr-Sopron	HU-221-TH-00024	Nyerges András	9352	Veszkény	095/7-8-9 hrsz	095/7-8-9 hrsz , 9352 , Veszkény	47,5969056	17,0891913
Győr-Sopron	HU-221-TH-00004	Mezőgold 21 Kft.	9345	Páli	Új Major	Új Major , 9345 , Páli
Győr-Sopron	HU-221-TH-00008	Hidráns Mezőgazdasági és Mg Szolgáltató Kft.	9326	Szil	0232/1 hrsz	0232/1 hrsz , 9326 , Szil	47,5014161	17,2327981
Győr-Sopron	HU-221-TH-00038	Fertődi Zöld Mező Mezőgazdasági Szövetkezet	9431	Fertőd	0189/3	0189/3 , 9431 , Fertőd	47,6323404	16,9086457
Győr-Sopron	HU-221-TH-00037	Hegykői Mezőgazdasági Zrt.	9437	Hegykő	024/77	024/77 , 9437 , Hegykő	47,6332639	16,8019057
Győr-Sopron	HU-221-TH-00029	Lajta Hanság Mezőgazdasági Termelő Kereskedelmi és Szolgáltató Zrt.	9200	Mosonmagyaróvár	Háromtölgy u. 2.	Háromtölgy u. 2. , 9200 , Mosonmagyaróvár	47,8922447	17,2722082
Győr-Sopron	HU-221-TH-00036	Nagy Ferenc és Nagy Zoltán Ferenc	9431	Fertőd	Mező u. 11	Mező u. 11 , 9431 , Fertőd	47,621652	16,896239
Győr-Sopron	HU-221-TH-00027	Rongits Ferenc	9231	Máriakálnok	Major 094/11 hrsz	Major 094/11 hrsz , 9231 , Máriakálnok	47,8571676	17,3289412
Győr-Sopron	HU-221-TH-00025	Darnózseli Agrár Zrt.	9232	Darnózseli	Darnói Major 0103 hrsz	Darnói Major 0103 hrsz , 9232 , Darnózseli	47,8540819	17,4141714
Győr-Sopron	HU-221-TH-00032	Lajta Hanság Mezőgazdasági Termelő Kereskedelmi és Szolgáltató Zrt.	9200	Jánossomorja	Hanságliget	Hanságliget , 9200 , Jánossomorja	47,72	17,2155556
Győr-Sopron	HU-221-TH-00030	Lajta Hanság Mezőgazdasági Termelő Kereskedelmi és Szolgáltató Zrt.	9200	Károlyháza	Külterület	Külterület , 9200 , Károlyháza	47,8032696	17,3446363
Győr-Sopron	HU-221-TH-00031	Lajta Hanság Mezőgazdasági Termelő Kereskedelmi és Szolgáltató Zrt.	9200	Mosonszolnok	Külterület	Külterület , 9200 , Mosonszolnok	47,8637956	17,2532867
Győr-Sopron	HU-221-TH-00035	Nyugati Kapu TKSZSZ	9221	Levél	Külterület 0106/16 hrsz	Külterület 0106/16 hrsz , 9221 , Levél	47,8946415	17,2016497
Győr-Sopron	HU-221-TH-00028	Dunakiliti Agrár Termelő és Kereskedelmi Zrt.	9225	Dunakiliti	Major	Major , 9225 , Dunakiliti	47,9793787	17,2964926
Győr-Sopron	HU-221-TH-00026	Püski Búzakalász Mezőgazdasági Szövetkezet	9235	Püski	Major	Major , 9235 , Püski	47,883895	17,4082044
Győr-Sopron	HU-221-TH-00034	Bezenyei Mezőgazdasági Szövetkezet	9223	Bezenye	Ady  Endre u. 47.	Ady  Endre u. 47. , 9223 , Bezenye	47,9616112	17,2104711
Győr-Sopron	HU-221-TH-0078	Ragats József	9485	Nagycenk	Kiscenki út 23.	Kiscenki út 23. , 9485 , Nagycenk	47,6082586	16,7100625
Győr-Sopron	HU-221-TH-0077	Augmayer Ferenc	9443	Petőháza	043/6 hrsz	043/6 hrsz , 9443 , Petőháza	47,6017434	16,8935525
Győr-Sopron	HU-221-TH-0076	Kuslics József	9443	Petőháza	043/7	043/7 , 9443 , Petőháza	47,6017434	16,8935525
Győr-Sopron	HU-221-TH-0075	Reichardt Vilmos	9474	Szakony	Fő utca 135	Fő utca 135 , 9474 , Szakony	47,4236787	16,716949
Győr-Sopron	HU-221-TH-0074	Hanis Tamás Antal	9474	Szakony	Fő utca 192.	Fő utca 192. , 9474 , Szakony	47,429735	16,711261
Győr-Sopron	HU 221 TH 00083	Pápai Csaba	9163	Fehértó	Zrínyi u. 9.	Zrínyi u. 9. , 9163 , Fehértó	47,674194	17,348845
Győr-Sopron	HU 221 TH 00084	Németh Géza	9163	Fehértó	Zrínyi u. 34.	Zrínyi u. 34. , 9163 , Fehértó	47,671915	17,35049
Győr-Sopron	HU 221 TH 00085	Bajnai László	8431	Bakonyszentlászló	Szabadság hegy 9.	Szabadság hegy 9. , 8431 , Bakonyszentlászló	47,384942	17,797571
Győr-Sopron	HU 221 TH 00086	Sipos Ede	9131	Mórichida	Tördemész puszta	Tördemész puszta , 9131 , Mórichida	47,5106437	17,4364564
Győr-Sopron	HU 221 TH 00087	Vida László	9100	Tét	Széchenyi u. 12.	Széchenyi u. 12. , 9100 , Tét	47,5220747	17,4979093
Győr-Sopron	HU 221 TH 00088	Stróbli Károly	9184	Kunsziget	Győri út 19.	Győri út 19. , 9184 , Kunsziget	47,7368	17,528951
Győr-Sopron	HU 221 TH 00082	Bandi Gábor	9100	Tét	Mátyás Király út 57.	Mátyás Király út 57. , 9100 , Tét	47,5191295	17,5283292
Győr-Sopron	HU 221 TH 00081	Markó Jenő	9133	Rábaszentmiklós	Kossuth u. 11.	Kossuth u. 11. , 9133 , Rábaszentmiklós	47,5393949	17,4160081
Győr-Sopron	HU 221 TH 00080	Bencsik Tamás	9131	Mórichida	Fenyő utca 13.	Fenyő utca 13. , 9131 , Mórichida	47,5205913	17,4264806
Győr-Sopron	HU 221 TH 00079	Horváth Józsefné	9131	Mórichida	Fő u. 152.	Fő u. 152. , 9131 , Mórichida	47,5171377	17,4129699
Győr-Sopron	HU 221 TH 00103	Kollár István	9097	Mezőörs	Fő u. 7.	Fő u. 7. , 9097 , Mezőörs	47,5721355	17,8748403
Győr-Sopron	HU 221 TH 00101	Urszinű István	9012	Győr	Sokorópátkai u. 38.	Sokorópátkai u. 38. , 9012 , Győr	47,611481	17,605058
Győr-Sopron	HU 221 TH 00102	Tóth Sándorné	9184	Kunsziget	Gátőrház u. 1.	Gátőrház u. 1. , 9184 , Kunsziget	47,7459352	17,5201607
Győr-Sopron	HU 221 TH 00089	Kopacsek Antal	9184	Kunsziget	Kossuth tér 8.	Kossuth tér 8. , 9184 , Kunsziget	47,7398703	17,52032
Győr-Sopron	HU 221 TH 00090	Magyar Arnold	9151	Abda	Szent István u. 52.	Szent István u. 52. , 9151 , Abda	47,6906076	17,5453211
Győr-Sopron	HU 221 TH 00091	Nagy József	9184	Kunsziget	Petőfi tér 4.	Petőfi tér 4. , 9184 , Kunsziget	47,7391827	17,5192062
Győr-Sopron	HU 221 TH 00092	Győry Vendel	9062	Kisbajcs	Kossuth u. 42.	Kossuth u. 42. , 9062 , Kisbajcs	47,747133	17,6817983
Győr-Sopron	HU 221 TH 00093	Kungli Szabolcs	9030	Győr	Száva u. 24.	Száva u. 24. , 9030 , Győr	47,727398	17,677321
Győr-Sopron	HU 221 TH 00094	Deák Kamilla	9061	Vámosszabadi	Bajcsy Zsilinszky u. 8.	Bajcsy Zsilinszky u. 8. , 9061 , Vámosszabadi	47,7481959	17,6539613
Győr-Sopron	HU 221 TH 00095	Krániczné Mayer Erika	9011	Győr	hrsz.: 0932/16.	hrsz.: 0932/16. , 9011 , Győr	47,7026352	17,7616131
Győr-Sopron	HU 221 TH 00096	Csapó István	9019	Győr	Gerle u. 21.	Gerle u. 21. , 9019 , Győr	47,6293843	17,5757624
Győr-Sopron	HU 221 TH 00099	Fusz Mihály	9028	Győr	Fehérvári u. 197.	Fehérvári u. 197. , 9028 , Győr	47,670161	17,6818727
Győr-Sopron	HU 221 TH 00100	Skerlanitz Zoltán	9011	Győr	Páskom u. 5.	Páskom u. 5. , 9011 , Győr	47,6998493	17,7437154
Győr-Sopron	HU 221 TH 00097	Szalontay Lászlóné	9081	Győrújbarát	Nagy Lajos u. 18.	Nagy Lajos u. 18. , 9081 , Győrújbarát	47,5915317	17,6684098
Győr-Sopron	HU-221-TH-00038	Fertődi Zöld Mező Mezőgazdasági Szövetkezet	9431	Fertőd	Hrsz 0189/3	Hrsz 0189/3 , 9431 , Fertőd	47,6323404	16,9086457
Győr-Sopron	HU-221-TH-00037	Hegykői Mg Zrt.	9437	Hegykő	Hrsz 024/77	Hrsz 024/77 , 9437 , Hegykő	47,6188466	16,7940292
Győr-Sopron	HU-221-TH-00036	Nagy Ferenc és Nagy Zoltán	9431	Fertőd	Mező utca 11.	Mező utca 11. , 9431 , Fertőd	47,621652	16,896239
Hajdú-Bihar	HU-08-TH-1001	Álmosdi Agrár Kft.	4285	Álmosd	Táncsics u. 22.	Táncsics u. 22. , 4285 , Álmosd	47,4117405	21,9814014
Hajdú-Bihar	HU-08-TH-1002	Agrárgazdaság Kft.	4002	Debrecen	0212/6 hrsz.	0212/6 hrsz. , 4002 , Debrecen	47,5480237	21,7171346
Hajdú-Bihar	HU-08-TH-1003	Szikgát Tej Kft.	4002	Debrecen	Nagy Mihály kert 59.	Nagy Mihály kert 59. , 4002 , Debrecen	47,5036319	21,5847177
Hajdú-Bihar	HU-08-TH-1004	Kovács Zsoltné	4002	Debrecen	Napraforgó u. 3	Napraforgó u. 3 , 4002 , Debrecen	47,5545734	21,543028
Hajdú-Bihar	HU-08-TH-2002	Agrárgazdaság Kft.	4002	Debrecen	35-ös útfél 0212/6 hrsz.	35-ös útfél 0212/6 hrsz. , 4002 , Debrecen	47,5480237	21,7171346
Hajdú-Bihar	HU-08-TH-2003	Szikgát-Tej Kft.	4002	Debrecen	Nagy Mihály kert 59.	Nagy Mihály kert 59. , 4002 , Debrecen	47,5036319	21,5847177
Hajdú-Bihar	HU-08-TH-2001	Álmosdi Agrár Kft.	4285	Álmosd	Táncsics u. 22.	Táncsics u. 22. , 4285 , Álmosd	47,4117405	21,9814014
Hajdú-Bihar	HU-08-TH-2004	Kovács Zsoltné	4002	Debrecen	Napraforgó u. 3.	Napraforgó u. 3. , 4002 , Debrecen	47,5545734	21,543028
Hajdú-Bihar	HU-08-TH 1001	Agro Cow Kft.	4100	Berttyóújfalu	Balogh tanya 0305/17 hrsz	Balogh tanya 0305/17 hrsz , 4100 , Berttyóújfalu	47,2617094	21,4650787
Hajdú-Bihar	HU-08-TH-1010	Új Élet Mg. Szövetkezet	4123	Hencida	Kossuth u. 2.	Kossuth u. 2. , 4123 , Hencida	47,249682	21,6988251
Hajdú-Bihar	HU-08-TH-1002	Bos-Blek Farm Kft. / Ádány József	4100	Berettyóújfalu	Kerekes Gy. U. 24/a	Kerekes Gy. U. 24/a , 4100 , Berettyóújfalu	47,2474396	21,5244961
Hajdú-Bihar	HU-08-TH-1003	Komádi Tehenészet Kft.	4025	Debrecen	Széchenyi u. 13.	Széchenyi u. 13. , 4025 , Debrecen	47,5284007	21,622706
Hajdú-Bihar	HU-08-TH-1004	Váncsodi Rákóczi Gazdaszövetkezet	4119	Váncsod	Kossuth u. 67.	Kossuth u. 67. , 4119 , Váncsod	47,200291	21,641167
Hajdú-Bihar	HU-08-TH-1009	Agroberek Zrt.	4116	Berekböszörmény	Köztársaság tér 18.	Köztársaság tér 18. , 4116 , Berekböszörmény	47,0633401	21,681969
Hajdú-Bihar	HU-08-TH-1007	Hajnal 99 Kft.	4100	Berettyóújfalu	Morotva u. 23.	Morotva u. 23. , 4100 , Berettyóújfalu	47,2012689	21,532966
Hajdú-Bihar	HU-08-TH-1008	Hobvill Kft.	4135	Körösszegapáti	Kossuth u. 79.	Kossuth u. 79. , 4135 , Körösszegapáti	47,037769	21,6359649
Hajdú-Bihar	HU-08-TH-1006	Takács Imre	4100	Berettyóújfalu	Aradi u. 1.	Aradi u. 1. , 4100 , Berettyóújfalu	47,1955933	21,5406725
Hajdú-Bihar	HU-08-TH-1005	Csabai Lászlóné	4144	Darvas	Kinizsi Pál u. 7.	Kinizsi Pál u. 7. , 4144 , Darvas	47,1050242	21,3336671
Hajdú-Bihar	HU-08-TH-1011	Harsányi Márton	4141	Furta	Acsás tanya	Acsás tanya , 4141 , Furta	47,1194446	21,5001673
Hajdú-Bihar	HU-08-TH-2001	Álmosdi Agrár Kft.	4285	Álmosd	Táncsics u. 22.	Táncsics u. 22. , 4285 , Álmosd	47,4117405	21,9814014
Hajdú-Bihar	HU-08-TH-2002	Agrárgazdaság Kft.	4002	Debrecen	35-ös út 0212/6 hrsz.	35-ös út 0212/6 hrsz. , 4002 , Debrecen	47,5316049	21,6273124
Hajdú-Bihar	HU-08-TH-2003	Szigkát Tej Kft.	4002	Debrecen	Nagy Mihály kert 59.	Nagy Mihály kert 59. , 4002 , Debrecen	47,5036319	21,5847177
Hajdú-Bihar	HU-08-TH-2004	Kovács Zsoltné	4002	Debrecen	Napraforgó u. 3.	Napraforgó u. 3. , 4002 , Debrecen	47,5545734	21,543028
Hajdú-Bihar	HU-08-TH-3001	Kasz Farm Term. Kft.	4130	Derecske	Köztársaság u. 114	Köztársaság u. 114 , 4130 , Derecske	47,35258	21,569737
Hajdú-Bihar	HU-08-TH-3002	Dercske Petőfi Mg. Kft.	4133	Konyár	Gáborjáni útfél 0152 hrsz.	Gáborjáni útfél 0152 hrsz. , 4133 , Konyár	47,3160976	21,6682617
Hajdú-Bihar	HU-08-TH-3003	Berettyómenti Zrt.	4124	Esztár	külterület hrsz. 059/5, 059/6, 069/1	külterület hrsz. 059/5, 059/6, 069/1 , 4124 , Esztár	47,2927317	21,7613295
Hajdú-Bihar	HU-08-TH-3004	Kösely Zrt.	4200	Hajdúszoboszló	külterület hrsz. 0556, 0639/31	külterület hrsz. 0556, 0639/31 , 4200 , Hajdúszoboszló	47,4521424	21,3156968
Hajdú-Bihar	HU-08-TH-3005	Hajdúföld-Agrárgazdaság Kft.	4200	Hajdúszoboszló	Kabai útfél hrsz: 0261/1, 0261/3	Kabai útfél hrsz: 0261/1, 0261/3 , 4200 , Hajdúszoboszló	47,4521424	21,3156968
Hajdú-Bihar	HU-08-TH-3007	Hajdúszováti Szarvasmarha Telep Hasznosító Kft.	4212	Hajdúszovát	Földesi útfél hrsz. 022.	Földesi útfél hrsz. 022. , 4212 , Hajdúszovát	47,3737562	21,4546832
Hajdú-Bihar	HU-08-TH-3008	Nagyhegyesi Állattenyésztő Kft.	4064	Nagyhegyes	külterület hrsz: 0194	külterület hrsz: 0194 , 4064 , Nagyhegyes	47,533843	21,317926
Hajdú-Bihar	HU-08-TH-3009	Pocsaj termelő Szolgáltató és Értékesítő Szövetkezet	4125	Pocsaj	Martos Tanya hrsz: 089/5	Martos Tanya hrsz: 089/5 , 4125 , Pocsaj	47,2851817	21,8122198
Hajdú-Bihar	HU-08-TH-3010	Vadas Sándor	4125	Pocsaj	Makkos Major hrsz:0237/16	Makkos Major hrsz:0237/16 , 4125 , Pocsaj	47,2851817	21,8122198
Hajdú-Bihar	HU-08-TH-3011	Nagisz Tej Tejtermelő Kereskedelmi és Szolgáltató Kft.	4181	Nádudvar	Halom Zug Tanya hrsz: 01058/92	Halom Zug Tanya hrsz: 01058/92 , 4181 , Nádudvar	47,1661672	8,5154946
Hajdú-Bihar	HU-08-TH-3012	Hajdúsági Tej Szolgáltató Kft.	4271	Mikepércs	Hrsz: 05/13, 05/27,	Hrsz: 05/13, 05/27, , 4271 , Mikepércs	47,4406335	21,6366773
Hajdú-Bihar	HU-08-TH-6006	Servet-2000 Állattenyésztő Kereskedelmi és Szolgáltató Kft.	4171	Sárrétudvardi	Külterület, hrsz:  0116/3	Külterület, hrsz:  0116/3 , 4171 , Sárrétudvardi	47,2406806	21,1866058
Hajdú-Bihar	HU-08-TH-6001	Földesi Rákóczi Mg Kft.	4177	Földes	Tehenészeti telep 0368/1	Tehenészeti telep 0368/1 , 4177 , Földes	47,3027632	21,398777
Hajdú-Bihar	HU-08-TH-6002	Bárándi Mezőgazdasági Szövetkezet	4161	Báránd	Erdős tanya hrsz: 0210	Erdős tanya hrsz: 0210 , 4161 , Báránd	47,2931945	21,23763
Hajdú-Bihar	HU-08-TH-6008	Kösely Mezőgazdasági Zrt.	4162	Szerep-Hosszúhát	Hrsz: 0118	Hrsz: 0118 , 4162 , Szerep-Hosszúhát	47,233978	21,098755
Hajdú-Bihar	HU-08-TH-6003	Biharnagybajom Dózsa Agrár Zrt.	4172	Bihatnagybajom	Porosköz 0307/1	Porosköz 0307/1 , 4172 , Bihatnagybajom	47,4600996	18,927897
Hajdú-Bihar	HU-08-TH-6010	Szabó Lajos Tamás	4171	Sárrétudvardi	Külterület 095/23 hrsz.	Külterület 095/23 hrsz. , 4171 , Sárrétudvardi	47,2406806	21,1866058
Hajdú-Bihar	HU-08-TH-6009	ZM Nagisz Kft.	4150	Püspökladány	Szerep-Középér Major 0182/4 hrsz.	Szerep-Középér Major 0182/4 hrsz. , 4150 , Püspökladány	47,2278774	21,1407795
Hajdú-Bihar	HU-08-TH-6011	Kiss Kálmán Márton	4171	Sárrétudvardi	Esztero major 042/3	Esztero major 042/3 , 4171 , Sárrétudvardi	47,2441389	21,1983215
Hajdú-Bihar	HU-08-TH-6012	Mile Jenő	4163	Szerep	Keményi út 453/2 hrsz.	Keményi út 453/2 hrsz. , 4163 , Szerep	47,2258132	21,1366243
Hajdú-Bihar	HU-08-TH-6004	Ezüstkalász 2000 Kft.	4147	Bihartorda	Hrsz: 0208	Hrsz: 0208 , 4147 , Bihartorda	47,215994	21,3526252
Hajdú-Bihar	HU-08-TH-4001	Tóth József	4071	Hortobágy	Dinnyés Tanya 0421/1 hrsz.	Dinnyés Tanya 0421/1 hrsz. , 4071 , Hortobágy	47,5868751	21,1560332
Heves	HU-312-TH-001	Agrocentina Kft.	3385	Tiszanána	Fő u. 203	Fő u. 203 , 3385 , Tiszanána	47,5544439	20,531423
Heves	HU-312-TH-007	Gödollői Tangazdaság	2173	Kartal	Bartók Béla u. 2-10.	Bartók Béla u. 2-10. , 2173 , Kartal	47,662569	19,521578
Heves	HU-312-TH-002	Besenyőtelki Agrár Zrt.	3373	Besenyőtelek	Szabadság u. 11	Szabadság u. 11 , 3373 , Besenyőtelek	47,6990535	20,433451
Heves	HU-312-TH-008	Morvai Zsolt	3350	Kál	Fő út alsó 107	Fő út alsó 107 , 3350 , Kál	47,7267345	20,2539476
Heves	HU-312-TH-003	Csécsei János	3294	Tarnaörs	Rózsa u. 7.	Rózsa u. 7. , 3294 , Tarnaörs	47,601057	20,056104
Heves	HU-312-TH-009	Multiton	3531	Miskolc	Vászonfehérítő u. 62.	Vászonfehérítő u. 62. , 3531 , Miskolc	48,1020897	20,7558457
Heves	HU-312-TH-004	Erdőtelek 2000 Agrár Kft.	3358	Erdőtelek	Fő u. 215	Fő u. 215 , 3358 , Erdőtelek	47,6964282	20,3103732
Heves	HU-312-TH-010	Pély Tiszatáj Agrár Zrt.	3381	Pély	Fő u. 163	Fő u. 163 , 3381 , Pély	47,4878344	20,3420507
Heves	HU-312-TH-005	Füzesabomyi Agrár Zrt.	3390	Füzesabony	Zrinyi u. 32.	Zrinyi u. 32. , 3390 , Füzesabony	47,7433592	20,420589
Heves	HU-312-TH-011	Tarna Farm 2004 Kft.	3296	Zaránk	Kossuth u. 6.	Kossuth u. 6. , 3296 , Zaránk	47,643869	20,104027
Heves	HU-312-TH-006	GAK Nonprofit Közhasznú Kft.	3103	Gödöllő	Páter K. u. 1.	Páter K. u. 1. , 3103 , Gödöllő	47,5923813	19,3616034
Jász-Nagykun-Szolnok	HU-322-TH-00001	Molnár Béla Sándor	5440	Kunszentmárton	Lénia u. 2.	Lénia u. 2. , 5440 , Kunszentmárton	46,8461084	20,2552798
Jász-Nagykun-Szolnok	HU-322-TH-00002	Petrik Ferenc	5052	Újszász	0148/41	0148/41 , 5052 , Újszász	47,273465	20,0392895
Jász-Nagykun-Szolnok	HU-322-TH-00003	Újszászi Antalné	5440	Kunszentmárton	Zöldmező u. 3	Zöldmező u. 3 , 5440 , Kunszentmárton	46,845947	20,2534547
Jász-Nagykun-Szolnok	HU-322-TH-00004	Molnár Béla Sándor	5440	Kunszentmárton	Lénia u. 2.	Lénia u. 2. , 5440 , Kunszentmárton	46,8461084	20,2552798
Jász-Nagykun-Szolnok	HU-322-TH-00005	Középtiszai Mezőgazdasági Zrt.	5420	Túrkeve	0363/23	0363/23 , 5420 , Túrkeve	47,0989193	20,7075322
Jász-Nagykun-Szolnok	HU-322-TH-00006	Agrofríz Mezőgazdasági Termelő Zrt.	5400	Mezőtúr	352 hrsz	352 hrsz , 5400 , Mezőtúr	46,9794915	20,5871434
Jász-Nagykun-Szolnok	HU-322-TH-00007	Petrobelli Farm Mezőgazdasági Termelő és Kereskedelmi Kft.	5141	Jásztelek	Pusztamizse 0175/28	Pusztamizse 0175/28 , 5141 , Jásztelek	47,4624058	20,0169056
Jász-Nagykun-Szolnok	HU-322-TH-00008	Kossuth 2006 Mezőgazdasági Termelő Zrt.	5123	Járokszállás	Béke Központ II. telep	Béke Központ II. telep , 5123 , Járokszállás	47,637663	19,9436925
Jász-Nagykun-Szolnok	HU-322-TH-00009	Jászberényi Kossuth Mezőgazdasági Élelmiszeripari és Kereskedelmi Zrt.	5100	Jászberény	Külterület 0326/4 hrsz.	Külterület 0326/4 hrsz. , 5100 , Jászberény	47,4672749	19,9252299
Jász-Nagykun-Szolnok	HU-322-TH-00010	Jászapáti 2000 Mezőgazdasági Zrt.	5130	Jászapáti	I. Központ 0245/10 hrsz	I. Központ 0245/10 hrsz , 5130 , Jászapáti	47,5153938	20,1380904
Jász-Nagykun-Szolnok	HU-322-TH-00011	Jászkiséri Laktored Termelő, Forgalmazó és Szolgáltató Kft.	5137	Jászkisér	Tanya 3.	Tanya 3. , 5137 , Jászkisér	47,462729	20,2317175
Jász-Nagykun-Szolnok	HU-322-TH-00012	Alattyáni Tejtermelő Kft.	5142	Alattyán	089/16 hrsz	089/16 hrsz , 5142 , Alattyán	47,4317413	20,0649784
Jász-Nagykun-Szolnok	HU-322-TH-00013	Szellőhátfarm Kereskedelmi Tanácsadó Kft.	5137	Jászkisér	Szellőhát tanya 077/28 hrsz	Szellőhát tanya 077/28 hrsz , 5137 , Jászkisér	47,456383	20,214426
Jász-Nagykun-Szolnok	HU-322-TH-00014	Gabona és Lakto Farm Kft.	5136	Jászszentandrás	Haladás út 1/2	Haladás út 1/2 , 5136 , Jászszentandrás	47,5814479	20,1805694
Jász-Nagykun-Szolnok	HU-322-TH-00015	Tarnamenti 2000 Mezőgazdasági Termelő Szolgáltató és Kereskedelmi Kft.	5122	Jászdózsa	031 hrsz	031 hrsz , 5122 , Jászdózsa	47,5592626	20,0376391
Jász-Nagykun-Szolnok	HU-322-TH-00016	Bosmilk Szarvasmarhatenyésztő Növénytermesztő és Szolgáltató Kft.	5121	Jászjákóhalma	100-as major 010/9 hrsz.	100-as major 010/9 hrsz. , 5121 , Jászjákóhalma	47,5183347	20,0378899
Jász-Nagykun-Szolnok	HU-322-TH-00017	Agro Lehel Mezőgazdasági Kereskedelmi szolgáltató Kft.	5100	Jászberény	Felsőmuszály tanya 9.	Felsőmuszály tanya 9. , 5100 , Jászberény	47,514262	19,8964779
Jász-Nagykun-Szolnok	HU-322-TH-00018	Jász-Föld Mezőgazdasági Szolgáltató Zrt.	5055	Jászladány	Újszászi út 0142/16	Újszászi út 0142/16 , 5055 , Jászladány	47,3600593	20,1536393
Jász-Nagykun-Szolnok	HU-322-TH-00019	Tirus Mezőgazdasági Zrt.	5310	Kisújszállás	Márialaka major 0644/8 hrsz	Márialaka major 0644/8 hrsz , 5310 , Kisújszállás	47,17371	20,874506
Jász-Nagykun-Szolnok	HU-322-TH-00020	Kenderes 2006 Mezőgazdasági Termelő és Szolgáltató Kft.	5331	Kenderes	II. kerület 0249/1	II. kerület 0249/1 , 5331 , Kenderes	47,5125847	19,0325671
Jász-Nagykun-Szolnok	HU-322-TH-00021	Kunság Népe Mezőgazdasági Zrt.	5340	Kunhegyes	Tiszagyendai út 0839/17 hrsz.	Tiszagyendai út 0839/17 hrsz. , 5340 , Kunhegyes	47,368978	20,614063
Jász-Nagykun-Szolnok	HU-322-TH-00022	Szopkó János	5300	Karcag	Tanya 01915/1 hrsz	Tanya 01915/1 hrsz , 5300 , Karcag	47,3148629	20,9196518
Jász-Nagykun-Szolnok	HU-322-TH-00023	Nagykun 2000 Mezőgazdasági Zrt.	5310	Kisújszállás	0945/9 hrsz	0945/9 hrsz , 5310 , Kisújszállás	47,1928912	20,7485712
Jász-Nagykun-Szolnok	HU-322-TH-00024	Agroff Mezőgazdasági Termelő Értékesítő és Szolgáltató Kft.	5234	Tiszaroff	Árkus major	Árkus major , 5234 , Tiszaroff	47,398004	20,4384489
Jász-Nagykun-Szolnok	HU-322-TH-00025	Kollányi Mezőgazdasági Kft.	5362	Tiszaörs	0132/5 hrsz	0132/5 hrsz , 5362 , Tiszaörs	47,492294	20,8395781
Jász-Nagykun-Szolnok	HU-322-TH-00026	Kunmadarasi Mezőgazdasági Kft.	5321	Kunmadaras	Csikó hodály 0528/29 0528/27 hrsz	Csikó hodály 0528/29 0528/27 hrsz , 5321 , Kunmadaras	47,4261568	20,7949978
Jász-Nagykun-Szolnok	HU-322-TH-00027	Karcagi Cserhát Kft.	5300	Karcag	0358/3 hrsz	0358/3 hrsz , 5300 , Karcag	47,3125907	20,8702513
Jász-Nagykun-Szolnok	HU-322-TH-00028	Belán Alcsired Kft.	5400	Mezőtúr	Felsőrészivízköz 305	Felsőrészivízköz 305 , 5400 , Mezőtúr	46,9929168	20,6876903
Jász-Nagykun-Szolnok	HU-322-TH-00029	Kunhalom Agrária kft.	5231	Fegyvernek Szapárfalu	082/10 hrsz	082/10 hrsz , 5231 , Fegyvernek Szapárfalu	47,2314409	20,526004
Jász-Nagykun-Szolnok	HU-322-TH-00030	Új Élet Mezőgazdasági Szövetkezet	5222	Örvényes	Kepich tanya 062/3 hrsz	Kepich tanya 062/3 hrsz , 5222 , Örvényes	46,9141285	17,8188445
Jász-Nagykun-Szolnok	HU-322-TH-00031	Kovács Judit	5083	Kengyel	Kossuth út 47.	Kossuth út 47. , 5083 , Kengyel	47,0845778	20,33131
Jász-Nagykun-Szolnok	HU-322-TH-00032	Stummer Sándor	5083	Kengyel	Zrinyi u. 2.	Zrinyi u. 2. , 5083 , Kengyel	47,0792701	20,3317532
Jász-Nagykun-Szolnok	HU-322-TH-00033	Kádár Miklósné	5082	Tiszatenyő	Ilona major 031/15 hrsz	Ilona major 031/15 hrsz , 5082 , Tiszatenyő	47,1382108	20,3770865
Jász-Nagykun-Szolnok	HU-322-TH-00034	Kovács Miklós	5083	Kengyel	Bem Apó telep 176	Bem Apó telep 176 , 5083 , Kengyel	47,0705381	20,3727168
Jász-Nagykun-Szolnok	HU-322-TH-00035	Palotási Mezőgazdasági Termelő és Szolgáltató Zrt.	5071	Besenyszög	Tessedik Sámuel u.2.sz.	Tessedik Sámuel u.2.sz. , 5071 , Besenyszög	47,296745	20,2582271
Jász-Nagykun-Szolnok	HU-322-TH-00037	Törökszentmiklósi Mezőgazdasági Zrt.	5310	Kisújszállás	Csorba tehenészeti telep 01224/4	Csorba tehenészeti telep 01224/4 , 5310 , Kisújszállás	47,215504	20,7571333
Jász-Nagykun-Szolnok	HU-322-TH-00038	Nagykörűi Haladás Mezőgazdasági Zrt.	5065	Nagykörű	Soványdűlő major 085/1 hrsz	Soványdűlő major 085/1 hrsz , 5065 , Nagykörű	47,2817916	20,4370392
Jász-Nagykun-Szolnok	HU-322-TH-00039	Alcsiszigeti Mezőgazdasági Zrt.	5453	Mezőhék	Táncsics major 03/11 hrsz.	Táncsics major 03/11 hrsz. , 5453 , Mezőhék	47,002691	20,456398
Jász-Nagykun-Szolnok	HU-322-TH-00040	Italiagro Kft.	5400	Mezőtúr	Földvári út 82.	Földvári út 82. , 5400 , Mezőtúr	47,002194	20,597541
Komárom-Esztergom	HU-212-TH-00005	Szadai Zoltán	2859	Vérteskéthely	Kossuth u.23.	Kossuth u.23. , 2859 , Vérteskéthely	47,4861354	18,0780038
Komárom-Esztergom	HU-212-TH-00107	Csabai Piroska	2941	Ács	Csabai tanya	Csabai tanya , 2941 , Ács	47,7146366	18,0358581
Komárom-Esztergom	HU-212-TH-00108	Gucsi Végh László	2921	Komárom	Kossuth u. 25.	Kossuth u. 25. , 2921 , Komárom	47,732037	18,168933
Komárom-Esztergom	HU-212-TH-00110	Gucsi Végh Viktor	2921	Komárom	Lombos u. 7.	Lombos u. 7. , 2921 , Komárom	47,7304465	18,1793974
Komárom-Esztergom	HU-212-TH-00109	László Ádám Ferenc	2900	Komárom	Hétvezér u. 14.	Hétvezér u. 14. , 2900 , Komárom	47,7438422	18,1033
Komárom-Esztergom	HU-212-TH-00304	Deák Györgyné	2855	Bokod	Száva utca 45.	Száva utca 45. , 2855 , Bokod	47,493103	18,23662
Komárom-Esztergom	HU-212-TH-00305	Kohut Mihály	2834	Tardos	Alkotmány utca	Alkotmány utca , 2834 , Tardos	47,663584	18,440661
Komárom-Esztergom	HU-212-TH-00306	Zámbó Péter	2899	Naszály	Rákóczi utca 97.	Rákóczi utca 97. , 2899 , Naszály	47,6998677	18,2612327
Komárom-Esztergom	HU-212-TH-00307	Szakács Zsolt	2890	Tata	Naszályi tanya 15859	Naszályi tanya 15859 , 2890 , Tata	47,6621749	18,2937139
Komárom-Esztergom	HU-212-TH-00308	Számvéber László	2836	Baj	Kossuth u. 1.	Kossuth u. 1. , 2836 , Baj	47,646872	18,365753
Komárom-Esztergom	HU-212-TH-00310	Vastag Gusztáv	2899	Naszály	Zrinyi Miklós u. 12	Zrinyi Miklós u. 12 , 2899 , Naszály	47,704371	18,257781
Komárom-Esztergom	HU-212-TH-00311	Tokár István	2899	Naszály	Rákóczi Ferenc utca 193.	Rákóczi Ferenc utca 193. , 2899 , Naszály	47,694313	18,268057
Komárom-Esztergom	HU-212-TH-00312	Tokár Istvánné	2899	Naszály	Rákóczi Ferenc utca 193.	Rákóczi Ferenc utca 193. , 2899 , Naszály	47,694313	18,268057
Komárom-Esztergom	HU-212-TH-00313	Fodor Ferenc	2890	Tata	Erdei Ferenc utca 8.	Erdei Ferenc utca 8. , 2890 , Tata	47,646915	18,301422
Komárom-Esztergom	HU-212-TH-00314	Elekes András Attila	2899	Naszály	Rákóczi Ferenc utca 92.	Rákóczi Ferenc utca 92. , 2899 , Naszály	47,701214	18,260334
Komárom-Esztergom	HU-212-TH-00315	Bundschuh Attila József	2833	Vértestolna	Petőfi Sándor utca 75	Petőfi Sándor utca 75 , 2833 , Vértestolna	47,6266454	18,4558141
Komárom-Esztergom	HU-212-TH-00316	Kolek Ákos	2833	Vértesalom	Hrsz. 1077/1	Hrsz. 1077/1 , 2833 , Vértesalom
Komárom-Esztergom	HU-212-TH-00317	Kávai Mónika	2831	Tarján	Hrsz. 0221/9	Hrsz. 0221/9 , 2831 , Tarján	47,6001782	18,5145091
Komárom-Esztergom	HU-212-TH-00318	Balog Sándorné	2800	Tatabánya	Petőfi u. 17.	Petőfi u. 17. , 2800 , Tatabánya	47,595242	18,365914
Komárom-Esztergom	HU-212-TH-00319	Dávid Józsefné	2899	Naszály	Hrsz.1002	Hrsz.1002 , 2899 , Naszály	47,702487	18,258383
Komárom-Esztergom	HU-212-TH-00320	Magyar Zoltán	2854	Dad	Fő u. 20	Fő u. 20 , 2854 , Dad	47,5185194	18,2284409
Komárom-Esztergom	HU-212-TH-00101	Solum Mg. Zrt.	2900	Komárom	Herkálypuszta 093/7, 093/8 hrsz	Herkálypuszta 093/7, 093/8 hrsz , 2900 , Komárom	47,7390852	18,1267006
Komárom-Esztergom	HU-212-TH-00102	Mocsai Búzakalász Szövetkezet	2911	Mocsa	0271/16	0271/16 , 2911 , Mocsa	39,0706259	-94,5906336
Komárom-Esztergom	HU-212-TH-00103	Szíjj Dénes	2921	Komárom	Kossuth Lajos u. 100	Kossuth Lajos u. 100 , 2921 , Komárom	47,727627	18,169753
Komárom-Esztergom	HU-212-TH-00105	Csabai Dezső	2941	Ács	Csabai tanya	Csabai tanya , 2941 , Ács	47,7146366	18,0358581
Komárom-Esztergom	HU-212-TH-00201	Tejút Kft.	2517	Kesztölc	Központi Major	Központi Major , 2517 , Kesztölc	47,7095747	18,8031267
Komárom-Esztergom	HU-212-TH-00202	Baranya Zoltán	2543	Süttő	0139 hrsz.	0139 hrsz. , 2543 , Süttő	47,7173114	18,4531038
Komárom-Esztergom	HU-212-TH-00203	Rétki Gábor	2028	Pilismarót	Miklós Deák völgy 02/10 hrsz.	Miklós Deák völgy 02/10 hrsz. , 2028 , Pilismarót	47,7644093	18,8354075
Komárom-Esztergom	HU-212-TH-00302	Aranykocsi Zrt.	2898	Kocs	Győri u. 0188 hrsz.	Győri u. 0188 hrsz. , 2898 , Kocs	47,5889712	18,2133286
Komárom-Esztergom	HU-212-TH-00106	Komáromi Mezőgazdasági Zrt.	2949	Csém	049 hrsz.	049 hrsz. , 2949 , Csém	47,6869512	18,0801153
Komárom-Esztergom	HU-212-TH-00003	Állért Kft.	2947	Ete	0228/18 hrsz	0228/18 hrsz , 2947 , Ete
Komárom-Esztergom	HU-212-TH-00002	Ászári Mezőgazdasági Termelő Szolgáltató és Értékesítő Zrt.	2882	Kerékteleki	057/2 hrsz.	057/2 hrsz. , 2882 , Kerékteleki	47,5151856	17,9390277
Komárom-Esztergom	HU-212-TH-00001	Akai Agrár kft.	2862	Aka	Arany János u. 15.	Arany János u. 15. , 2862 , Aka	47,4013811	18,0696451
Komárom-Esztergom	HU-212-TH-00303	Albers Agrár Bt.	2856	Szákszend	05/4 hrsz	05/4 hrsz , 2856 , Szákszend	47,556632	18,1627313
Komárom-Esztergom	HU-212-TH-00004	Mészáros Zoltán	2886	Réde	Széchenyi u. 20.	Széchenyi u. 20. , 2886 , Réde	47,4266884	17,9235773
Nógrád	HU-11-TH-00001	ComAgro Sardo Kft.	2691	Nógrádkövesd	Hrsz. 083/1	Hrsz. 083/1 , 2691 , Nógrádkövesd	47,8764684	19,3640855
Nógrád	HU-11-TH-00007	Baksa Gábor	3182	Karancslapuljtő	Sötétlápapuszta 0550/5 hrsz.	Sötétlápapuszta 0550/5 hrsz. , 3182 , Karancslapuljtő	48,1536509	19,732685
Nógrád	HU-11-TH-00011	Torák Kornél	3137	Karancsberény	0334/44 hrsz	0334/44 hrsz , 3137 , Karancsberény	48,1844751	19,762596
Nógrád	HU-11-TH-00008	Bárány János	3178	Varsány	02/1, 02/5 hrsz	02/1, 02/5 hrsz , 3178 , Varsány	47,4613375	18,9658974
Nógrád	HU-11-TH-00010	Kiss Bertalan	3178	Varsány	0111/62 hrsz	0111/62 hrsz , 3178 , Varsány	48,0301615	19,4692343
Nógrád	HU-11-TH-00001	ComAgro-Sardo Kft.	2691	Nógrádkövesd	083/1 hrsz	083/1 hrsz , 2691 , Nógrádkövesd	47,8764684	19,3640855
Nógrád	HU-11-TH-00002	Agroméra Zrt.	2659	Érsekvadkert	0236/3 hrsz.	0236/3 hrsz. , 2659 , Érsekvadkert	47,9896807	19,195202
Nógrád	HU-11-TH-00006	Bandi Milk Farm Kft.	2673	Csitár	015 hrsz.	015 hrsz. , 2673 , Csitár	48,0430157	19,4253303
Nógrád	HU-11-TH-00004	Maszlik Zoltán	2655	Szente	036 hrsz	036 hrsz , 2655 , Szente	47,9614015	19,2855683
Nógrád	HU-11-TH-00005	Terman Lászlóné	2656	Szátok	Kossuth u. 101	Kossuth u. 101 , 2656 , Szátok	47,95226	19,246368
Nógrád	HU-11-TH-00013	Ondrésik Árpádné	3068	Mátraszőlős	015/5 hrsz.	015/5 hrsz. , 3068 , Mátraszőlős	47,9545683	19,6898279
Nógrád	HU-11-TH-00009	Mátrafarm Hungária Kft.	3155	Mátramindszent	053/2 hrsz.	053/2 hrsz. , 3155 , Mátramindszent	47,980392	19,934013
Nógrád	HU-11-TH-00012	Cserhátalja Mezőgazdasági Zrt.	3052	Csécse	024/5 hrsz.	024/5 hrsz. , 3052 , Csécse	47,8596168	19,6200492
Pest	HU-102-TH-00001	Merész Sándor	2161	Csomád	Újmajor	Újmajor , 2161 , Csomád	47,653575	19,236692
Pest	HU-102-TH-00008	Csíkvártej Kft	2750	Nagykőrös	Csíkvár dűlő 29.	Csíkvár dűlő 29. , 2750 , Nagykőrös	47,0207578	19,8107935
Pest	HU-102-TH-00007	Herczeg Lajos	2700	Cegléd	Külterület              Hrsz. 0856/22	Külterület              Hrsz. 0856/22 , 2700 , Cegléd	47,2057596	19,7956038
Pest	HU-102-TH-00007	Aranytej Kft.	2750	Nagykőrös	Gogány dűlő Hrsz.032/5	Gogány dűlő Hrsz.032/5 , 2750 , Nagykőrös	47,079505	19,7544631
Pest	HU-102-TH-00005	Abonyi Mezőgazdasági Zrt.	2740	Abony	Kisbalaton dűlő 1.	Kisbalaton dűlő 1. , 2740 , Abony	47,2034718	20,0330551
Pest	HU-102-TH-00004	Ágics Tej	2316	Tököl	Ledina Tanya 1/b	Ledina Tanya 1/b , 2316 , Tököl	47,309145	18,975723
Pest	HU-102-TH-00003	Fríz Farm Kft.	2340	Kiskunlacháza	Tanya(2) 0400/40	Tanya(2) 0400/40 , 2340 , Kiskunlacháza	47,1818581	19,0089704
Pest	HU-102-TH-00002	Dunatáj Mg Tsz.	2344	Dömsöd	Tassi úti telep	Tassi úti telep , 2344 , Dömsöd	47,079926	19,0072687
Pest	HU-102-TH-00015	Szabó Péter	2714	Nyársapát	Ugyeri dűlő 0238/4	Ugyeri dűlő 0238/4 , 2714 , Nyársapát	47,114292	19,810846
Pest	HU-102-TH-00014	Toldi Tej	2750	Nagykőrös	Fekete dűlő 72/a	Fekete dűlő 72/a , 2750 , Nagykőrös	46,988291	19,762819
Pest	HU-102-TH-00010	Dokrimo Kft.	2700	Cegléd	Pesti út 0257/3 Hrsz.	Pesti út 0257/3 Hrsz. , 2700 , Cegléd	47,182029	19,7602812
Pest	HU-102-TH-00013	Petőfi Mgsz	2755	Kocsér	V. dűlő 34.	V. dűlő 34. , 2755 , Kocsér	47,0083759	19,9355471
Pest	HU-102-TH-00011	Erdélyi Istvánné	2700	Cegléd	Réti dűlő 434.	Réti dűlő 434. , 2700 , Cegléd	47,2057596	19,7956038
Pest	HU-102-TH-00016	Agrifutira-Real Kft.	2460	Tárnok	Anasztázia Major	Anasztázia Major , 2460 , Tárnok	47,3684498	18,860627
Pest	HU-102-TH-00017	Hunland Farm Mezőgazdasági Termelő Szolgáltató Kft.	2217	Gomba	Felsőfarkasd Major hrsz. 0491/4	Felsőfarkasd Major hrsz. 0491/4 , 2217 , Gomba	47,4054619	19,484571
Pest	HU-102-TH-00009	Kórodi Ferenc	2750	Nagykőrös	Barátszilas dűlő	Barátszilas dűlő , 2750 , Nagykőrös	47,0207578	19,8107935
Pest	HU-102-TH-00018	H+N Kft.	1238	Budapest	Major út 1.	Major út 1. , 1238 , Budapest	47,458387	19,038289
Pest	HU-102-TH-00020	Borbás Sándorné	2344	Dömsöd	Áchim utca 0362/40 hrsz	Áchim utca 0362/40 hrsz , 2344 , Dömsöd	47,094901	19,0237527
Pest	HU-102-TH-00019	Agro-Taks Kft.	2335	Taksony	Bugyi u. 042/1	Bugyi u. 042/1 , 2335 , Taksony	47,326276	19,063503
Pest	HU-102-TH-00021	Alexov Milan ev.	2309	Lórév	Külterület 041/15 hrsz.	Külterület 041/15 hrsz. , 2309 , Lórév	47,1151743	18,8970457
Pest	HU-102-TH-00023	Ficsor Árpád ev.	2330	Dunaharaszti	Külterület 0187/203 hrsz.	Külterület 0187/203 hrsz. , 2330 , Dunaharaszti	47,3379151	19,1023787
Pest	HU-102-TH-00022	Mezőterm Kft.	2309	Lórév	Külterület 043/2 hrsz.	Külterület 043/2 hrsz. , 2309 , Lórév	47,1151743	18,8970457
Pest	HU-102-TH-00024	Szabó és Társa Kft.	2764	Tápióbicske	Géza major 0390/2 hrsz	Géza major 0390/2 hrsz , 2764 , Tápióbicske	47,352814	19,705146
Pest	HU-102-TH-00030	Cosinus Gamma Kft.	2347	Bugyi	Juhászföld 1719/8	Juhászföld 1719/8 , 2347 , Bugyi	47,130371	19,177837
Pest	HU-102-TH-00031	Lakto kft.	2370	Dabas	Béke u. 18.	Béke u. 18. , 2370 , Dabas	47,1790223	19,3115452
Pest	HU-102-TH-00029	Tej 2007 Kft.	2351	Alsónémedi	Hrsz.:0331/3	Hrsz.:0331/3 , 2351 , Alsónémedi	47,3061231	19,1689384
Pest	HU-102-TH-00039	Kunvári János	2737	Ceglédbercel	Fekete rész külterölet Hrsz.: 081/5	Fekete rész külterölet Hrsz.: 081/5 , 2737 , Ceglédbercel	47,2180165	19,6703348
Pest	HU-102-TH-00050	Bekő Ambrus	2747	Törtel	Hajnal út 069/9 hrsz	Hajnal út 069/9 hrsz , 2747 , Törtel	47,114473	19,9472855
Pest	HU-102-TH-00058	Ecseri Jánosné	2700	Cegléd	Kőkút lapos d 030/4 hrsz	Kőkút lapos d 030/4 hrsz , 2700 , Cegléd	46,1911142	17,5758825
Pest	HU-102-TH-00056	Tóth Sándor	2750	Nagykőrös	Bokros 59.	Bokros 59. , 2750 , Nagykőrös	47,0421704	19,7900867
Pest	HU-102-TH-00059	Lukács Károly	2730	Albertirsa	József Attila u. 43	József Attila u. 43 , 2730 , Albertirsa	47,238834	19,626713
Pest	HU-102-TH-00057	Csapó János	2713	Csemő	Kanális Part 1.	Kanális Part 1. , 2713 , Csemő	47,113095	19,6903669
Pest	HU-102-TH-00043	Pusztai Istvánné	2700	Cegléd	XIII. ker 147	XIII. ker 147 , 2700 , Cegléd	47,5355105	19,0709266
Pest	HU-102-TH-00047	Tankó Attila	2740	Abony	Balhás dűlő 5.	Balhás dűlő 5. , 2740 , Abony	47,2034718	20,0330551
Pest	HU-102-TH-00049	Csáki Istvánné	2747	Törtel	Kákás dűlő 40 sz.	Kákás dűlő 40 sz. , 2747 , Törtel	47,1121046	19,9216091
Pest	HU-102-TH-00051	Nagy Ambrus	2713	Csemő	0176/13 hrsz	0176/13 hrsz , 2713 , Csemő	47,1177661	19,6907056
Pest	HU-102-TH-00048	Csizmadi Lajosné	2736	Mikebuda	Teleki út 7.	Teleki út 7. , 2736 , Mikebuda	47,1640795	19,6317015
Pest	HU-102-TH-00038	Bújdos Pál Zoltán	2730	Albertirsa	Viola u. 60	Viola u. 60 , 2730 , Albertirsa	47,23108	19,630287
Pest	HU-102-TH-00042	Kovács István	2740	Abony	Mátyás K. u. 18.	Mátyás K. u. 18. , 2740 , Abony	47,2034718	20,0330551
Pest	HU-102-TH-00046	Sinka Pálinkás Károly	2700	Cegléd	Ugyer 3.	Ugyer 3. , 2700 , Cegléd	47,150864	19,759436
Pest	HU-102-TH-00052	Kiss Ernő	2750	Nagykőrös	Bokros dűlő 1319.	Bokros dűlő 1319. , 2750 , Nagykőrös	47,115829	19,8090179
Pest	HU-102-TH-00045	Süveges Béla Jánosné	2740	Abony	Belsőerdő 28.	Belsőerdő 28. , 2740 , Abony	47,2034718	20,0330551
Pest	HU-102-TH-00044	Lebanov Pálné	2730	Albertirsa	Homokrész u. 80.	Homokrész u. 80. , 2730 , Albertirsa	47,2375646	19,5913389
Pest	HU-102-TH-00071	Potor Lászlóné	2336	Dunavarsány	Bartók Béla út 8.	Bartók Béla út 8. , 2336 , Dunavarsány	47,289126	19,0368139
Pest	HU-102-TH-00069	Lepsényi Terézia	2315	Szigethalom	Ledina dűlő 3.	Ledina dűlő 3. , 2315 , Szigethalom	47,3148188	18,9760702
Pest	HU-102-TH-00068	Hollné Nemes Róza	2344	Dömsöd	Öregszőlőhegyi út 19.	Öregszőlőhegyi út 19. , 2344 , Dömsöd	47,0980235	19,021675
Pest	HU-102-TH-00067	Bodó Csaba	2337	Délegyháza	Csóka tanya 19.	Csóka tanya 19. , 2337 , Délegyháza	47,2425649	19,0554251
Pest	HU-102-TH-00072	Rémai András	2337	Délegyháza	Csóka tanya 21.	Csóka tanya 21. , 2337 , Délegyháza	47,2425649	19,0554251
Pest	HU-102-TH-00070	Lepsényi Terézia	2315	Szigethalom	Ledina dűlő 3.	Ledina dűlő 3. , 2315 , Szigethalom	47,3148188	18,9760702
Pest	HU-102-TH-00066	Ambrus György	2330	Dunaharaszti	Külterület 0244/22	Külterület 0244/22 , 2330 , Dunaharaszti	47,3536817	19,0970722
Pest	HU-102-TH-00073	Somogyi József János	2344	Dömsöd	Kunszentmiklósi út 36	Kunszentmiklósi út 36 , 2344 , Dömsöd	47,08491	19,024228
Pest	HU-102-TH-00075	Jaksa Imre	2344	Dömsöd	Kurucz utca 8.	Kurucz utca 8. , 2344 , Dömsöd	47,091733	19,007141
Pest	HU-102-TH-00074	Fauszt Ágoston	2340	Kiskunlacháza	Pesti út 121	Pesti út 121 , 2340 , Kiskunlacháza	47,1818581	19,0089704
Pest	HU-102-TH-00064	Törőcsik Tibor	2730	Albertirsa	Homokrész 151.	Homokrész 151. , 2730 , Albertirsa	47,2369772	19,5906175
Pest	HU-102-TH-00065	Balogh András Lajosné	2712	Nyársapát	Összekötő 27.	Összekötő 27. , 2712 , Nyársapát	47,1084387	19,82957
Pest	HU-102-TH-00063	Baranyiné Balogh Tünde	2712	Nyársapát	Összekötő 27.	Összekötő 27. , 2712 , Nyársapát	47,1084387	19,82957
Pest	HU-102-TH-00053	Petrezselyemné Bajári Mónika	2740	Abony	Szolnoki út 28.	Szolnoki út 28. , 2740 , Abony	47,1873507	20,0137831
Pest	HU-102-TH-00061	Pálinkás László	2713	Csemő	Táncsics M. út 19.	Táncsics M. út 19. , 2713 , Csemő	47,112958	19,691558
Pest	HU-102-TH-00054	Kiss Tamás	2700	Cegléd	Külső Kátai út 49.	Külső Kátai út 49. , 2700 , Cegléd	47,1935969	19,787678
Pest	HU-102-TH-00055	Kiss Tamás	2700	Cegléd	Külső Kátai út 49.	Külső Kátai út 49. , 2700 , Cegléd	47,1935969	19,787678
Pest	HU-102-TH-00130	Kovács Józsefné	2183	Galgamácsa	Petőfi utca 24.	Petőfi utca 24. , 2183 , Galgamácsa	47,6912795	19,3892175
Pest	HU-102-TH-00131	Varga Géza	2193	Galgahévíz	Fő út 83.	Fő út 83. , 2193 , Galgahévíz	47,6222826	19,5467047
Pest	HU-102-TH-00133	GAK Nonprofit Közhasznú Kft.	2100	Gödöllő	Práter K. utca 1.	Práter K. utca 1. , 2100 , Gödöllő	47,5923813	19,3616034
Pest	HU-102-TH-00129	Józsa Csaba	2174	Verseg	Rákóczi u.5.	Rákóczi u.5. , 2174 , Verseg	47,7230843	19,5448841
Pest	HU-102-TH-00132	Varga Géza	2193	Galgahévíz	Fő út 83.	Fő út 83. , 2193 , Galgahévíz	47,6222826	19,5467047
Pest	HU-102-TH-00089	Kraján Eszter	2700	Cegléd	XII.279	XII.279 , 2700 , Cegléd	47,2057596	19,7956038
Pest	HU-102-TH-00139	Mama Istvánné	2700	Cegléd	XII. Értem d.139.	XII. Értem d.139. , 2700 , Cegléd	47,2057596	19,7956038
Pest	HU-102-TH-00137	Deák István	2700	Cegléd	Jászberényi út 397.	Jászberényi út 397. , 2700 , Cegléd	47,1795015	19,8003065
Pest	HU-102-TH-00183	Rehor Ferenc	2700	Cegléd	Dinnyéshalom u. 282. dűlő	Dinnyéshalom u. 282. dűlő , 2700 , Cegléd	47,145745	19,8027369
Pest	HU-102-TH-00136	Palcsó István	2700	Cegléd	Fertályos kaszálók 46.	Fertályos kaszálók 46. , 2700 , Cegléd
Pest	HU-102-TH-00140	Kovács Lajos Ernő	2700	Cegléd	Márta dűlő 51.	Márta dűlő 51. , 2700 , Cegléd	47,2057596	19,7956038
Pest	HU-102-TH-00141	Kovács Sándor	2736	Mikebuda	II. dűlő 36.	II. dűlő 36. , 2736 , Mikebuda	47,1640795	19,6317015
Pest	HU-102-TH-00143	Tóth Albert	2700	Cegléd	Tanítóföld 372	Tanítóföld 372 , 2700 , Cegléd	47,1737909	19,7966325
Pest	HU-102-TH-00144	Kovácsné Kárteszi Andrea	2700	Cegléd	Gyulai dűlő 166.	Gyulai dűlő 166. , 2700 , Cegléd	47,2057596	19,7956038
Pest	HU-102-TH-00142	Szöllősi Zoltán	2700	Cegléd	Tanítóföld 380	Tanítóföld 380 , 2700 , Cegléd	47,1737909	19,7966325
Pest	HU-102-TH-00145	Nagy Józsefné	2700	Cegléd	Jászberényi út 135.	Jászberényi út 135. , 2700 , Cegléd	47,1808599	19,8014702
Pest	HU-102-TH-00146	Kovács Erika	2713	Csemő	Monori dűlő 28.	Monori dűlő 28. , 2713 , Csemő	47,1389343	19,7322721
Pest	HU-102-TH-00147	Czigle Krisztina	2700	Cegléd	Külső Jászberényi út 425	Külső Jászberényi út 425 , 2700 , Cegléd	47,1939207	19,8112325
Pest	HU-102-TH-00148	Jankó Attila	2700	Cegléd	Külső Jászberényi út 9/a	Külső Jászberényi út 9/a , 2700 , Cegléd	47,1939207	19,8112325
Pest	HU-102-TH-00149	Sipos István	2769	Tápiószőlős	Ceglédi úti tanyák 4.	Ceglédi úti tanyák 4. , 2769 , Tápiószőlős	47,2980608	19,8689738
Pest	HU-102-TH-00150	Kökény Sándor	2700	Cegléd	Tükör u. 24.	Tükör u. 24. , 2700 , Cegléd	47,1718093	19,7772273
Pest	HU 102 TH 00242	Horvát János	2747	Törtel	Nyilas dűlő 0324/6. hrsz.	Nyilas dűlő 0324/6. hrsz. , 2747 , Törtel	47,09096	19,864006
Pest	HU 102 TH 00154	Csipkó István	2700	Cegléd	Orosz d. 27.	Orosz d. 27. , 2700 , Cegléd	47,1737909	19,7966325
Pest	HU 102 TH 00153	Szabó Lajos	2700	Cegléd	Tófű d. 641.	Tófű d. 641. , 2700 , Cegléd	47,2057596	19,7956038
Pest	HU 102 TH 00179	Kovács György	2700	Cegléd	Pókbangó u. 4.	Pókbangó u. 4. , 2700 , Cegléd	47,1696901	19,7689935
Pest	HU 102 TH 00155	Szentpéteri Balázs	2750	Nagykőrös	Zsíros d. 1/a.	Zsíros d. 1/a. , 2750 , Nagykőrös	47,0207578	19,8107935
Pest	HU 102 TH 00156	Szabó Albert	2712	Nyársapát	Csemő d. 15.	Csemő d. 15. , 2712 , Nyársapát	47,1084387	19,82957
Pest	HU 102 TH 00152	Szabó Dénesné	2712	Nyársapát	Iskola d. 14.	Iskola d. 14. , 2712 , Nyársapát	47,099727	19,798568
Pest	HU 102 TH 00133	GAK Nonprofit Közhasznú Kft.	2100	Gödöllő	Páter Károly u. 1.	Páter Károly u. 1. , 2100 , Gödöllő	47,5923813	19,3616034
Pest	HU 102 TH 00170	Bíró Sándorné	2365	Inárcs	Bajcsy Zsilinszki u. 90	Bajcsy Zsilinszki u. 90 , 2365 , Inárcs	47,2617418	19,3292821
Pest	HU 102 TH 00171	Bíró Sándorné	2365	Inárcs	Bajcsy Zsilinszki u. 90	Bajcsy Zsilinszki u. 90 , 2365 , Inárcs	47,2617418	19,3292821
Pest	HU 102 TH 00174	Bus István	2351	Alsónémedi	Északi Ipartelep 1.	Északi Ipartelep 1. , 2351 , Alsónémedi	47,353823	19,153574
Pest	HU 102 TH 00099	Czang Bernadett	2376	Hernád	Deák F. u. 34	Deák F. u. 34 , 2376 , Hernád	47,1554042	19,4294929
Pest	HU 102 TH 00166	Doricsák Istvánné	2377	Örkény	Fő út 80.	Fő út 80. , 2377 , Örkény	47,1275482	19,4270272
Pest	HU 102 TH 00167	Doricsák Istvánné	2377	Örkény	Fő út 80.	Fő út 80. , 2377 , Örkény	47,1275482	19,4270272
Pest	HU 102 TH 00164	Fajt Mihály	2366	Kakucs	Csikós puszta 3	Csikós puszta 3 , 2366 , Kakucs	47,2332468	19,3545719
Pest	HU 102 TH 00159	Féliksz Ferenc	2347	Bugyi	Ürbőpuszta 00282/0004 hrsz.	Ürbőpuszta 00282/0004 hrsz. , 2347 , Bugyi	47,1563858	19,171716
Pest	HU 102 TH 00095	Gál Csaba	2364	Ócsa	Újerdő tanya 11	Újerdő tanya 11 , 2364 , Ócsa	47,2923794	19,248088
Pest	HU 102 TH 00173	Halupka Imréné	2377	Örkény	Arany János u. 13.	Arany János u. 13. , 2377 , Örkény	47,1292004	19,430166
Pest	HU 102 TH 00102	Heszler Zsoltné	2347	Bugyi	Deák Ferenc u. 12.	Deák Ferenc u. 12. , 2347 , Bugyi	47,220464	19,1450657
Pest	HU 102 TH 00103	Hmiró János	2376	Hernád	Kossuth u. 30	Kossuth u. 30 , 2376 , Hernád	47,1643827	19,4196284
Pest	HU 102 TH 00105	Hmiró János Józsefné	2376	Hernád	Gyóni út 92.	Gyóni út 92. , 2376 , Hernád	47,164044	19,4136315
Pest	HU 102 TH 00104	Hmiró Jánosné	2376	Hernád	Kossuth u. 30.	Kossuth u. 30. , 2376 , Hernád	47,1643827	19,4196284
Pest	HU 102 TH 00105	Hmiró Judit	2376	Hernád	Gyóni út 92.	Gyóni út 92. , 2376 , Hernád	47,164044	19,4136315
Pest	HU 102 TH 00111	Horváth István	2724	Újlengyel	Temető u. 59/B.	Temető u. 59/B. , 2724 , Újlengyel	47,2245329	19,4511382
Pest	HU 102 TH 00100	Keindl Ágnes	2376	Hernád	Bogár dűlő 9.	Bogár dűlő 9. , 2376 , Hernád	47,1795405	19,4095729
Pest	HU 102 TH 00175	Kerekes Balázsné	2351	Alsónémedi	Széchenyi u. 63.	Széchenyi u. 63. , 2351 , Alsónémedi	47,3126702	19,1578743
Pest	HU 102 TH 00162	Kohut Pál	2347	Bugyi	Ürbőmajor-Ürbőpuszta 9.	Ürbőmajor-Ürbőpuszta 9. , 2347 , Bugyi	47,1563858	19,171716
Pest	HU 102 TH 00101	Lánczos Istvánné	2376	Hernád	Visegrádi u. 1.	Visegrádi u. 1. , 2376 , Hernád	47,162836	19,3987762
Pest	HU 102 TH 00110	Lovistyek László	2370	Dabas	Andrássy út 77.	Andrássy út 77. , 2370 , Dabas	47,1873842	19,3027868
Pest	HU 102 TH 00160	Macsek Tibor	2347	Bugyi	Tarhegyi u. 6.	Tarhegyi u. 6. , 2347 , Bugyi	47,2368592	19,1386536
Pest	HU 102 TH 00106	Mészáros Lászlóné	2370	Dabas	Batsányi u. 10.	Batsányi u. 10. , 2370 , Dabas	47,1789339	19,3221799
Pest	HU 102 TH 00163	Németh Péter Pálné	2381	Táborfalva	Kecskeméti u. 9.	Kecskeméti u. 9. , 2381 , Táborfalva	47,0948209	19,4739307
Pest	HU 102 TH 00115	Novizcki Zoltán	2724	Újlengyel	Petőfi Sándor u. 46.	Petőfi Sándor u. 46. , 2724 , Újlengyel	47,2273627	19,4558994
Pest	HU 102 TH 00106	Opóczki Miklósné	2370	Dabas	Új u. 14.	Új u. 14. , 2370 , Dabas	47,1788797	19,3185651
Pest	HU 102 TH 00176	Pálfi János	2363	Felsőpakony	TSZ dűlő 26.	TSZ dűlő 26. , 2363 , Felsőpakony	47,3450632	19,2601859
Pest	HU 102 TH 00157	Peron Kálmán	2381	Táborfalva	Rákóczi út 7.	Rákóczi út 7. , 2381 , Táborfalva	47,1278512	19,4738449
Pest	HU 102 TH 00107	Pongrácz Ferenc	2375	Tatárszentgyörgy	Vitéz sor 1/A.	Vitéz sor 1/A. , 2375 , Tatárszentgyörgy	47,052771	19,33896
Pest	HU 102 TH 00096	Rácz János	2364	Ócsa	Kiss János u. 1/F	Kiss János u. 1/F , 2364 , Ócsa	47,290915	19,2302949
Pest	HU 102 TH 00097	Rendeczki Józsefné	2376	Hernád	Fő u. 24/C.	Fő u. 24/C. , 2376 , Hernád	47,15909	19,4408652
Pest	HU 102 TH 00098	Rendeczki Józsefné	2376	Hernád	Fő u. 24/C.	Fő u. 24/C. , 2376 , Hernád	47,15909	19,4408652
Pest	HU 102 TH 00175	Románné Kerekes Eszter	2351	Alsónémedi	Széchenyi u. 38.	Széchenyi u. 38. , 2351 , Alsónémedi	47,3118382	19,1586432
Pest	HU 102 TH 00161	Solymosi Ferenc	2347	Bugyi	Láncürbő telep, Ürbőpuszta 36.	Láncürbő telep, Ürbőpuszta 36. , 2347 , Bugyi	47,1563858	19,171716
Pest	HU 102 TH 00108	Szarka János	2375	Tatárszentgyörgy	Sarlósár 12.	Sarlósár 12. , 2375 , Tatárszentgyörgy	47,0707408	19,3582662
Pest	HU 102 TH 00109	Szarka János Zsolt	2375	Tatárszentgyörgy	Sarlósár 13.	Sarlósár 13. , 2375 , Tatárszentgyörgy	47,0707408	19,3582662
Pest	HU 102 TH 00158	Szilvási László	2360	Gyál	Széchenyi út 99.	Széchenyi út 99. , 2360 , Gyál	47,380848	19,231829
Pest	HU 102 TH 00112	Szórád Zoltán	2381	Táborfalva	Kőrösi út 63.	Kőrösi út 63. , 2381 , Táborfalva	47,0984144	19,4884445
Pest	HU 102 TH 00165	Telepóczki Pál	2367	Újhartyán	Malom u. 44.	Malom u. 44. , 2367 , Újhartyán	47,216332	19,3862464
Pest	HU 102 TH 00113	Telepóczki Pál	2724	Újlengyel	Temető u. 94.	Temető u. 94. , 2724 , Újlengyel	47,2218976	19,4543352
Pest	HU 102 TH 00172	Tihany Tiborné	2377	Örkény	Tatárszentgyörgyi út 39.	Tatárszentgyörgyi út 39. , 2377 , Örkény	47,1199464	19,4153064
Pest	HU 102 TH 00168	Tóth Ágnes	2377	Örkény	Fő út 16.	Fő út 16. , 2377 , Örkény	47,1236384	19,4343852
Pest	HU 102 TH 00169	Tóth Ágnes	2377	Örkény	Fő út 16.	Fő út 16. , 2377 , Örkény	47,1236384	19,4343852
Pest	HU 102 TH 00177	Varga Dániel	2381	Táborfalva	Németh dűlő 14.	Németh dűlő 14. , 2381 , Táborfalva	47,07488	19,4497252
Pest	HU 102 TH 00114	Vas Ferencné	2724	Újlengyel	Petőfi Sándor u. 41.	Petőfi Sándor u. 41. , 2724 , Újlengyel	47,2275773	19,455173
Pest	HU 102 TH 00178	Simon Imre Attila	2724	Újlengyel	Dánosi dűlő 3.	Dánosi dűlő 3. , 2724 , Újlengyel	47,2319361	19,464812
Pest	HU 102 TH 00088	Fülöp Kecskefarm	2013	Pomáz	Liszenkó telep 0318/1. hrsz.	Liszenkó telep 0318/1. hrsz. , 2013 , Pomáz	47,6456397	19,0218001
Pest	HU-102-TH-00060	Hörömpő Ferenc	2700	Cegléd	Ugyer 0106/2 hrsz	Ugyer 0106/2 hrsz , 2700 , Cegléd	47,150864	19,759436
Pest	HU-102-TH-00090	Mészáros Edit	2321	Szigetbecse	Napsugár utca 1	Napsugár utca 1 , 2321 , Szigetbecse	47,1340438	18,946719
Pest	HU-102-TH-00076	Simsik Imre	2300	Ráckeve	Rákóczi tanya	Rákóczi tanya , 2300 , Ráckeve	47,1659923	18,9246367
Pest	HU-102-TH-00032	Dányi Agrár Termelő és szolgáltató Szövetkezet	2118	Dány	043/55 hrsz.	043/55 hrsz. , 2118 , Dány
Pest	HU-102-TH-00078	Orbán Ferenc	2119	Pécel	Pesti u. 133.	Pesti u. 133. , 2119 , Pécel	47,491967	19,317162
Pest	HU-102-TH-00036	Homokszeri Szövetkezet	2183	Galgamácsa Tsz.	Tanya 3.	Tanya 3. , 2183 , Galgamácsa Tsz.	47,690801	19,4010059
Pest	HU-102-TH-00035	Galgamenti Mezőgazdasági kft.	2194	Tura	Régivásártér  út 6/a	Régivásártér  út 6/a , 2194 , Tura	47,6065121	19,5967844
Pest	HU-102-TH-00091	Hardy Miklós	2119	Pécel	Fáy tanya	Fáy tanya , 2119 , Pécel	47,464422	19,3696119
Pest	HU-102-TH-00086	Romlányiné Fehér Klára	2173	Kartal	Kun  u. 10.	Kun  u. 10. , 2173 , Kartal	47,664871	19,5326099
Pest	HU-102-TH-00082	Péter Tibor	2118	Dány	Széchenyi utca 37.	Széchenyi utca 37. , 2118 , Dány	47,5246818	19,5531397
Pest	HU-102-TH-00081	Szekeres Attila	2118	Dány	Széchenyi utca 37.	Széchenyi utca 37. , 2118 , Dány	47,5246818	19,5531397
Pest	HU-102-TH-00034	Fuchs - Tej Kft.	2111	Valkó	Dányi út 56	Dányi út 56 , 2111 , Valkó	47,5578116	19,5194002
Pest	HU-102-TH-00077	Orbán Ferenc	2119	Pécel	Pesti u. 133.	Pesti u. 133. , 2119 , Pécel	47,491967	19,317162
Pest	HU-102-TH-00079	Kakuszi Judit	2141	Csömör	Petőfi sándor utca 44.	Petőfi sándor utca 44. , 2141 , Csömör	47,545878	19,226064
Pest	HU-102-TH-00085	Kovács Mihály	2173	Kartal	Árpád F. u. 96.	Árpád F. u. 96. , 2173 , Kartal
Pest	HU-102-TH-00084	Szilágyi József	2100	Gödöllő	Borbolya u. 2.	Borbolya u. 2. , 2100 , Gödöllő	47,5827238	19,3847881
Pest	HU-102-TH-00080	Kövics Ferencné	2115	Vácszentlászló	Zsámboki utca 44.	Zsámboki utca 44. , 2115 , Vácszentlászló	47,569042	19,541063
Pest	HU-102-TH-00092	Berdó Imréné	2750	Nagykőrös	Nyárkútrét 6.	Nyárkútrét 6. , 2750 , Nagykőrös	47,0207578	19,8107935
Pest	HU-102-TH-00093	Solti Mihályné	2713	Csemő	Vett út 5.	Vett út 5. , 2713 , Csemő	47,1200165	19,7530841
Szabolcs-Szatmár	HU-323-TH-001	Berek-Farm Kft	4969	Tisztaberek	Tisztaberek 061.hrsz	Tisztaberek 061.hrsz , 4969 , Tisztaberek	47,9744736	22,8033936
Szabolcs-Szatmár	HU -323-TH-002	Herceg-Farm Kft	4967	Csaholc	Tisztaberek 081/3.hrsz, 081/4.hrsz	Tisztaberek 081/3.hrsz, 081/4.hrsz , 4967 , Csaholc	47,9833733	22,7323201
Szabolcs-Szatmár	HU -323-TH-003	Erdőhát zrt.	4967	Csaholc	Vámosoroszi 0204.hrsz	Vámosoroszi 0204.hrsz , 4967 , Csaholc	47,9921699	22,6824514
Szabolcs-Szatmár	HU -323-TH-004	Tamás Zoltán	4965	Kölcse	Kölcse 0167/20.hrsz	Kölcse 0167/20.hrsz , 4965 , Kölcse	48,0528737	22,7167332
Szabolcs-Szatmár	HU -323-TH-005	Jándtej Kft	4841	Jánd	Jánd 063/17.hrsz,063/18.hrsz, 063/20.hrsz,063/3.hrsz	Jánd 063/17.hrsz,063/18.hrsz, 063/20.hrsz,063/3.hrsz , 4841 , Jánd
Szabolcs-Szatmár	HU -323-TH-006	G-ker Kft	4564	Nyírmada	Nyírmada 0221/1.hrsz,0221/3.hrsz, 0221/5.hrsz,0221/6.hrsz,02.hrsz	Nyírmada 0221/1.hrsz,0221/3.hrsz, 0221/5.hrsz,0221/6.hrsz,02.hrsz , 4564 , Nyírmada	48,0661834	22,1941258
Szabolcs-Szatmár	HU -323-TH-007	Inter-Agrárium KFt.	4355	Nagyecsed	Nagyecsed Bereki-tanya 042 hrsz.	Nagyecsed Bereki-tanya 042 hrsz. , 4355 , Nagyecsed	47,8650809	22,3883812
Szabolcs-Szatmár	HU -323-TH-008	Csenger-tejf Kft.	4765	Csenger	Csengersima, Külterület 07/2 hrsz	Csengersima, Külterület 07/2 hrsz , 4765 , Csenger	47,8661778	22,7292015
Szabolcs-Szatmár	HU -323-TH-009	Fülöp Bálint	4338	Papos	4338 Papos, Ady út 23.	4338 Papos, Ady út 23. , 4338 , Papos	47,983996	22,2494177
Szabolcs-Szatmár	HU -323-TH-010	Juhász Ferenc	4356	Nyírcsaholy	4356 Nyírcsaholy, Hunyadi u. 141/B	4356 Nyírcsaholy, Hunyadi u. 141/B , 4356 , Nyírcsaholy	47,918568	22,325802
Szabolcs-Szatmár	HU -323-TH-011	Dombka 2003 Zrt.	4492	Dombrád	4492 Dombrád  0421/7 hrsz.	4492 Dombrád  0421/7 hrsz. , 4492 , Dombrád	48,2150282	21,9074304
Szabolcs-Szatmár	HU -323-TH-013	Uralgó Kft.	4300	Nyírbátor	4300 Nyírbátor, Árpád u. 156/a.	4300 Nyírbátor, Árpád u. 156/a. , 4300 , Nyírbátor	47,8243247	22,145634
Szabolcs-Szatmár	HU -323-TH-014	Serbán György	4341	Nyírvasvári	4341 Nyírvasvári, Szőlő u. 13.	4341 Nyírvasvári, Szőlő u. 13. , 4341 , Nyírvasvári	47,8202343	22,1936521
Szabolcs-Szatmár	HU -323-TH-015	Kóth Farm Kft.	4324	Kállósemjén	4324 Kállósemjén, Mező u. 57.	4324 Kállósemjén, Mező u. 57. , 4324 , Kállósemjén	47,853603	21,905881
Szabolcs-Szatmár	HU -323-TH-016	Ibránytej Kft.	4482	Kótaj	4484 Ibrány, 0289/1. hrsz.	4484 Ibrány, 0289/1. hrsz. , 4482 , Kótaj	48,061575	21,7116117
Szabolcs-Szatmár	HU -323-TH-017	Farmtej kft.	4482	Kótaj	4501 Kemecse, Szent I. út 1.	4501 Kemecse, Szent I. út 1. , 4482 , Kótaj	48,0455059	21,7133153
Szabolcs-Szatmár	HU -323-TH-028	Bagdi Attila	4487	Tiszatelek	Tiszatelek	Tiszatelek , 4487 , Tiszatelek	48,1954457	21,7962985
Szabolcs-Szatmár	HU -323-TH-029	Ócsai László	4511	Nyírbogdány	Nyírbogdány, Kőrösi Cs. S. 98.	Nyírbogdány, Kőrösi Cs. S. 98. , 4511 , Nyírbogdány	48,0554457	21,8751492
Szabolcs-Szatmár	HU -323-TH-030	Veress Benjámin	4511	Nyírbogdány	Nyírbogdány, Rácz kert 2.	Nyírbogdány, Rácz kert 2. , 4511 , Nyírbogdány	48,055834	21,871932
Szabolcs-Szatmár	HU -323-TH-031	Lónya Tejterm. Kft.	4501	Kemecse	Kemecse, Haas tanya	Kemecse, Haas tanya , 4501 , Kemecse	48,0964189	21,7898697
Szabolcs-Szatmár	HU-323-TH-032	Kökényesi Dániel	4434	Kálmánháza	4434 Kálmánháza, Arany J. u. 6.	4434 Kálmánháza, Arany J. u. 6. , 4434 , Kálmánháza	47,8726	21,5747709
Szabolcs-Szatmár	HU-323-TH-033	Jáger Sándor	4551	Nyh-Oros	4551 Nyh-Oros, Magyar u. 61.	4551 Nyh-Oros, Magyar u. 61. , 4551 , Nyh-Oros	47,9522429	21,790888
Szabolcs-Szatmár	HU-323-TH-034	DC-BAU KFT.	4440	Tiszavasvári	4440 Tiszavasvári, Dankópuszta 1.	4440 Tiszavasvári, Dankópuszta 1. , 4440 , Tiszavasvári	47,929015	21,265845
Szabolcs-Szatmár	HU-323-TH-035	Dancsné Orosz Katalin	4440	Tiszavasvári	4440 Tiszavasvári, Zrínyi u. 21.	4440 Tiszavasvári, Zrínyi u. 21. , 4440 , Tiszavasvári	47,9628549	21,3545928
Szabolcs-Szatmár	HU-323-TH-036	Milk-Tim Kft.			4466 Timár, Szabadság u. 2.	4466 Timár, Szabadság u. 2. ,  , 	48,1479391	21,4608198
Szabolcs-Szatmár	HU-323-TH-037	Balogh Zsolt	4455	Tiszadada	4455 Tiszadada, Vízmű u. 9.	4455 Tiszadada, Vízmű u. 9. , 4455 , Tiszadada	48,0317859	21,243396
Szabolcs-Szatmár	HU-323-TH-038	Szabadság Mg. Szövetkezet	4450	Tiszalök	4450 Tiszalök, Hajnalos	4450 Tiszalök, Hajnalos , 4450 , Tiszalök	47,9988889	21,4141667
Szabolcs-Szatmár	HU-323-TH-039	Tedej Befektető KFT.	4080	Hajdúnánás	4456 Tiszadob, Táncsics u.	4456 Tiszadob, Táncsics u. , 4080 , Hajdúnánás	48,0070542	21,1676207
Szabolcs-Szatmár	HU-323-TH-040	Agro-City Zrt.	4461	Nyírtelek	4461 Nyírtelek, Gyulatanya	4461 Nyírtelek, Gyulatanya , 4461 , Nyírtelek	48,0465184	21,6036907
Szabolcs-Szatmár	HU 323 TH 050	Agrofarm 333 Kft.	4245	Érpatak	Tsz Major	Tsz Major , 4245 , Érpatak
Szabolcs-Szatmár	HU 323 TH 051	Kozma Tibor József	4331	Nyírcsászári	Ságvári u. 13.	Ságvári u. 13. , 4331 , Nyírcsászári	47,8687191	22,1869767
Szabolcs-Szatmár	HU 323 TH 052	Vona Gábor	4326	Máriapócs	Vasút u. 4/a.	Vasút u. 4/a. , 4326 , Máriapócs	47,872017	22,026211
Szabolcs-Szatmár	HU-323-TH-049	Kovács Marianna	4963	Kisszekeres	Rákóczi u.7.	Rákóczi u.7. , 4963 , Kisszekeres	47,971929	22,629319
Tolna	HU-16-TH-03004	Blahér Kft.	7030	Paks-Gyapa	Kanacsi u. 9 0846/13 hrsz.	Kanacsi u. 9 0846/13 hrsz. , 7030 , Paks-Gyapa	46,6795824	18,8138478
Tolna	HU-16-TH-03001	Dunakömlődi Agrár Zrt.	7030	Paks	Dunakömlődi major 0978/2 hrsz.	Dunakömlődi major 0978/2 hrsz. , 7030 , Paks	46,6671947	18,8662515
Tolna	HU-16-TH-03006	Dunamenti Zrt.	7030	Paks	Központi telep	Központi telep , 7030 , Paks	46,6513666	18,8193852
Tolna	HU-16-TH-03002	Dunaszentgyörgyi Mg. Szövetkezet	7135	Dunaszentgyörgy	Központi telep 043/7 hrsz	Központi telep 043/7 hrsz , 7135 , Dunaszentgyörgy	46,5241161	18,8046097
Tolna	HU-16-TH-03005	Haladás Szövetkezet	7039	Németkér	Központi major	Központi major , 7039 , Németkér	46,7295074	18,7715418
Tolna	HU-16-TH-02002	Kaposszekcsői Mg Zrt.	7361	Kaposszekcső	Újmajor 0167/7	Újmajor 0167/7 , 7361 , Kaposszekcső	46,3427689	18,1342066
Tolna	HU-16-TH-02001	Kocsolai Mg Szövetkezet	7200	Kocsola	Külterület 065/7	Külterület 065/7 , 7200 , Kocsola	46,5271978	18,1826046
Tolna	HU-16-TH-04001	Bát-Tej Válalkozás és Kereskedelmi Kft.	7149	Báta	Tehenészeti telep 0127/9 hrsz	Tehenészeti telep 0127/9 hrsz , 7149 , Báta	46,1510537	18,7794143
Tolna	HU-16-TH-04004	Szekszárdi Mezőgazdasági Zrt.	7056	Szedres	Kajmád puszta 0232/2	Kajmád puszta 0232/2 , 7056 , Szedres	46,4348259	18,687922
Tolna	HU-16-TH-01001	Felsőnánai agrár Kft.	7175	Felsőnána	Külterület 0163/2 hrsz.	Külterület 0163/2 hrsz. , 7175 , Felsőnána	46,4737864	18,5125041
Tolna	HU-16-TH-04002	Bernard Pál Gyula	7100	Szekszárd	Ózsákpuszta	Ózsákpuszta , 7100 , Szekszárd	46,324266	18,817961
Tolna	HU-16-TH-04005	Tóbi Bálint	7132	Tolna	0193/20 hrsz	0193/20 hrsz , 7132 , Tolna	46,3773592	18,8480368
Tolna	HU-16-TH-04003	Kisné Horváth Erika	7142	Pörböly	Szálláskert u. 14.	Szálláskert u. 14. , 7142 , Pörböly	46,2097988	18,8123097
Tolna	HU-16-TH-03003	Milkmen Kft.	7038	Pusztahencse	Hrsz. 0120/56	Hrsz. 0120/56 , 7038 , Pusztahencse	46,59362	18,7143108
Tolna	HU-16-TH-01004	Várfő Kft.	7354	Váralja	Major Hrsz. 020/3	Major Hrsz. 020/3 , 7354 , Váralja	46,2564982	18,4170543
Tolna	HU-16-TH-01003	Teveli Zrt.	7181	Tevel	Külterület Hrsz.0106/1	Külterület Hrsz.0106/1 , 7181 , Tevel	47,8557258	17,2775613
Tolna	HU-16-TH-01002	Pannónia Állattenyésztő Kft.	7150	Bonyhád	Külterület Hrsz.0539/4	Külterület Hrsz.0539/4 , 7150 , Bonyhád	46,3315858	18,5312289
Tolna	HU-16-TH-05006	Kratz Csanád	7193	Regöly	Honvéd u. 1.	Honvéd u. 1. , 7193 , Regöly	46,5792329	18,3851686
Tolna	HU-223-TH-00001	Telekdi Csaba	7043	Bikács	Hrsz. 633/1	Hrsz. 633/1 , 7043 , Bikács	46,6800706	18,709063
Vas	HU-17-TH-018	Húshasznú Szarvasmarhatenyésztő Bt.	9783	Egyházasrádóc	0396/6 Hrsz	0396/6 Hrsz , 9783 , Egyházasrádóc	47,089499	16,637029
Vas	HU-17-TH-017	Pinkamenti Agrár Kft.	9921	Vasalja	068/6 Hrsz	068/6 Hrsz , 9921 , Vasalja	47,0145565	16,5123032
Vas	HU-17-TH-016	Körmendi Agrár Kft.	9909	Körmend/Horvátnád alja	0491/9 Hrsz	0491/9 Hrsz , 9909 , Körmend/Horvátnád alja	47,0070199	16,553226
Vas	HU-17-TH-015	Molnár Balázs	9654	Csánig	Kültelek u. 1.	Kültelek u. 1. , 9654 , Csánig	47,4404741	17,0358586
Vas	HU-17-TH-014	Molnár Sándor	9654	Csánig	Kültelek u. 1.	Kültelek u. 1. , 9654 , Csánig	47,4404741	17,0358586
Vas	HU-17-TH-013	Provid Kft.	9823	Pácsony	040 Hrsz	040 Hrsz , 9823 , Pácsony	47,0124591	16,8505457
Vas	HU-17-TH-012	Csörnöc - menti Mezőgazdasági Szövetkezet	9800	Vasvár	0192/2, 6	0192/2, 6 , 9800 , Vasvár	47,0479908	16,7806605
Vas	HU-17-TH-011	Kámi Mezőgazda Kft.	9841	Kám	0194 Hrsz	0194 Hrsz , 9841 , Kám
Vas	HU-17-TH-010	Sárvári Gazda Kft.	9600	Sárvár	Tilosalja telep	Tilosalja telep , 9600 , Sárvár	47,2559167	16,9136653
Vas	HU-17-TH-009	Sárvári Mezőgazdasági Zrt.	9631	Hegyfalu	054/12 Hrsz	054/12 Hrsz , 9631 , Hegyfalu	47,3390507	16,8795477
Vas	HU-17-TH-008	Sárvári Mezőgazdasági Zrt.	9673	Káld	Lajosmajor	Lajosmajor , 9673 , Káld	47,1528825	17,0138983
Vas	HU-17-TH-007	Celli Sághegyalja Mezőgazdasági és Ipari Termelő és Szolgáltató Zrt.		Celldömölk	Sági u. 216	Sági u. 216 ,  , Celldömölk	47,2301812	17,1480039
Vas	HU-17-TH-006	Agrár Offa Mezőgazdasági Kft.		Ostfyasszonyfa	Cser major	Cser major ,  , Ostfyasszonyfa	47,3285365	17,0432368
Vas	HU-17-TH-005	Rácúnió Kft.	9798	Ják	Rácz major / 0379 Hrsz	Rácz major / 0379 Hrsz , 9798 , Ják	47,13279	16,548361
Vas		Ráczné Gyalog Stefánia	9798	Ják	Rácz major / 0379 Hrsz	Rácz major / 0379 Hrsz , 9798 , Ják	47,13279	16,548361
Vas	HU-17-TH-004	Németh László Ferenc	9766	Zsennye	Petőfi u. 22.	Petőfi u. 22. , 9766 , Zsennye	47,113409	16,814958
Vas	HU-17-TH-003	Felszabadulás Mg Szövetkezet	9700	Szombathely	Zanati u. 0211/1 Hrsz	Zanati u. 0211/1 Hrsz , 9700 , Szombathely	47,2443332	16,6610961
Vas	HU-17-TH-001	Szombathelyi Tangazdaság Zrt.	9798	Ják	Felsőnyírvár major 0442/1, 0448/3	Felsőnyírvár major 0442/1, 0448/3 , 9798 , Ják	47,1184359	16,5693612
Veszprém	HU-213-TH-00002	Palota Mező Kft.	8161	Ősi	Ladányi u. 32. Hrsz. 065/3	Ladányi u. 32. Hrsz. 065/3 , 8161 , Ősi	47,1400812	18,191745
Veszprém	HU-213-TH-00003	Ifj. Pongrácz László	8475	Hosztót	043/1	043/1 , 8475 , Hosztót	47,085633	17,2419899
Veszprém	HU-213-TH-00004	Tóth Tamás	8330	Sümeg	Jánosmajor 052/4	Jánosmajor 052/4 , 8330 , Sümeg	46,9535144	17,2668731
Veszprém	HU-213-TH-00005	Kröpfel és Társa Mezőgazdasági Szolgáltató Kft.	8474	Csabrendek	Felső- erdő 0107/5	Felső- erdő 0107/5 , 8474 , Csabrendek	47,0055959	17,3194979
Veszprém	HU-213-TH-00006	Agro Vanyola Kft.	8558	Csót	Járóháza major 0140/2	Járóháza major 0140/2 , 8558 , Csót	47,361935	17,5741245
Veszprém	HU-213-TH-00007	Vaszari Agrofriz Kft.	8542	Vaszar	Hrsz. 028/4	Hrsz. 028/4 , 8542 , Vaszar	47,3940435	17,5355181
Veszprém	HU-213-TH-00008	Agromarcal Kft.	8522	Nemesgorzsony	Külterület hrsz.0183/5	Külterület hrsz.0183/5 , 8522 , Nemesgorzsony	47,39421	17,3636956
Veszprém	HU-213-TH-00009	Agroprodukt Zrt.	8558	Csót	Újmajor, Tanya 057/1	Újmajor, Tanya 057/1 , 8558 , Csót	47,3554922	17,6467422
Veszprém	HU-213-TH-00010	Agroprodukt Zrt.	8531	Marcaltő-Ihász	Zsigmondháza Tanya	Zsigmondháza Tanya , 8531 , Marcaltő-Ihász	47,4326649	17,3671483
Veszprém	HU-213-TH-00011	Agroprodukt Zrt.	9534	Marcalgergelyi	Újmajor Tanya	Újmajor Tanya , 9534 , Marcalgergelyi	47,297105	17,271598
Veszprém	HU-213-TH-00012	Bánfi Józsefné	8557	Bakonyszentiván	084/17	084/17 , 8557 , Bakonyszentiván	47,3903378	17,67112
Veszprém	HU-213-TH-00013	Bovintej Tejtermelő és Szarvasmarha Tenyésztő Kft.	8543	Gecse	Külterület 037	Külterület 037 , 8543 , Gecse	47,440521	17,5289939
Veszprém	HU-213-TH-00014	Majomsoki Extra Tej Tejtermelő és Állattenyésztő Kft.	8533	Majomsok	Hrsz 0296/1	Hrsz 0296/1 , 8533 , Majomsok
Veszprém	HU-213-TH-00015	Kemenesszentpéteri Agro Termelő és Értékesítő Kft.	8518	Kemenesszentpéter	Major hrsz 045	Major hrsz 045 , 8518 , Kemenesszentpéter	47,4189564	17,2138684
Veszprém	HU-213-TH-00016	Laktagro Kft.	8558	Csót	Központi major0102/10	Központi major0102/10 , 8558 , Csót	47,361567	17,606263
Veszprém	HU-213-TH-00017	Nemesszalóki Mezőgazdasági Zrt.	9533	Nemesszalók	Központi telep	Központi telep , 9533 , Nemesszalók	47,2752644	17,2958927
Veszprém	HU-213-TH-00018	Batthyány Lajos Mezőgazdasági és Élelmiszeripari Szakképző Iskola	8500	Pápa	Juhar u. 4	Juhar u. 4 , 8500 , Pápa	47,313474	17,4849235
Veszprém	HU-213-TH-00019	Járóna Kft.	8581	Bakonyjákó	Hrsz. 0120/34	Hrsz. 0120/34 , 8581 , Bakonyjákó	47,2247141	17,6015604
Veszprém	HU-213-TH-00020	Érsek Imre Ferenc	8551	Nagygyimót	Kossuth Lajos u. 57.	Kossuth Lajos u. 57. , 8551 , Nagygyimót	47,3496663	17,5289532
Veszprém	HU-213-TH-00054	Üveges Zsolt	8494	Kiscsősz	Kossuth Lajos u. 54	Kossuth Lajos u. 54 , 8494 , Kiscsősz	47,194622	17,279808
Veszprém	HU-213-TH-00055	Takácsné Balogh Renáta	8292	Öcs	Hrsz 180/6	Hrsz 180/6 , 8292 , Öcs
Veszprém	HU-213-TH-00056	id. Király Sándor	8497	Egeralja	Nádas major 82/4	Nádas major 82/4 , 8497 , Egeralja	47,231903	17,244713
Veszprém	HU-213-TH-00057	Gaál Fülöp Károly	8496	Nagypirit	Petőfi u. 14.	Petőfi u. 14. , 8496 , Nagypirit	47,2017518	17,225763
Veszprém	HU-213-TH-00058	Béke Károly	8492	Kerta	Dózsa György u. 97	Dózsa György u. 97 , 8492 , Kerta	47,1592373	17,2662495
Veszprém	HU-213-TH-00059	Fülöp Zoltán	8495	Csögle	Rákóczi utca 16.	Rákóczi utca 16. , 8495 , Csögle	47,2109245	17,2624176
Veszprém	HU-213-TH-00060	Antal János	8494	Kiscsősz	Kossuth u. 92.	Kossuth u. 92. , 8494 , Kiscsősz	47,197833	17,2794189
Veszprém	HU-213-TH-00021	Csiszár József	8500	Pápa	Kishegy u. 314.	Kishegy u. 314. , 8500 , Pápa	47,321329	17,493383
Veszprém	HU-213-TH-00022	Kiss Istvánné	8542	Vaszar	Jókai M. u. 5.	Jókai M. u. 5. , 8542 , Vaszar	47,4028666	17,5190574
Veszprém	HU-213-TH-00024	Vándor Zoltán	8596	Pápakovácsi	Hrsz 08/2	Hrsz 08/2 , 8596 , Pápakovácsi	47,2647348	17,4859138
Veszprém	HU-213-TH-00025	Narancsik Imre	8581	Németbánya	Kossuth Lajos u. 26.	Kossuth Lajos u. 26. , 8581 , Németbánya	47,2175475	17,6398961
Veszprém	HU-213-TH-00026	Narancsik Imréné	8581	Németbánya	Kossuth Lajos u. 26.	Kossuth Lajos u. 26. , 8581 , Németbánya	47,2175475	17,6398961
Veszprém	HU-213-TH-00027	Kocsis Károly	8514	Mezőlak	Petőfi Sándor u. 39.	Petőfi Sándor u. 39. , 8514 , Mezőlak	47,333509	17,372546
Veszprém	HU-213-TH-00028	Molnár Tibor Gyula	9534	Vinár	Köztársaság u. 34.	Köztársaság u. 34. , 9534 , Vinár	47,311118	17,2825604
Veszprém	HU-213-TH-00029	Molnár Károly	8516	Kemeneshőgyész	Ady Endre u. 33.	Ady Endre u. 33. , 8516 , Kemeneshőgyész	47,3550532	17,2957279
Veszprém	HU-213-TH-00030	Szautner László	8591	Nóráp	Kossuth Lajos u. 16.	Kossuth Lajos u. 16. , 8591 , Nóráp	47,273026	17,4579987
Veszprém	HU-213-TH-00031	Horváthné Györkös Ibolya	8500	Pápa	Mátyusháza 2.	Mátyusháza 2. , 8500 , Pápa	47,3490944	17,4099471
Veszprém	HU-213-TH-00051	Hun-Beef Kft.	8483	Somlószőlős	Hrsz.079	Hrsz.079 , 8483 , Somlószőlős	47,1731195	17,3605606
Veszprém	HU 213 TH 00023	Bujáky Miklós	8514	Mezőlak	Asszonyfa puszta 0204/3.	Asszonyfa puszta 0204/3. , 8514 , Mezőlak	47,344635	17,3679405
Zala	HU-223-TH-00001	Kerka-Genetika Kft.	8977	Resznek	Hrsz. 0179/1	Hrsz. 0179/1 , 8977 , Resznek	46,6637509	16,4745239
Zala	HU-223-TH-00005	Mandl Mezőgazdasági és Szolgáltató Kft.	8999	Zalalövő	Újmajor 6.	Újmajor 6. , 8999 , Zalalövő	46,8586235	16,586887
Zala	HU-223-TH-00006	Tarsoly Ottó Sándor	8793	Tekenye	Móri u. 19.	Móri u. 19. , 8793 , Tekenye	46,95763	17,1291179
Zala	HU-223-TH-00002	Taxbi Mezőgazdasági Kereskedelmi Szolgáltató Kft.	8991	Hottó	Tehenészeti telep	Tehenészeti telep , 8991 , Hottó	46,846601	16,7512196
Zala	HU-223-TH-00004	Zalagro Agráripari és Kereskedelmi Zrt.	8796	Türje	Hrsz. 0177/13	Hrsz. 0177/13 , 8796 , Türje	46,9853666	17,1000419
Zala	HU-223-TH-00003	Georgikon tanüzem Nonprofit	-	-	-	- , - , -
Zala	HU-332-TH-00022	Haladás Plus Mezőgazdasági Szolgáltató Kft.	5666	Medgyesegyháza	Külterület 0146/1 hrsz.	Külterület 0146/1 hrsz. , 5666 , Medgyesegyháza	46,498758	21,0462052
Zala	HU-223-TH-00008	Sulyok Béla	8342	Óhíd	Kossuth u. 133.	Kossuth u. 133. , 8342 , Óhíd	46,95614	17,1732371
Zala	HU-223-TH-00010	Tyrol Mezőgazdasági és Szolgáltató Kft.	8921	Zalaszentiván	Nagyfalud puszta 0122	Nagyfalud puszta 0122 , 8921 , Zalaszentiván	46,9005076	16,895549
Zala	HU-223-TH-00007	Balaskó Mezőgazdasági Kft.	8932	Pókaszepetk	Központi major	Központi major , 8932 , Pókaszepetk	46,9242449	16,9679338
Zala	HU-223-TH-00012	Kovács Tibor	8355	Vindornyaszőlős	Kossuth Lajos u. 19.	Kossuth Lajos u. 19. , 8355 , Vindornyaszőlős	46,8971543	17,1540202
Zala	HU-223-TH-00013	Reicz Attila János	8341	Kisvásárhely	Rákóczi u. 4.	Rákóczi u. 4. , 8341 , Kisvásárhely	46,9996732	17,2031948
Zala	HU-223-TH-00021	Szánti József	8316	Várvölgy	Kossuth u. 174	Kossuth u. 174 , 8316 , Várvölgy	46,8749058	17,2939658
Zala	HU-223-TH-00015	Izerné Kiss Helga Andrea	8790	Zalaszentgrót	Szabadság u. 108.	Szabadság u. 108. , 8790 , Zalaszentgrót	46,9268913	17,0835915
Zala	HU-223-TH-00016	Miklósfai Mezőgazdasági Zrt.	8800	Nagykanizsa Miklósfa	Hrsz. 0254	Hrsz. 0254 , 8800 , Nagykanizsa Miklósfa	46,4137719	16,998964
Zala	HU-223-TH-00017	Fűzvölgyi Agrár Termelő Kereskedelmi és Szolgáltató Zrt.	8776	Magyarszerdahely	Hrsz. 085/5	Hrsz. 085/5 , 8776 , Magyarszerdahely	46,5550468	16,9376435
Zala	HU-233-TH-00018	Backó Mezőgazdasági Termelő Kft.	8767	Felsőrajk	Hrsz. 049	Hrsz. 049 , 8767 , Felsőrajk	46,6782939	16,9857392
Zala	HU-233-TH-00019	Boros Antalné	8754	Galambok	Egax Kft. Major	Egax Kft. Major , 8754 , Galambok	46,5235499	17,1258926
Zala	HU-223-TH-00020	Anek József	8800	Nagykanizsa	Törökvári utca 154.	Törökvári utca 154. , 8800 , Nagykanizsa	46,3936312	16,9302311
Zala	HU-223-TH-00023	Korosa András	8371	Nemesbük	Április 4. u. 2.	Április 4. u. 2. , 8371 , Nemesbük	46,826914	17,142369
Zala	HU-223-TH-00026	Borda Péter	8911	Nagykutas	Gyöp u. 46.	Gyöp u. 46. , 8911 , Nagykutas	46,929938	16,8102003
Zala	HU-223-TH-00027	Czömpöl Péter	8994	Kávás	Arany J. utca 4.	Arany J. utca 4. , 8994 , Kávás	46,8757305	16,6978262
Zala	HU-223-TH-00028	Bagladi Tamás	8879	Kerkateskánd	Béke u. 4.	Béke u. 4. , 8879 , Kerkateskánd	46,573656	16,5712247
Zala	HU-223-TH-00030	Fejes Csaba	8969	Zalaszombatfa	Kossuth u.16.	Kossuth u.16. , 8969 , Zalaszombatfa	46,63817	16,4423529
Zala	HU-223-TH-00032	Gombás Istvánné	8988	Kálócfa	Kossuth u. 58.	Kossuth u. 58. , 8988 , Kálócfa	46,7562076	16,5652705
Zala	HU-223-TH-00029	Horváth László	8977	Resznek	Mártírok u. 24	Mártírok u. 24 , 8977 , Resznek	46,6634555	16,472727
Zala	HU-223-TH-00033	Tornyos Elek	8973	Ramocsa	Fő u. 19	Fő u. 19 , 8973 , Ramocsa	46,775378	16,4476799
Zala	HU-223-TH-00031	Virágh Enikő	8973	Kozmadombja	Jókai u. 20	Jókai u. 20 , 8973 , Kozmadombja	46,7668629	16,5592357
Zala	HU 223 TH 00023	Korosa András	8371	Nemesbük	Április u. 21.	Április u. 21. , 8371 , Nemesbük	46,827254	17,14279
Zala	HU-223-TH-00035	Pálinkásné Szigeti Edit	8360	Keszthely	4418/1 Hrsz	4418/1 Hrsz , 8360 , Keszthely	46,7568924	17,2491509
Zala	HU-223-TH-00036	Pölcz Mónika	8976	Márokföld	Kossuth u. 36.	Kossuth u. 36. , 8976 , Márokföld
Zala	HU-223-TH-00038	Stiller Szilárd	8373	Rezi	Vadmézes u.2.	Vadmézes u.2. , 8373 , Rezi	46,8415646	17,2172861
Zala	HU-223-TH-00037	Horváthné Kiss Katalin	8354	Karmacs	Árpád u.10.	Árpád u.10. , 8354 , Karmacs	46,835277	17,170762
