code;name;address;lat;lng
IE 2557 EC;Argue Meats;25 Cavan Street, Cootehill, H16 DH31, Cavan;54.0713909;-7.0841263
IE 2908 EC;Barry Johns Sausages;Drumnavarragh, Poles, H12 VY02, Cavan;53.988895;-7.2876859
IE 2647 EC;Blacks Butchers;Main Street, Bailieboro, A82 K2T4, Cavan;54.03497495;-7.2937022825583675
IE 2715 EC;Choice Cuts;Main Street, Swanlinbar, H14 A381, Cavan;54.194722;-7.704444
IE 2447 EC;Heery Meats;Cloneary, Bawnboy, H14 EV65, Cavan;54.1212699;-7.6757074
IE 2655 EC;Leonard Lynch;Kilcully, Ballyjamesduff, A82 V207, Cavan;53.8639055;-7.2061572
IE 2515 EC;Lislin Meats Ltd;Cloughballybeg, Mullagh, A82 R262, Cavan;53.811536;-6.9485592
IE 3012 EC;M & M Meats;Lear, Bailieboro, A82 A4Y8, Cavan;54.03497495;-7.2937022825583675
IE 2636 EC;Michael Gaynor;Corstruce, Ballinagh, H12 P822, Cavan;53.9301835;-7.4110268
IE 2637 EC;Patrick Gaynor;Dublin Road, Ballinagh, H12 EW86, Cavan;53.9319227;-7.4078788
IE 2448 EC;Sheelin Meats;Carrick, Finea, N91 Y008, Cavan;53.82095525;-7.332129391711837
IE 2993 EC;Tavan Meats Ltd;Rantavan, Mullagh, A82 K512, Cavan;53.8068679;-6.945743204950751
IE 2983 EC;ASBA MEATS LTD;Unit 2 Beechpark Logistics Centre, Smithstown Industrial Estate, Shannon, V14 N152, Clare;52.7104544;-8.8788366
IE 2325 EC;C&M Foods;Cutten Mor, Tulla, Ennis, V95 YX25, Clare;52.8563735;-8.9534095
IE 2417 EC;Denis Corcoran;Springmount, Kilmore, V94 NY83, Clare;52.76128105;-8.593930186850844
IE 2536 EC;Edward Joyce T/A Summerhill Meats;Summerhill, Meelick, V94 RK20, Clare;52.7024048;-8.6499523
IE 2838 EC;Gourmet Game Ltd.;Aughrim, Scariff, V94 Y4EX, Clare;52.857257450000006;-8.937435925994537
IE 2416 EC;James & Joseph Kelly;Beech Park, Ennis, Clare;52.8435152;-8.983747
IE 2324 EC;Meeres Pork Products;Wellpark, Quin, V95 W3WC, Clare;52.857257450000006;-8.937435925994537
IE 2728 EC;Noel Ryan;Knockalough, Kilmihil, Clare;52.7143861;-9.27503
IE 2567 EC;Sean Haugh;Knockroe, Kilkee, Clare;52.67805235;-9.645906312818264
IE 2415 EC;Tom O'Connor T/A Claron Foods;Bacon Wholesaler, Athlunkard, Parteen, V94 X239, Clare;52.6957346;-8.6153829
IE 2394 EC;A O'Reilly & Sons;Unit 3B, Mayfield Industrial Park, Yaughal Road, Cork;51.917535900000004;-8.58597726870895
IE 2897 EC;Andrius Kralikas, T/A Fermoy Meat;4 Emmet Street, Fermoy, Cork;52.1359558;-8.2790152
IE 3026 EC;Andrius Kralikas, T/A Fermoy Meat Smokehouse;Unit 14 Ballytrasna Industrial Estate, Little Island, Cork;51.9035274;-8.3541241
IE 2366 EC;Ballyburden Meat Processors Ltd;Main Street, Ballincollig, Co Cork, Cork;51.88786;-8.5982953
IE 2303 EC;Caherbeg Free Range Pork Ltd;Caherbeg, Roscarbery, Cork;51.917535900000004;-8.58597726870895
IE 2457 EC;Christopher & Trevor Collins;Dereenataggart East, Castletownbere, Cork;51.6514159;-9.9104925
IE 2538 EC;CL Meats Limited;Unit 8, Kinsale Rd, Industrial Estate, Cork;51.8754488;-8.4703405
IE 2321 EC;Coolcower Meat Enterprises Ltd;Farrennavarigane, Macroom, Cork;51.9049705;-8.9599195
IE 2949 EC;Cormac O'Connor (Pork & Bacon) Ltd.;Iona Road, Colmcille Avenue, Mayfield, Cork;51.9106512;-8.436875
IE 2634 EC;Cronin Family Butchers;Strand Street, Kanturk, Cork;52.1774522;-8.9065541
IE 2528 EC;Daniel P Murphy & Sons Ltd;Drury Lane, Midleton, Cork;51.9142741;-8.1700962
IE 2469 EC;Edmond & Denis Fitzgerald;Kill-St-Anne, Castlelyons, Cork;52.0889073;-8.2338663
IE 2468 EC;Edmond Clifford;Main Street, Castlemartyr, Cork;51.9116831;-8.0569206
IE 2894 EC;Eugene & Helena Hickey T/A Skeaghanore Duck;Skeaghanore West Cork Farm, Ballydehob, P81 VP76, Cork;51.5621926;-9.4607391
IE 2318 EC;Feoil na Fleisce;Baile Mhuirne Industrial Estate, Baile Mhuirne, Macroom, Cork;51.9049705;-8.9599195
IE 2392 EC;Feoil O' Croistoir Teoranta;Ballyburden, Ballincollig, Cork;51.8883371;-8.5894006
IE 2861 EC;Foxbrook Foods Ltd. (T/A McCarthy's Meat Market);24A St. Joseph's Lawn, Hawke's Road, Bishopstown, Cork;51.8796067;-8.5166631
IE 3014 EC;Foxbrook Foods Ltd. T/A McCarthy's Meat Market;Unit 5 MFT Business Park, Doughcloyne Industrial Estate, Sarsfield Road, Wilton, Cork;51.8784306;-8.5059065
IE 2317 EC;Gubbeen Smokehouse T/A Gubbeen Farmhouse Products Ltd.;Gubbeen, Schull, Cork;51.5271026;-9.5469428
IE 2320 EC;Hanleys Puddings Limited;9 Coolnanave Industrial Park, Mitchelstown, Co Cork, Cork;52.2769068;-8.2701462
IE 2305 EC;Hodgins Sausages Ltd.;Unit 13, Coolnanave Industrial Park, Dublin Road, Mitchelstown, Cork;52.2661629;-8.2708001
IE 2453 EC;Ibane Meats;Lisscyccremin, Lislevane, Bandon, Cork;51.6079936;-8.7560118
IE 2629 EC;Jack McCarthy (Kanturk) Ltd;Main Street, Kanturk, Cork;52.3509004;-8.67886
IE 2701 EC;Jerry Nolan Meat Wholesaler Ltd;1 & 2 Fair Hill, Cork City, Cork;51.917535900000004;-8.58597726870895
IE 2627 EC;John Finn;58 Lower Cork Street, Mitchelstown, Cork;52.2683403;-8.2703147
IE 2455 EC;John McCarthy;Gurranes South, Drimoleague, Cork;51.6608501;-9.2599704
IE 2864 EC;La Charcuterie Irlandaise Ltd., ;Unit 26 St. Patrick's Mill, Douglas, Cork, Cork;51.8775545;-8.4358941
IE 2978 EC;Liam Bresnan Limited;6 and 12 Carrigaline Industrial Estate, Kilnagleary, Carrigaline, Cork;51.8137464;-8.3887785
IE 2458 EC;Liam O'Driscoll;Abbey, Skibbereen, Cork;51.5573133;-9.298844
IE 3017 EC;Malachy O'Sullivan;Springfort, Charleville, Cork;52.3546432;-8.6828833
IE 2888 EC;"Mary & Joe Collins, T/A ""Collins Poultry""";Drishane Beg, Killeagh, Cork;51.9414959;-7.9936609
IE 2459 EC;MI. J. O'Neill;Astna, Clonakilty, Cork;51.6229346;-8.8870112
IE 2566 EC;Michael Spillane;Richmond Hill, Fermoy, Cork;52.1361001;-8.272289
IE 2669 EC;Michael Twomey Butchers Ltd;Site 3 Bowl Road, Macroom, Cork, Cork;51.9049705;-8.9599195
IE 3010 EC;Murphy's Takeaway Foods Ltd;Unit A Northside for Business Campus, Spring Lane, Ballyvolane Road, Cork;51.917535900000004;-8.58597726870895
IE 2965 EC;Musgrave Limited;Airport Road, Ballycurreen, Cork;51.9290824;-8.327650358327038
IE 2917 EC;O'Flynn Foods Ltd.,;Unit 14, University Hall Industrial Estate, Sarsfield Road, Wilton, Cork;51.8784306;-8.5059065
IE 2658 EC;P.J. Sheehan;Laplands, Douglas, Co Cork, Cork;51.8775545;-8.4358941
IE 2452 EC;Paddy O'Donoghue;Ardhoulihane, Durrus Road, Bantry, Cork;51.6797696;-9.4523603
IE 2454 EC;Patrick J Collins;Main Street, Dunmanway, Cork;51.7229253;-9.1102297
IE 2798 EC;Putog Teoranta;Udaras Industrial Estate, Baile Mhic Ire, Macroom, Cork;51.9049705;-8.9599195
IE 2518 EC;Quigley Meats;Unit 14A, Unit 15 Great Island Enterprise Park, Ballincollig, Cork;51.8883371;-8.5894006
IE 2840 EC;Secret Recipe Limited;Unit 4a Link Road Business Park, Link Road, Ballincollig, Cork;51.8884933;-8.582138
IE 2948 EC;The Chicken Inn Limited;Unit D Northside for Business Campus, Ballyvolane, Cork;51.9169778;-8.4471268
IE 2456 EC;Tim Murphy;Breenybeg, Kealkil, Bantry, Cork;51.6797696;-9.4523603
IE 2628 EC;Timmy Considine T/A Hanley's Butchers;56 Lower Cork Street, Mitchelstown, Cork;52.2682417;-8.2702718
IE 2316 EC;Ummera Smoked Products Ltd;Inchybridge, Timoleague, Cork;51.6440924;-8.7654642
IE 2461 EC;William Walsh;Clounkeen West, Leap, Skibereen, Cork;51.5492174;-9.2994118
IE 2440 EC;Anthony McGettigan;Main Street, Milford, F92YO9V, Donegal;54.92075415;-7.952385214651309
IE 2433 EC;Charles Gallagher;The Diamond, Castlefinn, Donegal;54.8033847;-7.5931697
IE 2994 EC;Hugh Gallagher;Luinnagh, Derrybeg, Donegal;55.01955055;-8.001091987298233
IE 2483 EC;Jonathan Kerr;Ballyare, Ramelton, F92 E771, Donegal;55.0373603;-7.6436895
IE 2482 EC;Mark Robinson;Main Street, Mountcharles, Donegal;54.646389;-8.195556
IE 2926 EC;McCarron's Butchers;The Diamond, Raphoe, Donegal;54.8733637;-7.5992049
IE 3038 EC;McGavigan Meats;Coolatee, Lifford, Donegal;54.8326995;-7.4834739
IE 3001 EC;Noones Poultry Ltd.;Ard Cloontagh, Clonmany, Donegal;55.263012;-7.4122336
IE 3005 EC;Twin Towns Quality Meats;Magherycallaghan, Castlefinn, Donegal;54.8033847;-7.5931697
IE 2420 EC;Walsh Butchers;Lisminton, Ballintra, Donegal;54.5774828;-8.1251832
IE 2850 EC;Barlows Organic Farm;Cloonfaughna, Glinsk, VIA Castlerea     F45 EH27, Galway;53.1908135;-9.3270496
IE 2609 EC;Brady Manufacturing Ltd;Church Street, Athenry, H65 VX49, Galway;53.2991901;-8.7468297
IE 3008 EC;Brian Carroll;Tubberconnolly, Athenry, H65 FP95, Galway;53.2991901;-8.7468297
IE 2958 EC;Dermot Duffy T/A Meats Direct;Kinincha, Gort, Galway;53.070052200000006;-8.820455197908739
IE 2608 EC;Eugene McEntee;Abbey Street, Portuma, H53 HW84, Galway;53.1908135;-9.3270496
IE 2479 EC;Hugh Anthony O'Donnell;Beagh, Gort, H91 FIW7, Galway;53.05280535;-8.794704289031834
IE 2594 EC;John Burke T/A Burke Meats;Killina, Gort, H91 KC3Y, Galway;53.1908135;-9.3270496
IE 2957 EC;John Connelly, T/A Johnny The Butcher;Caherlavine, Loughrea, H62 DP70, Galway;53.2050993;-8.5956649
IE 2558 EC;Justin Flannery;Blackrock, Peterswell, H91 PW44, Galway;53.115;-8.741389
IE 2438 EC;McGeough's Connemara Fine Foods;Camp Street, Oughterard, H91 D6P2, Galway;53.4299575;-9.3196743
IE 2326 EC;Moycullen Meats;Kilrainey Shopping Centre, Moycullen, H91 R9V4, Galway;53.34358175;-9.155091764807365
IE 2987 EC;Musgrave Market Place Galway ;Musgrave Ltd, Tuam Road, H91 ND30, Galway;53.283179849999996;-9.036949153004272
IE 2613 EC;Pat Fitzgerald;Ballintleva, Belclare, Tuam     H54 F292, Galway;53.1908135;-9.3270496
IE 2906 EC;Real Brasil Food Ltd;Unit 6, The Grove, Gort, H91 P6RK, Galway;53.1908135;-9.3270496
IE 2876 EC;Ronan Byrne T/A The Friendly Farmer;Knockbrack, Athenry, H65 ED39, Galway;53.2991901;-8.7468297
IE 2327 EC;Russell Meats;40 Glenanail Drive, Riverside Estate, H91 N6E4, Galway;53.1908135;-9.3270496
IE 2871 EC;S & S Duffy Meats Ltd;Kinnacha, Gort, H91 CFC9, Galway;53.070052200000006;-8.820455197908739
IE 2614 EC;Thomas Lydon;Cluggan, Maam, Co. Galway   H91 D6X8, Galway;53.4559134;-9.5407842
IE 2386 EC;Tony Fahy Wholesale Meats Ltd;Caherlavine, Loughrea, H62 DP70, Galway;53.2050993;-8.5956649
IE 2736 EC;Billy Kissane Meats Ltd;Unit 1 Tanavalla Ind Estate, Listowel, Kerry;52.4472298;-9.4846811
IE 2795 EC;Bríd Ní Mhathúna t/a Píog Pies;c/o Meadowlands Hotel, Oakpark, Tralee, Kerry;52.2895329;-9.6747182
IE 2940 EC;CA Meats LTD;Main Street, Annascaul, Kerry;52.151078;-10.0567837
IE 2858 EC;Iveragh Meats Ltd T/A Millers;Crohane, Fossa, Killarney, Kerry;52.069710900000004;-9.541291829316968
IE 2511 EC;James J. Walsh;The Village, Lixnaw, Kerry;52.4040167;-9.6172758
IE 2996 EC;Jerome Cahill;Ardnacluckeen, Killorglin, Kerry;52.1061973;-9.7867881
IE 2552 EC;Jimmy Curran aka James Curran;4 West Main Street, Caherciveen, Kerry;52.14533445;-9.517401092833236
IE 2506 EC;John Burke;Annagh, Keel, Castlemaine, Kerry;52.1685671;-9.7011826
IE 2889 EC;John Griffin Butchers Ltd;48 William Street, Listowel, Kerry;52.4462776;-9.4859125
IE 2887 EC;John Lane & Son (Tralee) Ltd;Killerisk, Tralee, Kerry;52.2637642;-9.6816735
IE 3019 EC;John McDonnell;Main Street, Ballyheigue, Kerry;52.3892873;-9.8352402
IE 2527 EC;John West & Sons Ltd;Ballyseedy, Tralee, Kerry;52.244906;-9.6448416
IE 2526 EC;Kennelly Quality Meats;Bromore, Ballybunion, Kerry;52.535832;-9.66592125
IE 2505 EC;Kieran  Burns;North Square, Sneem, Kerry;51.8387218;-9.9015418
IE 2841 EC;Killarney Meat Company Ltd;Innisfallen Mall, Killarney, Kerry;52.0595746;-9.505322
IE 2901 EC;Michael O'Shea;t/a Scarriff Meats, Scarriff, Waterville, Kerry;51.8271274;-10.1718452
IE 2797 EC;Oliver Beaujouan T/A On the Wild Side;Kilcummin Beg, Castlegregory, Kerry;52.2556303;-10.0215862
IE 2591 EC;Roger O'Sullivan;Bridge Street, Kenmare, Kerry;51.9482643;-10.2232471
IE 2758 EC;Sneem Meats Ltd;North Square, Sneem, Kerry, Kerry;51.8387218;-9.9015418
IE 2816 EC;T Cronin & Sons;9 High Street, Killarney, Kerry;52.0597973;-9.5096363
IE 844 EC;The Mill Road Game Larder;The Mill Road, Killarney, Kerry;52.0595746;-9.505322
IE 2523 EC;Thomas Ashe;Main Street, Annascaul, Kerry;52.151078;-10.0567837
IE 2512 EC;Tom Kelly;Bridge Street, Ballylongford, Kerry;52.5459637;-9.4750396
IE 3009 EC;Amber Ring Europe Ltd;Rathangan Ind. Est, Rathangan, R51TH24, Kildare;53.2203302;-6.9929735
IE 2967 EC;Ballymooney Foods Ltd;Clane Business Park, College Road, Clane , W91 PCP0, Kildare;53.296569;-6.6882455
IE 2719 EC;Celbridge Meats T/A JJ Young and Sons;Unit 9/10 Clane Business Park, Kilcock Road, Clane, W91 A995, Kildare;53.3823193;-6.5969659
IE 3025 EC;Euro Meat;Unit D4, Acron Business Park, Rathangan, R51VF89, Kildare;53.2203302;-6.9929735
IE 2720 EC;Finbar Cribben;Mill Lane, Leixlip, Kildare;53.3639881;-6.4830264
IE 2712 EC;Haynestown Meats Ltd;Unit W1E, Toughers Business Park, Naas, Kildare;53.2214677;-6.6574093
IE 2332 EC;James Nolan;Nolan Victuallers, Main Street, Kilcullen, Kildare;53.1305819;-6.7456446
IE 2706 EC;Kildare County Turkeys Ltd T/A Kildare Farm Foods;Rathmuck, Kildare, R51KC62, Kildare;53.1292906;-6.9550759
IE 2824 EC;Margaret McDonnell;Ballysax, The Curragh, Co. Kildare, Kildare;53.15436455;-6.8184175660976445
IE 2333 EC;McConnon Meats;Rathangan Industrial Estate, Rathangan, Kildare;53.2203302;-6.9929735
IE 2653 EC;Niall & James O'Gorman;Knocknacree, Castledermot, Kildare;52.9119491;-6.8368376
IE 2973 EC;Pheonix Enterprises;The Elms, Cooleragh, Coill Dubh, Naas, W91N6YN, Kildare;53.15436455;-6.8184175660976445
IE 2331 EC;Straight Sausages Ltd;Unit C Block 1, Link Industrial Estate, R56 D772, Kildare;53.15436455;-6.8184175660976445
IE 2968 EC;The Irish Biltong Company Ltd;Unit W1F, Toghers Business Park, Naas, W91 RD45, Kildare;53.2214677;-6.6574093
IE 2898 EC;William Gray T/A Feighcullen Farm;Feighcullen, Rathangan, Kildare;53.2203302;-6.9929735
IE 3000 EC;Butchers Best Abattoir Ltd ;Barkers Rd, Bunclody , Y21 T9 PO, Carlow;52.69078865;-6.825145150844913
IE 2768 EC;Carlow Foods;Kilkea, Fenagh Co. Carlow, R21 FR53, Carlow;52.71370975;-6.804948304553984
IE 2529 EC;Laurence & James Murphy;Church Street, Tullow, R93 K2 44, Carlow;52.8034923;-6.734379
IE 2531 EC;Matthew Kearney and Sons Ltd;Unit 3, Pollerton Industrial Estate, Carlow, R95 XH 50, Carlow;52.69078865;-6.825145150844913
IE 2530 EC;Sheehan Meats;Tullow Rd, Bennekerry, R93 XW 14, Carlow;52.817133;-6.870587332681238
IE 2771 EC;Callan Premium Foods;Westcourt Business Park, Callan, R95 A471, Kilkenny;52.5445861;-7.3900941
IE 2414 EC;Gerry O'Brien;Bonnettsrath, ., R95 R2 KN, Kilkenny;52.5687098;-7.188983092181514
IE 2475 EC;Patrick Kenna;Kickham Street, ., R95 EH 48, Kilkenny;52.6514989;-7.2593186
IE 2519 EC;Prendergast's Butchers ;Market Street, Thomastown, R95 YP 11, Kilkenny;52.5250803;-7.1382694
IE 2843 EC;T.C.F. Foods Ltd ;Christendom , Ferrybank, X91 V5WN, Kilkenny;52.5687098;-7.188983092181514
IE 2474 EC;Tynan Meats;Donoughmore, Johnstown, E41 V2 11, Kilkenny;52.7485188;-7.5570295
IE 2499 EC;Clonmore Meats;Clonmore, Kileshin, R93 Y766, Carlow;52.69078865;-6.825145150844913
IE 2496 EC;Andrew Shiels;Main Street, Abbeyleix, Laois;52.9143047;-7.3484931
IE 2749 EC;James Mulhall;Coolanowle, Ballickmoyler, R93 C3K4, Laois;52.872974299999996;-7.024434324598339
IE 2502 EC;John Cahill;Main Street, Rathdowney, Laois;52.8559085;-7.5880247
IE 2500 EC;Mark Delaney;Elderfield, Castletown, Portlaoise, Laois;53.0125494;-7.3701007
IE 2501 EC;Michael Keegan;Main Street, Mountrath, Laois;52.996303999999995;-7.459235544542465
IE 2503 EC;Pius Hennessy;Mary Street, Durrow, R32 YT53, Laois;52.8448193;-7.3952423
IE 2498 EC;Tomás Kenna;The Square, Durrow, Laois;52.8455292;-7.3954821
IE 3032 EC;Aidan Wrynne Meats;Satrissaun, Gorvagh, Mohill, Leitrim;53.9226898;-7.855297407750397
IE 2846 EC;Chef in a Box;The Food Hub, Drumshanbo, N41 WV80, Leitrim;54.0467406;-8.0401507
IE 2393 EC;Damien Thornton t/a Thornton's Butchers;Cloonlougher, Manorhamilton, F91 X4E1, Leitrim;54.27408685;-8.202125313235321
IE 2882 EC;Inishfree Foods Ltd;IDA Business & Technology Park, Carrick-on-Shannon, N41 K009, Leitrim;53.9441461;-8.0952772
IE 2645 EC;John O'Malley;Main Street, Carrigallen, H12 KOE3, Leitrim;53.9769538;-7.6462461
IE 2939 EC;Joseph Campbell;Derryhallagh, Drumshanbo, N41 T621, Leitrim;54.0467406;-8.0401507
IE 2820 EC;McCarthy Meats;Kildorragh, Ballinamore, N41 NZ48, Leitrim;54.0526883;-7.8003268
IE 2341 EC;Michael McManus Meats;Greaghfarna, Drumshanbo, N41DP78, Leitrim;54.0467406;-8.0401507
IE 2404 EC;Sean Rooney;Cornaglagh, Kinlough, F94 F5C7, Leitrim;54.4477324;-8.2854402
IE 2781 EC;Bailey Foods;William St., Limerick, V94 FX4Y, Limerick;52.518831649999996;-8.795834650292788
IE 2597 EC;Denis Greaney;Ballinston, Shanagolden, V94P6CY, Limerick;52.518831649999996;-8.795834650292788
IE 2900 EC;Enda Aherne;47 Roches Street, Limerick, V94RH64, Limerick;52.518831649999996;-8.795834650292788
IE 2695 EC;James Shanahan Ltd;Moig East, Paliskenry, V94F9C3, Limerick;52.518831649999996;-8.795834650292788
IE 2782 EC;Jim Flavin;Unit 1C, Annacotty Business Park, V94 A337, Limerick;52.6630865;-8.505446194431055
IE 3020 EC;McMahon's Biltong;Unit 3E, Kitchen Hub, 3A, Crossagalla Industrial Estate, Ballysimon V94X9P7, Limerick;52.518831649999996;-8.795834650292788
IE 3007 EC;Musgrave Marketplace;Park Road, Clare St, V94W208, Limerick;52.518831649999996;-8.795834650292788
IE 2485 EC;O'Connor Butchers;Feenagh, Kilmallock, V35XD86, Limerick;52.3993029;-8.5744751
IE 2745 EC;Pat O'Connor Meats Ltd;Unit 11, The Food Centre, Dooradoyle V94DX68, Limerick;52.518831649999996;-8.795834650292788
IE 2921 EC;Pat O'Meara & Sons Butchers Ltd;Main Street, Patrickswell, V94EW83, Limerick;52.598689;-8.7060898
IE 2991 EC;Rigney's Farm Curraghchase Free Range Pork;Curraghchase North, Kilcornan, V94 KV9F, Limerick;52.518831649999996;-8.795834650292788
IE 2486 EC;Rory O'Sullivan;Sarsfield St, Kilmallock, V35R620, Limerick;52.3993029;-8.5744751
IE 2465 EC;Sean Fitzgerald;Kilgarriff, Ballylanders, V35PK79, Limerick;52.3714932;-8.3473484
IE 2880 EC;Strand Foods Ltd;Kantoher Business Park, Ballagh, V42 YA29, Limerick;52.366831;-9.082031207252413
IE 2671 EC;Sysco Foods Ireland Unlimited;Ardagh Rd, Newcastle West, V42XC04, Limerick;52.4488928;-9.0529331
IE 2625 EC;Tom Brouder T/A Athea Homemade Puddings;Carhubane Beg, Loughill V94DR13, Co Limerick, Limerick;52.518831649999996;-8.795834650292788
IE 2783 EC;Joan Sullivan;Joan's Family Farm Foods, Aughakilmore, Ballinalee, N39EE73, Longford;53.7755877;-7.6580453
IE 2524 EC;Louis Herterich;Town Park Industrial Estate, Longford, N39YT53, Longford;53.73203805;-7.695345599416443
IE 2541 EC;Ronald Rawle;Ballinalee, Longford, N39T6Y7, Longford;53.7755877;-7.6580453
IE 2539 EC;Sean Donnelly;Clonelly, Moyne, Longford;53.9151319;-7.6303834
IE 2796 EC;Uncle Bok;St Johns, Ballinalee, N39FH30, Longford;53.7755877;-7.6580453
IE 2786 EC;Ashbrook Foods Ltd;Ballinloughlan, Knockbridge, A91 ET97, Louth;53.9713873;-6.4869129
IE 3033 EC;Carnivore Meats Limited;Balriggan, Kilcurry, Dundalk, A91 KX05, Louth;54.0046033;-6.4008879
IE 2334 EC;Coyle Vacpack Ltd;Coyle Vac Pac, Coes Road, Dundalk, A91 K853, Louth;54.0046033;-6.4008879
IE 2306 EC;Dromena Foods;Brewery Road, Castlebellingham, A91 RX75, Louth;53.8970616;-6.3890554
IE 2818 EC;Failte Foods Limited T/A Morgan Meats;Ardaghy, Omeath, A91 HF80, Louth;54.086944;-6.261667
IE 2309 EC;Firrin Foods;Blakestown, Ardee, A92 F202, Louth;53.84369045;-6.548081615072116
IE 3011 EC;Martin Commins;Market Street, Ardee, A92 AE02, Louth;53.859722;-6.540556
IE 2308 EC;P & A Quinn;Avenue Rd, Dundalk, A91 DP30, Louth;53.9965543;-6.4050621
IE 2915 EC;Stela Foods;Unit 2, Greenhills Business Park, Drogheda, A92 KVW5, Louth;53.7149877;-6.3524183
IE 2302 EC;Tavanamore Meats;Tavanamore, Hackballscross, Dundalk, A91 DHR0, Louth;54.0046033;-6.4008879
IE 2563 EC;Tony Kieran Ltd.;Unit B, Old Coes Road, Dundalk, A91 NYT1, Louth;54.0046033;-6.4008879
IE 2401 EC;Dempsey Meat Products Ltd;Barcastle Industrial Estate, Castlebar, F23 RY23, Mayo;53.8568418;-9.297967
IE 2703 EC;Ger & Val McGreal;Main Street, Balla, Mayo;53.769519450000004;-9.817511309443452
IE 2402 EC;Gerry Joyce Meats;Moneen Industrial Estate, Castlebar, Mayo;53.8562398;-9.2833177
IE 2969 EC;Heneghan's Butchers Ltd;Drumhill, Ballinrobe, Mayo;53.6240883;-9.2220833
IE 2677 EC;James Duffy;Raith, Aghamore, Ballyhaunis, Mayo;53.7633588;-8.7651532
IE 2704 EC;James Molloy;Glencorrib, Shrule, Mayo;53.511114250000006;-9.173035345366547
IE 2680 EC;Kellys of Newport (Artisan Butchers ) Ltd;17 Main Street, Newport, Mayo;53.8854897;-9.5464274
IE 2405 EC;Kellys of Newport (Artisan Butchers) Ltd. (SMMP);17 Main Street, Newport, Mayo;53.8854897;-9.5464274
IE 2683 EC;Liam Jennings;Bridge Street, Ballinrobe, Mayo;53.6241382;-9.2224662
IE 2708 EC;Martin Calvey;Keel, Achill Island, Mayo;53.9521577;-10.009389358743926
IE 2595 EC;MJI Meats Limited;Unit 6, The Enterprise Centre, Clare Rd, Ballyhaunis, Mayo;53.9628457;-8.7939707
IE 2812 EC;Nourfoods;Clare Street, Ballyhaunis, Mayo;53.7633588;-8.7651532
IE 2682 EC;Patrick Phillips;Hazelhill, Ballyhaunis, Mayo;53.7633588;-8.7651532
IE 2678 EC;Reilly's Victuallers Ltd;Main Street, Bangor Erris, Ballina, Mayo;54.1143359;-9.1532099
IE 2686 EC;Thomas Conroy;Cloughmoyne, Shrule, Mayo;53.5199658;-9.0877716
IE 2684 EC;Tony Carolan;Derrycoosh, Newport Road, Castlebar, Mayo;53.8577884;-9.3089523
IE 2916 EC;Bird Farm T/A The Wooded Pig;Edoxtown, Tara, C15 D997, Meath;53.580502800000005;-6.616136520888049
IE 2959 EC;Charlie Walshe;Ringlestown, Kilmessan, C15  AYO2, Meath;53.56478295;-6.642769568549383
IE 2352 EC;Coogan Meats Limited;Newtownmoynagh, Trim, C15 HR24, Meath;53.5556419;-6.7925109
IE 2380 EC;Deerpark Foods;Stackallen, Slane, C15 EC85, Meath;53.7001754;-6.5925638
IE 2780 EC;Drumree Meats;Wallpark, Knockmark, Drumree, A 85 Y798, Meath;53.50566415;-6.57206563310869
IE 3039 EC;Farmhouse Foods;Unit 13B, Dunshaughlin Business Park, Dunshaughlin, A85 FV48, Meath;53.5074917;-6.5345861
IE 2378 EC;Floods Butchers;Tubride, Oldcastle, A82 V620, Meath;53.7589575;-7.1657582
IE 3016 EC;Killua Castle;Piggotstown, Kilskyre, Kells., To follow, Meath;53.6497514;-6.5885310235914645
IE 2351 EC;Michael Brogan and Sons;Main Street, Athboy, C15 X 074, Meath;53.6196595;-6.9226611
IE 2884 EC;Nugent Foods Ltd T/A Rustic Kitchen.;Unit 4 Ashbourne Business Centre, Ashbourne, A84 D431, Meath;53.5138071;-6.416868
IE 2961 EC;PC Meats;Main Street, Enfield, A83 F201, Meath;53.4134244;-6.8218515
IE 2769 EC;Ryans Farm;Ballinlough, Kells, A82  FT02, Meath;53.691364199999995;-7.171999661495812
IE 2972 EC;The Whole Hoggs;Rathmaiden, Slane, C15 HE36, Meath;53.7090675;-6.5426177
IE 2966 EC;Thomas Doherty;Cannon Street, Kells, A82 NN24, Meath;53.7273508;-6.8809119
IE 2732 EC;Traditional Meat Company ;Gortloney, Dromone, Oldcastle  A82 WY83, Meath;53.6497514;-6.5885310235914645
IE 2379 EC;William Donnelly & Sons Ltd;Main Street, Kilmessan, C15 FH2D, Meath;53.6497514;-6.5885310235914645
IE 2750 EC;Adrian Treanor T/A Treanor Poultry;Knockaconny, Monaghan, H18 XH90, Monaghan;54.26326575;-6.946606140641945
IE 2997 EC;Charley Meats Ltd;Corrawillan, Castleshane, H18 F822, Monaghan;54.238056;-6.883889
IE 2328 EC;Duffy's Pork & Bacon Ltd;Tullycara, Castleblaney, A75 FF83, Monaghan;54.113907350000005;-6.732842472960632
IE 2315 EC;Farney Foods;Cloughvalley Industrial Estate, Carrickmacross, A81 X785, Monaghan;53.9770462;-6.7193763
IE 2649 EC;Gerard & Martin Quinn;Laragh, Ballybay, A75 EV80, Monaghan;54.1288793;-6.9029718
IE 2922 EC;Hilden Farm Foods Ltd;Ballybay Enterprise Park, Corrybrennan, Ballybay, H18 W562, Monaghan;54.1288793;-6.9029718
IE 2462 EC;Shortt's Ltd;Main Street, Castleblaney, A75 N772, Monaghan;54.1201279;-6.7387018
IE 2754 EC;Clive Clarke;Ashgate, Barna, Dunkerrin E53YH48, Offaly;53.13617215;-7.810340751784169
IE 2624 EC;Hugh Murray;Main Street, Kilbeggan, N91 K7V7, Offaly;53.34136005;-7.458425715558476
IE 2688 EC;Joe Tynan;Mount Street, Mullingar, N91 NH68, Offaly;53.502550150000005;-7.4210367737716405
IE 2975 EC;John Coll Butchers Ltd;Main Street, Delvin, N91 Y6WV, Offaly;53.13617215;-7.810340751784169
IE 2605 EC;Luke Cole;Main Street, Kinnegad, N91 KT22, Offaly;53.13617215;-7.810340751784169
IE 2807 EC;Mark Earley Trading as Horan's Pork Shop Ltd. ;Mark Earley, Horan's Pork Shop Ltd., The Bawn, Church Street, Athlone, N37 RX66, Offaly;53.45732635;-8.044763569668728
IE 3034 EC;Micheal Healy T/A Healy Family Meats Ltd ;Main St, Banagher , R42 YX48, Offaly;53.1926237;-7.9917094
IE 2639 EC;Peter McGuinness;Main Street, Ballynacargy, Mullingar, N91 YEK5, Offaly;53.502550150000005;-7.4210367737716405
IE 2548 EC;Sean Dunning;Carrickobrien, Athlone, N37 A329, Offaly;53.45732635;-8.044763569668728
IE 2817 EC;Shane Maher Butchers Ltd. ;Rossmore, Ballinderry Rd, Moate , N37F8P5, Offaly;53.50245355;-7.61575802277096
IE 2337 EC;Tullamore Meats Co-operative Ltd.;Spollanstown, Tullamore, R35 AD70, Offaly;53.263628;-7.4972819
IE 2430 EC;William Browne;Main Street, Ferbane, R42 NP38, Offaly;53.2720142;-7.8279383
IE 3029 EC;John Quinn T/A JJ Quinn Butchers;Main St , Kinnegad, Westmeath;53.4541676;-7.0991432
IE 2411 EC;Benedict Morris;Main Street, Elphin, F45 E9C6, Roscommon;53.8457864;-8.1906903
IE 2697 EC;Boyle Country Meats;St. Patricks Street, Boyle, F52 HR28, Roscommon;53.9723298;-8.3012564
IE 2941 EC;Castlemine Farm Limited;Circular Road, Roscommon, F42 FA46, Roscommon;53.63656265;-8.188557593315608
IE 2383 EC;Gilligans Farm Fresh Meats Ltd;Derrane Road, Four Mile House, F42 EV61, Roscommon;53.7077528;-8.2066902
IE 2620 EC;Ignatius Gannon;Main Street, Castlerea, F45 E398, Roscommon;53.7607428;-8.471024
IE 2621 EC;John Webb;Patrick Street, Castlerea, F45 RW60, Roscommon;53.7641076;-8.4888648
IE 2721 EC;Maguire Meats;Birchgrove, Ballinasloe, ., Roscommon;53.3128466;-8.1861721
IE 2735 EC;Michael Cull Meats;Main Street, Elphin, F45 W3Y9, Roscommon;53.8457864;-8.1906903
IE 2412 EC;Michael Waldron Meats Ltd;Curry, Brideswell, Athlone, N37 Y6N4, Roscommon;53.45732635;-8.044763569668728
IE 2727 EC;Oliver Harte;Athleague, Athleague, F42 KH96, Roscommon;53.56777515;-8.249049044893441
IE 2859 EC;Shamrock Casings;Lisroyne, Strokestown, F42 NY99, Roscommon;53.776576250000005;-8.115562024319734
IE 2640 EC;Stanley Taylor;Lisserdrea, Boyle, F52 X892, Roscommon;53.9723298;-8.3012564
IE 2802 EC;B Bowes Ltd T/A O Hehirs Kitchen;Cleveragh Business Park, Cleveragh, Sligo, Sligo;54.2598455;-8.450276194897963
IE 2516 EC;Burns Farm Meats Ltd;Mount Temple, Moneygold, Sligo;54.405782349999996;-8.511241218445704
IE 2615 EC;Derek Sherlock;Moylough, Tubbercurry, Sligo;54.027388900000005;-8.704634957463625
IE 2616 EC;Wynne's Meats;Spotfield, Drumfin via Boyle, Sligo;54.19298605;-8.7305426729522
IE 2765 EC;Carney Quality Meats Ltd;Unit 3F, Coolock Industrial Estate, Malahide Road, Dublin 17., D17 E528, Dublin;53.4030499;-6.1793713
IE 2979 EC;Courtney's Factory Shop Ltd.;Unit A13, Second Avenue, Cookstown Industrial Estate, Tallaght, Dublin 24, D24 T284, Dublin;53.2874921;-6.3746622
IE 2952 EC;Crag Meat Supply Ltd.;Units B and D, Crag Crescent, Clondalkin Industrial Estate, Clondalkin, Dublin22, D22 E6P4, Dublin;53.3185511;-6.401595119672928
IE 2375 EC;Dale Meats Ltd;Unit 19, Solus Tower Industrial Estate, Bray, Co. Wicklow., A98 X704, Dublin;53.2114135;-6.1126493
IE 2899 EC;Dawn Meats Ireland;Unit 2K, Ballymount Cross Industrial Estate, Ballymount, Dublin 24., D24 K378, Dublin;53.3050553;-6.3511166
IE 2848 EC;DDLM, t/a QFN - Quality Food Network;Unit 8, Rosemount Business Park, Ballycoolin, Dublin 15., D11 HF80, Dublin;53.4057714;-6.3632264
IE 2833 EC;Donnybrook Fair Ltd.;89 Morehampton Road, Donnybrook, Dublin 4., D04 K6F2, Dublin;53.3200122;-6.2333303
IE 2358 EC;Doyle Catering Meats;Unit B1 and B2, Greenogue Square, Greenogue Industrial Estate, Rathcoole, Co. Dublin, D24 YH34, Dublin;53.278999799999994;-6.466848549428969
IE 2903 EC;DPB Meats Ltd. t/a Dublin Meat Company;Unit 1, Forest Road, Swords, Co. Dublin., K67 NH57, Dublin;53.4521298;-6.2285817
IE 2984 EC;Dun Laoghaire Food Company t/a Hick's of Dun Laoghaire;60 Lower Georges Street, Dun Laoghaire, Co. Dublin., A96 TV77, Dublin;53.2922794;-6.1360079
IE 2672 EC;Egan Meats;192 Whitehall Road, Terenure, Dublin 12W., D12 PY96, Dublin;53.40651475;-6.286667702716778
IE 3013 EC;Elite Quality Meats Ltd. t/a Doyle Meats;Unit 60, Greencastle Parade, Coolock Industrial Estate, Dublin 17, D17 W257, Dublin;53.40651475;-6.286667702716778
IE 2982 EC;Emamou Food Ltd;Unit 2, Crag Avenue, Clondalkin Industrial Estate, Dublin 22., D22 Y224, Dublin;53.40651475;-6.286667702716778
IE 2855 EC;Fine Food Dining Ltd.,;Unit B1, Knockmitten Industrial Estate, Naas Road, Dublin 12, D12 VH76, Dublin;53.3266091;-6.3432122
IE 2359 EC;FX Buckley Products Ltd;Units B12, B13, B14, B15 Greenogue Square, Greenogue Industrial Estate, Rathcoole, Co. Dublin, D24 NY84, Dublin;53.278999799999994;-6.466848549428969
IE 2466 EC;Gahan Meats Ltd;22 North Park Industrial estate, Finglas, Dublin 11., D11 A898, Dublin;53.3862667;-6.2970771
IE 2691 EC;Gold Medal Meats Ltd;Johnstown Cottages, Kennelsfort Road, Palmerstown, Dublin 20., D20 WV79, Dublin;53.3519684;-6.3804296
IE 2711 EC;Keenan & Kennedy Butchers Ltd;25 Barry Avenue, Finglas, Dublin 11., D11 DP89, Dublin;53.3862667;-6.2970771
IE 2396 EC;Kelly Bros. Butchers Ltd;Unit  E2  Crag Avenue, Station Road Business Park, Clondalkin, Dublin 22., D22 K3E9, Dublin;53.3331089;-6.395898
IE 2951 EC;Kerrigans Factory Shop Ltd;Unit 58b, Baldoyle Industrial Estate, Baldoyle, Dublin 13., D13 Y897, Dublin;53.4057568;-6.128109675877971
IE 2837 EC;Kimex Ireland Ltd.;Unit 7, Goldenbridge Industrial Estate, Tyrconnell Road, Inchicore, Dublin 8., D08 H281, Dublin;53.3401584;-6.3123171383170735
IE 2368 EC;La Rousse Foods;Unit 31 Park West, Nangor Road, Dublin 12., D12 RW25, Dublin;53.3239918;-6.3537092
IE 2928 EC;Lorien Camden Ltd.;Unit 13, Deansgrange Business Park, Blackrock, Co. Dublin., A94 E973, Dublin;53.2782082;-6.1598669
IE 2343 EC;M & K Meats Ltd.;Unit 11 & 14, Block G, Greenogue Business Park, Rathcoole, Co. Dublin., D24 HC03, Dublin;53.278999799999994;-6.466848549428969
IE 2862 EC;McManus Meats Ltd.;11 Old Quarry Campus, North West Business Park, Phase 3, Ballycoolin, Dublin 15., D15 VF22, Dublin;53.4057714;-6.3632264
IE 2924 EC;Mertonbury Ltd.;Unit 403B, Grants Park, Greenogue Industrial Estate, Rathcoole, Co. Dublin, D24 YX77, Dublin;53.278999799999994;-6.466848549428969
IE 2945 EC;Musgrave Limited t/a Musgrave Wholesale Partners;Robinhood Industrial Estate, Clondalkin, Dublin 22., D22 FR53, Dublin;53.3331089;-6.395898
IE 2927 EC;Musgrave Limited t/a Musgrave Wholesale Partners.;St. Margaret's Road, Ballymun, Dublin 11., D11 FN84, Dublin;53.3903302;-6.2643643
IE 2372 EC;O'Mahony Meats;Unit 13 A, Malahide Road Industrial Park, Dublin 17., D17 KR76, Dublin;53.40651475;-6.286667702716778
IE 2370 EC;Pidgeons Ltd;Westgate, Carrickmines, D18 HE26, Dublin;53.2532351;-6.1718916
IE 2376 EC;Sandyford Meats Limited;Ravens Rock Road, Sandyford Industrial Estate, Dublin 18., D18 Y8R9, Dublin;53.274197;-6.2136733
IE 2954 EC;Smokin Bones Ltd;4 Oxmantown Lane, Dublin 7., D07 EV70, Dublin;53.3482789;-6.282077
IE 2881 EC;Sysco Foods Ireland Unlimited Company;Killamonan, The Ward, Co. Dublin., D11 VP3F, Dublin;53.40651475;-6.286667702716778
IE 2363 EC;Teagasc Ashtown Food Research Centre;Meat Industry Development Unit, Ashtown, Dublin 15., D15 KN3K, Dublin;53.40651475;-6.286667702716778
IE 2356 EC;Tom Whelan Meat Products Ltd.;Unit 5B, Robinhood Industrial Estate, Clondalkin, Dublin 22., D22 Y6N1, Dublin;53.3331089;-6.395898
IE 2357 EC;Whelans Of Dublin Pudding Manufacturers Ltd;Units 2B-1C and 2B-1A, JFK Road, JFK Industrial Estate, Dublin 12., D12 E045, Dublin;53.40651475;-6.286667702716778
IE 2579 EC;Andrew English;Main Street, Emly, E34 FK75, Tipperary;52.465142;-8.3535959
IE 2577 EC;Brian Lewis;Gortenerrig, Donohill, Tipperary, Tipperary;52.5388357;-8.1442162
IE 2932 EC;Carrickgollogan;Inch House Traditional Pudding, Patrick Street, Templemore, Tipperary;52.795191;-7.8385143
IE 2953 EC;Cashel Jerky;Ballypadeen, Cashel, E25 Y335, Tipperary;52.5167478;-7.8879311
IE 2976 EC;Crowe Farm Poultry Ltd;Gurtussa, Dundrum, E34 E986, Tipperary;52.5602364;-8.0452754
IE 2580 EC;Crowe Meats Ltd.;Gurtussa, Dundrum, E34 EP86, Tipperary;52.5602364;-8.0452754
IE 2576 EC;David O'Malley;Springfield , Tipperary town, Co. Tipperary, Tipperary;52.68482145;-7.898147186112796
IE 2435 EC;Derrykearne Foods ;Cloonagh, Roscrea, Tipperary;52.942632;-7.787845454706259
IE 2867 EC;Eamon Ryan;Main Street, Golden, E25 DX51, Tipperary;52.4985045;-7.9804283
IE 2545 EC;Edward Lacey;Lacey's Abbattoir, Beakstown, Holycross E41 XH01, Tipperary;52.68482145;-7.898147186112796
IE 2429 EC;Good Herdsman;Clogheen Rd, Cahir, E21 TW40, Tipperary;52.3749915;-7.92424
IE 2584 EC;J O'Dwyer;Pike Street, Killenaule, Thurles E41 EP44, Tipperary;52.68482145;-7.898147186112796
IE 2575 EC;Joe Hammersley;Clonoulty, Cashel, E25 AX28, Tipperary;52.61245415;-7.956985052574737
IE 2572 EC;JWB Retail Sales Ltd and James Whelan Butchers;Garrentemple, Clonmel, E91 R898, Tipperary;52.355;-7.703889
IE 2589 EC;Liam Gahan;Kilaghy, Mullinahone, Thurles, Tipperary;52.6801547;-7.8151008
IE 2571 EC;Martin O'Dwyer;Deansgrove, Cashel, Tipperary;52.5167478;-7.8879311
IE 2573 EC;Michael & Maurice Whelan;The Quay, Carrick on Suir, Tipperary;52.3440402;-7.409985
IE 2920 EC;Midland Fine Foods Ltd;Carrig, Birr, Tipperary;53.08097375;-7.8699688911235945
IE 2492 EC;Paddy O'Halloran;Reddans Walk, Dundrum Road, Tipperary Town E34 P593, Tipperary;52.68482145;-7.898147186112796
IE 2582 EC;Pat Walsh;70 Main Street, Cashel, E25 E142, Tipperary;52.5158898;-7.8910431
IE 2985 EC;Piedmontese Meat Company ;Blackcastle , Twomileborris, E41 TK65, Tipperary;52.67003855;-7.695051944488317
IE 2790 EC;Premier Game Ltd;Skeheenarinky, Burncourt, Cahir E21 YT21, Tipperary;52.68482145;-7.898147186112796
IE 2493 EC;Slievenamon Meats;Corbally, Drangan, Thurles E41 YW77, Tipperary;52.68482145;-7.898147186112796
IE 2892 EC;Templetuohy Farm Fresh Foods Ltd;Ballytarsna, Horse & Jockey, Cashel, Tipperary;52.5167478;-7.8879311
IE 2854 EC;Templetuohy Foods;Ballytarsna, Horse & Jockey, Thurles E25 WD52, Tipperary;52.68482145;-7.898147186112796
IE 2588 EC;Thomas Myles;Main Street, Ardfinnan, Clonmel, Tipperary;52.355;-7.703889
IE 2436 EC;Thurles Bacon;Killinan, Thurles, Co. Tipperary, E41 NY83, Tipperary;52.6801547;-7.8151008
IE 2635 EC;Una O'Dwyer Ltd T/A Cashel Fine Foods ;Deansgrove, Cashel, E25 FV38, Tipperary;52.5167478;-7.8879311
IE 2947 EC;Whelan Food & Meat Processors;Oakville Shopping Centre, Clonmel, E91 FX58, Tipperary;52.357036550000004;-7.701939322153638
IE 2581 EC;William Fitzgibbon;Bohercrowe, Limerick Rd, Tipperary;52.68482145;-7.898147186112796
IE 2779 EC;Cappoquin Meats;Units 6 & 7 IDA Enterprise Park, Cappoquin , P51W660, Waterford;52.1461607;-7.8498011
IE 3027 EC;Cfm Catering Ltd;Unit 604 , Northern Industrial Estate, Clayboy Road, Waterford;52.1509131;-7.657798180652727
IE 2611 EC;Michael McGrath Butchers;Main Street, Lismore, P51 TVH9, Waterford;52.1372777;-7.9326104
IE 2618 EC;Murphy Quality Meats;Morrissons Avenue, Tycor, Waterford city, Waterford;52.2579619;-7.1325148
IE 3022 EC;Musgrave Marketplace Meat Cutting Unit;Musgrave Retail Park, Kilbarry Road Junction, Outer Ring Road  X91 E044, Waterford;52.1509131;-7.657798180652727
IE 2477 EC;O'Flynn Meats;Gracedieu, Waterford , X91 V092, Waterford;52.262907;-7.162004635905594
IE 2612 EC;O'Riellys Butchers;Main Street, Kilmacthomas, X42 CA32, Waterford;52.206253;-7.4241143
IE 2827 EC;Philip Egan Meats ;Unit 3A, Westside Business Park, Old Kilmeaden Road , X91T103, Waterford;52.1509131;-7.657798180652727
IE 2360 EC;Christopher Byrne;Clonee Lower, Camolin, Enniscorthy, Wexford;52.5011493;-6.5674944
IE 2851 EC;O'Neill Foods LTD;Block B, Unit 3A, Enniscorthy Business Park, Old Dublin Road, Enniscorthy, Wexford;52.525037;-6.5561242
IE 2877 EC;Regan Organic Produce Ltd;Dranagh, Caim, Enniscorthy, Wexford;52.511798549999995;-6.675009971994324
IE 2350 EC;Richard Doyle;Norristown, Cleariestown, Wexford;52.2764036;-6.5950661
IE 2904 EC;Tony Butler Meats;Unit 10, Kerlogue Industrial Estate, Rosslare Road, Wexford;52.46018745;-6.606515459159162
IE 2857 EC;Wexford Casings Ltd;Unit 39, Gorey Business Park, Ramstown, Gorey, Wexford;52.6670745;-6.3058457
IE 2355 EC;Woodlawn Meats;Knockstown, Clonroche, Wexford;52.4496112;-6.7179575
IE 2651 EC;Anthony & Padraig Farrelly;Main Street, Delgany, A63 DE31, Wicklow;53.1326345;-6.0922262
IE 2470 EC;Damien Murphy;Murphys Butchers, Corner House, Tinahely, Y14 RK58, Wicklow;52.7995502;-6.463477
IE 2641 EC;Dun Luain Foods;Church Road, Dunlavin, W91 EF61, Wicklow;53.0580624;-6.7032399
IE 2696 EC;Dunnes of Wicklow;Unit 5, Charvey Lane Industrial Estate, Rathnew A67 TE80, Wicklow;52.95814675;-6.381970708677661
IE 2912 EC;FD Meats;90 Main St., Bray, A98 W3C1, Wicklow;53.202833;-6.1099822
IE 2607 EC;Myles Doyle;Stephen Street, Dunlavin, W91 WF78, Wicklow;53.0570778;-6.7005818
IE 2893 EC;Steven Goode T/A The Goode Life Food Company;Unit P4, ABEC, Kilbride Industrial Estate, Arklow Y14 K729, Wicklow;52.95814675;-6.381970708677661
IE 2049 EC;ABP Ireland UC T/A Functional Ingredients Ireland;Cahir;52.3749915;-7.92424
IE 71 EC;Americold Castleblayney Limited;Castleblayney;54.1201142;-6.7389328
IE 75 EC;Americold Lough Egish Limited;Castleblayney;54.1201142;-6.7389328
IE 2067 EC;Americold Dublin Limited;St Margaret's ;52.2062474;-6.352756100590298
IE 2950 EC;Andarl Farm Ltd;Castlebar;53.8568418;-9.297967
IE 12 EC;Anglo Beef Processors Ireland UC T/A ABP Abbey Road;Cahir;52.3749915;-7.92424
IE 351 EC;Anglo Beef Processors Ireland UC T/A ABP Bandon;Bandon;51.7461712;-8.7369303
IE 300 EC;Anglo Beef Processors Ireland UC T/A ABP Cahir;Cahir;52.3749915;-7.92424
IE 378 EC;Anglo Beef Processors Ireland UC T/A ABP Clones;Clones;54.1792105;-7.2320729
IE 290 EC;Anglo Beef Processors Ireland UC T/A ABP Nenagh;Nenagh;52.861944;-8.196667
IE 354 EC;Anglo Beef Processors Ireland UC T/A ABP Rathkeale;Rathkeale;52.5236119;-8.9377374
IE 344 EC;Anglo Beef Processors Ireland UC T/A ABP Waterford;Waterford;52.2609997;-7.1119081
IE 406 EC;Arthur Mallon Foods Ltd;Monaghan;54.2485576;-6.9688855
IE 2062 EC;Aryzta Food Solutions UC;Clondalkin;53.3219624;-6.3942689
IE 600 EC;ASBA Meats Ltd;Ennis ;52.8435152;-8.983747
IE 512 EC;Ashbourne Meat Processors;Naas;53.2214677;-6.6574093
IE 382 EC;Ashbourne Meats Roscrea UC;Roscrea;52.942632;-7.787845454706259
IE 395 EC;Ballaghadereen Bacon Factory Ltd;Ballaghdereen;52.865196;-7.9794599
IE 792 EC;Ballineen Fine Foods Ltd;Bandon;51.7461712;-8.7369303
IE 392 EC;Ballon Meats Ltd;Ballon;52.7392233;-6.7693693
IE 550 EC;Ballyboden Ltd T/A Glenside Bacon Company;Glenties;54.7972091;-8.2839273
IE 2967 EC;Ballymooney Foods Limited;Clane;53.2911753;-6.6861147
IE 789 EC;Birds Eye Ireland Limited;Longford;53.7278;-7.7963816
IE 2008 EC;Birds Eye Ireland Limited;Naas;53.2214677;-6.6574093
IE 2051 EC;Bond Freeze Ltd;Bond Road;52.865196;-7.9794599
IE 2012 EC;Boyne Valley Meats Ltd;Garristown;53.566876;-6.3836331
IE 2016 EC;Bralca Cold Stores Ltd;Newbridge;53.1801492;-6.7981931
IE 604 EC;C & J Meats Ireland;Lifford;54.8326995;-7.4834739
IE 70 EC;C & M Coldstores Ltd;Carrickmacross;53.9770462;-6.7193763
IE 2061 EC;C & M Coldstores (Shercock) Ltd;Carrickmacross;53.9770462;-6.7193763
IE 79 EC;C.G.I. Coldstores;Blanchardstown;53.3844588;-6.3829415
IE 84 EC;C.G.I. Food Park Ltd;Midleton;51.9142741;-8.1700962
IE 528 EC;Callan Bacon Company Ltd;Callan;52.5445861;-7.3900941
IE 741 EC;Carroll Cuisine UC;Tullamore;53.2743768;-7.4927486
IE 803 EC;Carton Brothers T/A Manor Farm ;Shercock;53.9951052;-6.8982056
IE 780 EC;Clonakilty Food Company UC ;Western Rd., Clonakilty;51.6212847;-8.8981714
IE 2002 EC;Cold Move Logistics Solutions Ltd;Oranmore;53.26230045;-8.937306901419422
IE 16 EC;Colso Enterprises Ltd;Togher;51.8767758;-8.4939627
IE 795 EC;Connolly Meats Ltd;Scotstown;54.2775945;-7.067498
IE 2043 EC;Constellation Cold Logistics Dublin Limited;Finglas;53.389167;-6.296944
IE 297 EC;Cooksgrove Ltd. T/A Euro Farm Foods ;Duleek;53.656337;-6.4147493
IE 2055 EC;Country Style Foods Ltd T/A Countrystyle Cold Store & Food Distribution;Kilmacow;52.3161336;-7.1773747
IE 609 EC;Comida Exports Limited T/A Ashgrove Wholesale Ltd;Dually ;52.5412441;-7.8160828
IE 734 EC;Dawn Farm Foods Ltd;Naas;53.2214677;-6.6574093
IE 318 EC;Dawn Meats Ireland T/A Convenience Foods;Kilmacthomas;52.206047;-7.4246616
IE 368 EC;Dawn Meats Ireland UC T/A Dawn Charleville;Charleville;52.3546432;-8.6828833
IE 311 EC;Dawn Meats Ireland UC T/A Meadow Meats;Rathdowney;52.855426;-7.5838016
IE 364 EC;Dawn Meats Ireland UC T/A Dawn Ballyhaunis;Ballyhaunis;53.7633588;-8.7651532
IE 350 EC;Dawn Meats Ireland UC T/A Dawn Grannagh;Grannagh;53.1470391;-8.74100715940855
IE 574 EC;Dawn Meats Ireland UC T/A Dawn Meats Kilbeggan;Kilbeggan;53.36953625;-7.49399421681543
IE 384 EC;Dawn Meats Ireland UC T/A Dawn Meats Slane;Navan;53.651908;-6.6833615
IE 2037 EC;Dawn Meats Ltd.;Kilmacthomas;52.206047;-7.4246616
IE 753 EC;Dew Valley Foods Ltd;Thurles;52.6801547;-7.8151008
IE 576 EC;Divilly's Ltd.;Oranmore;53.26230045;-8.937306901419422
IE 292 EC;Donegal Meat Processors T/A Foyle Donegal;Carrigans;54.9509259;-7.4294746
IE 546 EC;Drover Foods Ltd;Wexford;52.32722375;-6.475865667119691
IE 73312 EC;DSG Packaging Ltd;Naas;53.2214677;-6.6574093
IE 407 EC;Dunleavy Meats Ltd.;Ballina;54.1143359;-9.1532099
IE 2069 EC;Eircorp Limited T/A Eirpak;Oranmore;53.26230045;-8.937306901419422
IE 2052 EC;Elite Quality Meats Ltd T/A Elita Meats or Ryan Meats;Finglas;53.389167;-6.296944
IE 738 EC;Feldhues Gmbh Fleishwaren Production;Clones;54.1792105;-7.2320729
IE 369 EC;Finns Meats;Mitchelstown;52.2661629;-8.2708001
IE 575 EC;Flamewood Ltd. T/A McCaughey Foods;Castleblayney;54.1201142;-6.7389328
IE 2024 EC;Galway Turkeys Ltd T/A Capital Coldstore & Logistics;Ballycoolin;53.40702445;-6.3570880372327565
IE 764 EC;German Salami Co. (Dundalk) Ltd;Dundalk;54.0046033;-6.4008879
IE 764 EC;German Salami Co. (Dundalk) Ltd;Coe's Rd., Dundalk;54.0038751;-6.3855335
IE 564 EC;Glen Aine Foods Ltd;Knocklong;52.4371625;-8.4107217
IE 830 EC;Glenhaven Foods (Arklow) Unlimited Company;Arklow;52.798221;-6.1540035
IE 2058 EC;Glenhaven Foods (Arklow) Unlimited T/A The Hatchery;Avoca;52.8572265;-6.2130259
IE 4033 EC;Golden Bake Limited;Coolock;53.3893213;-6.200352
IE 779 EC;Granby Ltd.;Dublin 1;53.3522423;-6.2600081
IE 381 EC;Green Pasture Meat Processors Ltd.;Drumlish;53.8200862;-7.7693182
IE 838 EC;Greene Farm Fine Foods Limited T/A Greene Farm;Rathowen;53.6554046;-7.5197224
IE 807 EC;Grove Turkeys Ltd T/A Grove Farm;Smithboro;52.865196;-7.9794599
IE 2070 EC;Hannon Logistics Limited;Lusk;53.5255827;-6.1658125
IE 782 EC;H & D Meats Ltd T/A Robinson Meats;Chapelizod;53.3479155;-6.3451971
IE 409 EC;Hilton Foods (Irl) Ltd.;Drogheda;53.7149877;-6.3524183
IE 827 EC;Hogan's Turkeys Limited;Kells;53.7274118;-6.8761704
IE 513 EC;Honey Vale Foods Limited;Cahir;52.3749915;-7.92424
IE 2056 EC;Honeyvale Foods Ltd. T/A Oakpark Foods;Clonmel;52.355;-7.703889
IE 775 EC;Horgan's Delicatessen Supplies Ltd.;Mitchelstown;52.2661629;-8.2708001
IE 855 EC;IGWT Poultry Services Ltd;Castleblayney;54.1201142;-6.7389328
IE 156 EC;Iman Casing's Ireland Ltd;Ballyhaunis;53.7633588;-8.7651532
IE 757 EC;International Meat Ingredients Ltd (IMI Ltd);Naas;53.2214677;-6.6574093
IE 560 EC;Irish Bacon Slicers Ltd;Ballincollig;51.8883371;-8.5894006
IE 701 EC;Irish Casing Company;Tullamore;53.2743768;-7.4927486
IE 363 EC;Irish Country Meats  ;Navan;53.651908;-6.6833615
IE 367 EC;Irish Country Meats Camolin;Camolin;52.6166981;-6.4242938
IE 2065 EC;J & J Game Dealing;Castlebar;53.8568418;-9.297967
IE 2023 EC;Karro McGee ROI Ltd;Castleblayney;54.1201142;-6.7389328
IE 404 EC;Kavanagh Meats Enniscorthy ULC;Enniscorthy;52.5011493;-6.5674944
IE 2066 EC;KCS Logistics & Storage Limited;Raheenagh;52.375278;-9.042222
IE 83 EC;Kells Cold Stores Limited ;Kells;53.7274118;-6.8761704
IE 317 EC;Kepak (Clonee) Ltd;Clonee;53.4104332;-6.4404037
IE 313 EC;Kepak Athleague;Athleague;53.567573;-8.2561657
IE 2038 EC;Kepak Ballybay;Ballybay;54.1288793;-6.9029718
IE 769 EC;Kepak Convenience Foods UC T/A Kepak Poppintree;Finglas;53.389167;-6.296944
IE 329 EC;Kepak Cork;Watergrasshill;52.0115606;-8.3436011
IE 2007 EC;Kepak Kilbeggan Unlimited Company;Kilbeggan;53.36953625;-7.49399421681543
IE 533 EC;Kepak Longford;Ballymahon;53.488241599999995;-6.944272763846932
IE 559 EC;Kiely Meats (Waterford) Ltd;Kilmacow;52.3161336;-7.1773747
IE 268 EC;Kildare Chilling Company UC;Kildare;53.1568465;-6.9117199
IE 2064 EC;Kingate Investments ULC;Portlaoise;53.0340093;-7.3000591
IE 325 EC;Liffey Meats (Cavan) UC. T/A Liffey Meats;Ballyjamesduff;53.8639055;-7.2061572
IE 2003 EC;Liffey Meats Ltd;Hacketstown;52.8652459;-6.5593626
IE 401 EC;Liffey Meats T/A O’ Connor Meat Products 2010 Ltd;Ballinasloe;53.3302722;-8.221376
IE 756 EC;Lundy Foods Ltd;Ballina;54.1143359;-9.1532099
IE 33 EC;Lyonara Cold Stores;Portlaoise;53.0340093;-7.3000591
IE 59 EC;Lyonara Coldstores  (Cork) Ltd.;Mallow;52.1374642;-8.6462922
IE 799 EC;M & M Walshe Ltd. T/A Rib World;Fethard;52.1915688;-6.8398404
IE 2042 EC;MAASDEC Fine Foods T/A McCaughey Foods;Castleblayney;54.1201142;-6.7389328
IE 790 EC;Malone Food Products;Castleblayney;54.1201142;-6.7389328
IE 372 EC;Martin Jennings Wholesale Ltd;Ballinrobe;53.6240883;-9.2220833
IE 608 EC;McCarren Meats UC;Cavan;53.9911042;-7.3603119
IE 2029 EC;Molloy & Sherry (Eirfreeze) Ltd;Swords;53.4594799;-6.219175
IE 370 EC;Moyvalley Meats (IRL) UC  T/A Moyvalley Meats;Broadford;52.805536;-8.6338474
IE 2072 EC;Mulligan Transport Limited;Castleblayney;54.1201142;-6.7389328
IE 2063 EC;Musgrave Food Exports Limited;Ballymun;53.3948616;-6.2651936
IE 2048 EC;Musgrave Ltd. T/A Allied Logistics;Tallaght;53.2878082;-6.362355
IE 2010 EC;Nest Box Egg Company Ltd;Castleblayney;54.1201142;-6.7389328
IE 754 EC;Newbridge Foods Ltd;Newbridge;53.1801492;-6.7981931
IE 570 EC;Newbridge Meats Ltd;Newbridge;53.1801492;-6.7981931
IE 40 EC;North Raven Ltd.  T/A Temperature Controlled Logistics;Roscrea;52.942632;-7.787845454706259
IE 2313 EC;O’Brien Fine Foods UC;Naas;53.2214677;-6.6574093
IE 2011 EC;O'Farrell Meats Ltd;Midleton;51.9142741;-8.1700962
IE 784 EC;Oliver Carty UC;Athlone;53.4228434;-7.9425897
IE 2071 EC;O'Toole Transport Limited;Hollystown;53.42942565;-6.381509634700695
IE 2045 EC;Permafrost Refrigeration & Air Conditioning Ltd;Ballincollig;51.8883371;-8.5894006
IE 501 EC;Pilgrim's Food Masters Ireland Ltd;Shillelagh;52.7538797;-6.5370584
IE 747 EC;Pilgrim's Food Masters Ireland Limited;Carrickmacross;53.9770462;-6.7193763
IE 761 EC;Portumna Pastry Ltd.;Portumna;53.0923333;-8.2192922
IE 157 EC;Prestige Foods Ltd;Listowel;52.4472298;-9.4846811
IE 2068 EC;Provincial Agri Foods Limited;Carrickmacross;53.9770462;-6.7193763
IE 10 EC;Q.K. Cold Stores Ltd;Kilmacthomas;52.206047;-7.4246616
IE 32 EC;Q.K. Cold Stores Ltd;Grannagh;53.1470391;-8.74100715940855
IE 2410 EC;Quality First Limited;Muirfield ;52.865196;-7.9794599
IE 152 EC;Quality Irish Food Ltd T/A Mr Crumb;Mullingar;53.525822;-7.341304
IE 332 EC;Queally Pig Slaughtering Ltd T/A Dawn Pork & Bacon;Grannagh;53.1470391;-8.74100715940855
IE 717 EC;Rangeland Foods ;Castleblayney;54.1201142;-6.7389328
IE 2057 EC;RC Casing Ltd;Ballyhaunis;53.7633588;-8.7651532
IE 306 EC;Rosderra Irish Meats Group UC;Clara;53.3425;-7.613889
IE 356 EC;Rosderra Irish Meats Group ULC;Edenderry;53.3433656;-7.0488576
IE 151 EC;Rosderra Irish Meats Group UC;Jamestown;53.9268765;-8.0303119
IE 355 EC;Rosderra Irish Meats Group UC;Roscrea;52.942632;-7.787845454706259
IE 2014 EC;Rosderra Irish Meats Group UC;Stradone;53.982871;-7.2359584
IE 551 EC;Sean Loughnane (Galway) Ltd;Tuam;53.5147915;-8.8512875
IE 800 EC;Sean Loughnane (Galway) Ltd. T/A Rudds Fine Foods;Birr;53.1057254;-7.757195629186065
IE 814 EC;Shannon Vale Foods;Clonakilty;51.6229346;-8.8870112
IE 601 EC;Shannonside Foods Ltd;Straffan;53.3125051;-6.6082372
IE 801 EC;Silver Hill Foods UC;Emyvale;54.3407498;-6.9593554
IE 296 EC;Slaney Foods International UC T/A Slaney Foods;Bunclody;52.6551145;-6.6520502
IE 2021 EC;Sligo Freeze Chill Ltd;Collooney;54.1836971;-8.4924684
IE 380 EC;Staunton Foods Ltd.;Timoleague;51.6440924;-8.7654642
IE 538 EC;Tender Meats Ltd.;Clondalkin;53.3219624;-6.3942689
IE 2005 EC;TCFG Naas Limited T/A The Culinary Food Group ;Naas;53.2214677;-6.6574093
IE 2977 EC;The Real Meal Company;Monaghan;54.2485576;-6.9688855
IE 8 EC;Trans-Stock Warehousing & Cold Storage Ltd;Waterford;52.2609997;-7.1119081
IE 2663 EC;Troys Abattoir Limited;Mullingar;53.525822;-7.341304
IE 818 EC;Western Brand Group Ltd.;Ballyhaunis;53.7633588;-8.7651532
IE 2059 EC;Wilbay Limited;Emo;53.0968238;-7.208366
IE 2428 EC;Williams Gate Limited;Tuam Road;53.283179849999996;-9.036949153004272
IE 2050 EC;WP Meats Ltd;Carrick-on Suir;52.349167;-7.413056
IE 1004 EC;Silverpail Dairy (Ireland) Ltd;Fermoy, Co. Cork , P61 TN28;52.1381665;-8.275223
IE 1007 EC;Cleire Goats;Cape Clear Island, Co Cork;51.43696335;-9.497705448670805
IE 1009 EC;Coolhull Farm Ltd;Coolhull Farm Ltd, Strandfield Business Park, Rosslare Road, Wexford, Y35 W1HF;52.46018745;-6.606515459159162
IE 1010 EC;Tipperary Organic Ice Cream;c/o Healy Fine Foods Ltd, Rath, Tullow, Co Carlow;52.76854305;-6.798678240492686
IE 1012 EC;"Legal name: Milseoga Ui Mhurchu Idirnaisiunta Teo
Trading name: Murphy's Ice Cream";Baile Na Buaile , Unit 1D, AN Daingean, Co Kerry;52.1407781;-10.2687161
IE 1022 EC;Tirlán Limited;Ballyragget, Kilkenny, R95 W3KD;52.7887862;-7.3343201
IE 1024 EC;Lakeland Dairies Co-op Society;Baileborough, Co Cavan, A82 N6K8;54.03497495;-7.2937022825583675
IE 1025 EC;Lakeland Dairies Co-op Society;Baileborough, Co Cavan, A82 N6K8;54.03497495;-7.2937022825583675
IE 1027 EC;Bandon Co-operative Agricultural & Dairy Society;Bandon Co-Operative Agricultural & Dairy Society, Watergate Street, Bandon, Co. Cork, P72K128;51.7473663;-8.7313747
IE 1030 EC;Mondelez Ireland Production Ltd;Shinnagh, Rathmore, Co Kerry, P51 X782;52.0843219;-9.2186143
IE 1031 EC;"Legal name: Carbery Food Ingredients Ltd
Trading name: Carbery Group";Carbery Food Ingredients Ltd, Ballineen , Co Cork , P47YW77;51.7356014;-8.9508703
IE 1032 EC;Compsey Creamery Society Ltd;Compsey Creamery Society Ltd., Mullinahone, Thurles, Co. Tipperary, E41 YV05;52.6801547;-7.8151008
IE 1038 EC;Dansko Foods Ltd;Dansko Foods, Sarsfield Street, Kilmallock, Co. Limerick, V35 N298;52.3993029;-8.5744751
IE 1042 EC;Dairygold Food Ingredients Ltd;Dairygold Food Ingredients, Annabella, Mallow, Co. Cork P51 D883;52.1413303;-8.6619767
IE 1043 EC;Dairygold Food Ingredients Ltd;Dairygold Food Ingredients, Clonmel Road, Mitchelstown, Co. Cork, P67 DD36;52.2683155;-8.2578098
IE 1044 EC;Dairygold Food Ingredients Ltd;Dairygold Food Ingredient, Castlefarm, Mitchelstown, Co. Cork. , P67 YR62;52.2661629;-8.2708001
IE 1046 EC;Dairygold Food Ingredients Ltd;Dairygold Food Ingredients, Mogeely, Co. Cork, P25 N568;51.94583405;-8.050879075704774
IE 1057 EC;Kerry Dairy Consumer Foods Ltd;Kilmallock Rd, Charleville, Cork;52.3546432;-8.6828833
IE 1058 EC;Green Pastures Donegal;Convoy, Lifford, Co. Donegal;54.85782485;-7.6590973201493515
IE 1059 EC;JOD Food Products Ltd;JOD Food Products, Effin Creamery, Kilmallock, Co.Limerick, V35 DN 20;52.35665275;-8.610279766122474
IE 1060 EC;Kerry Ingredients (Ireland) Ltd;Tralee Rd, Listowel, Co Kerry;52.4404972;-9.4791658
IE 1064 EC;Lakeland Dairies Co-op Society Ltd;Tullynahinera, Castleblaney, Co Monaghan;54.113907350000005;-6.732842472960632
IE 1065 EC;Lakeland Dairies Co-op Society Ltd;Killeshandra, Co Cavan;54.0146118;-7.5286568
IE 1066 EC;Lee Strand Co-Operative Creamery ltd;Ballymullen, Tralee, Co Kerry;52.2633712;-9.6958857
IE 1069 EC;Arrabawn Co-op Society Ltd;Stafford Street, Nenagh, Co. Tipperary;52.8603635;-8.1992889
IE 1071 EC;"Legal name: Newmarket Co-operative Creameries Ltd
Trading name: Kerry, EMEA Region, Newmarket";Newmarket Co-operative Creameries Ltd., T/A Kerry, EMEA Region, Newmarket, Co. Cork, P51 FK73;52.214904;-8.9988708
IE 1074 EC;North Cork Co-operative Creameries Ltd;Strand St, Kanturk , Co Cork, P51 Y052;52.1774522;-8.9065541
IE 1075 EC;"Legal name: Brian & Wendy MacDonnell
Trading name: Old MacDonnell's Farm";Glen of the Down's, Bray , Co Wicklow;53.2014604;-6.1105049
IE 1079 EC;Aurivo Dairy Ingredients;Ballaghaderreen, Co. Roscommon;53.9013669;-8.5788648
IE 1082 EC;Tipperary Co-operative Creamery LTD;Station Rd, Tipperary Town, Co. Tipperary;52.68482145;-7.898147186112796
IE 1083 EC;"Legal name: Lakeland Dairies Co-operative Society
Trading name: Lacpatrick Dairies Ltd";Coolshannagh, Monaghan, Co Monaghan, H18 HY27;54.259117399999994;-6.961707929736448
IE1085EC ;Tirlán Limited;Dublin Rd, Virginia, Cavan, A82CD63;53.8644593;-7.1912247
IE 1086 EC;Tirlán Limited;Rocklands, Wexford , Y35E956;52.32618775;-6.453533846521706
IE 1089 EC;Horgans Delicatessen Supplies Ltd;Horgan’s Delicatessen Supplies Ltd., Mitchelstown, Co. Cork, P67 KD21;52.2661629;-8.2708001
IE 1091 EC;Cuinneog Ltd;Shraheens, Balla, Castlebar, Co Mayo;53.7951004;-9.1308686
IE 1093 EC;Glenisk Ltd.;Newtown, Killeigh, Offaly, R35 DP76;53.2136157;-7.4496184
IE 1096 EC;Kerry Ingredients (Ireland) Ltd;Tralee Rd, Listowel, Co Kerry;52.4404972;-9.4791658
IE 1097 EC;Kerry Ingredients (Ireland) Ltd;Tralee Rd, Listowel, Co Kerry;52.4404972;-9.4791658
IE 1098 EC;Irish Yogurts Ltd;The Miles, Clonakilty, Co Cork;51.6229346;-8.8870112
IE 1099 EC;BC Manufacturing Enterprise Ltd;Bohergloss, Freshford, Kilkenny;52.7381075;-7.3983792
IE 1102 EC;Kilfera Food Manufacturers Ltd;Purcellsinch, Dublin Road, Kilkenny, R95 RY60;52.64345795;-7.216230757744786
IE 1104 EC;Moorepark Technology Ltd;Moorepark, Teagasc, Fermoy, Co Cork, P61 NP77;52.16360915;-8.261901088798052
IE 1105 EC;Nomadic Foods Ltd;Crossroads, Killygordon, Co Donegal, F93 VP83;54.7972;-7.683303
IE 1108 EC;"Legal name: Thomas Corrigan & Karina Gaetani
Trading name: Ballyshiel Artisan Foods";Unit 2, Ferbane Enterprise Centre, Ferbane, Co Offaly;53.2715862;-7.8277732
IE 1113 EC;Ingredient Solutions Ltd;Ingredient Solutions Ltd., Boherbue, Mallow, Co Cork , P51 FF99;52.159037999999995;-9.061159656819761
IE 1116 EC;HL Commodity Foods (MFG) Ltd;Emly Rd, Hospital, Limerick;52.4721802;-8.4306773
IE 1118 EC;Kerry Ingredients (Ireland) Ltd;Kerry Charleville, EMEA Region, Kilmallock Rd, Charleville, Co Cork, P56 E367;52.3546432;-8.6828833
IE 1403 EC;Tirlán Limited;Ballytore, Athy, Co Kildare;52.9923938;-6.9835926
IE 1405 EC;Tirlán Limited;Dublin Rd, Drogheda , Co Louth;53.7583435;-6.2745365
IE 1419 EC;Aurivo Consumer Foods Ltd;Crossroads, Killygordon, Co Donegal;54.7972;-7.683303
IE 1426 EC;Natural Dairies;Convoy, Co Donegal;54.8602564;-7.664132
IE 1427 EC;"Legal name: North Cork Co-operative Creameries Ltd
Trading name: Kanturk Dairy";Dromalour, Kanturk , Co Cork;52.1774522;-8.9065541
IE 1431 EC;Clona Dairy Products Ltd;Sand Quay, Clonakilty, Co Cork;51.6225087;-8.8859202
IE 1433 EC;Thurles Fresh Cream Milk Ltd;Templemore Rd., Thurles, Co Tipperary;52.9362365;-7.7878525
IE 1501 EC;Drombane Co-op;Drombane, Thurles, Co Tipperary, E41D653;52.66147685;-7.950909630146177
IE 1502 EC;Limerick Liquid Milk Producers Co Op Society Ltd;Ballycannon, Croagh, Rathkeale, Co. Limerick V94 AV21;52.5340256;-8.8703938
IE 1503 EC;"Legal name: Dairygold Food Ingredients Ltd
Trading name: Dairygold Food Ingredients Ltd";Clonmel Rd, Mitchelstown, Co Cork, P67 DD36;52.2681773;-8.2560987
IE 1504 EC;"Legal name: Boherbue Agricultural & Dairy Society Ltd.
Trading name: Boherbue Co-Op";Boherbue, Mallow, Co Cork;52.159037999999995;-9.061159656819761
IE 1510 EC;Callan Co-Operative & Dairy Society;West St, Callan, Co Kilkenny;52.5449031;-7.3923357
IE 1511 EC;"Legal name: Kerry Creameries Ltd
Trading name: Kerry Agribusiness Ltd";Kerry Group Corporate Head Office , Princes Street , Tralee, Co. Kerry, V92 EH11;52.2692116;-9.7057047
IE 1512 EC;Doapey CA & DS Ltd;Aghabog , Co Monaghan;54.149722;-7.089444
IE 1513 EC;Maudabawn Co-op Creamery;Maudabawn, Cootehill, Co Cavan;54.0312374;-7.022761388731947
IE 1514 EC;Centenary Thurles Co op Society;Templemore RD, Thurles, Co Tipperary;52.9424858;-7.7903948
IE 1515 EC;Tirlán Limited;Ballyconra, Ballyragget, Co Kilkenny;52.7887862;-7.3343201
IE 1516 EC;Lakeland Dairies Co-op Society Ltd;Killeshandra, Co Cavan;54.0146118;-7.5286568
IE 1517 EC;Lisavaird Co-operative Creamery Ltd;Lisavaird, Clonakilty, Co Cork P85AT89;51.6026957;-8.9733892
IE 1518 EC;Drinagh Co-op Ltd;Drinagh, Co Cork;51.6500757;-9.1495826
IE 1520 EC;Strathroy Dairy Ltd;Unit 105, Northwest Business Park, Ballycoolin, Dublin 11, D15 KX67;53.40651475;-6.286667702716778
IE 1523 EC;Barryroe Co-operative;Lislevane, Bandon, Co Cork;51.6079936;-8.7560118
IE 1524 EC;Aurivo Co-operative Society Ltd;Aurivo House, Finisklin Business Park, Sligo, F91 N968;54.2758273;-8.496099621937695
IE 1525 EC;Mullinahone Co-Operative Dairy Society;Mullinahone, Thurles, Co Tipperary, E41 YV05;52.6801547;-7.8151008
IE 1526 EC;"Legal name: Irish Organic Milk Producers Ltd
Trading name: The Little Milk Company";Barranastook House, Cappagh, Dungarvan Co. Waterford X35 Y670;52.0897488;-7.6210306
IE 1802 EC;Durrus Cheese Ltd;Coomkeen, Durrus, Bantry, Co Cork;51.6454673;-9.529243
IE 1812 EC;Beal Organic Cheese Ltd;Beal Lodge, Asdee, Co Kerry;52.5519029;-9.5600625
IE 1816 EC;"Legal name: Silke Cropp
Trading name: Corleggy Cheese";Corleggy Cheeses, Corleggy, Belturbet, Co. Cavan, H14 Y288;54.1007391;-7.4440418
IE 1819 EC;Gubbeen Farmhouse Products Ltd;Gubbeen, Schull, Co Cork;51.5271026;-9.5469428
IE 1820 EC;"Legal name: Sean Fitzgerald
Trading name: Cratloe Hills Sheep's Cheese";Brickhill, Cratloe, Co Clare, V95 CF58;52.7016908;-8.741787334500794
IE 1822 EC;Inagh Farmhouse Cheese Ltd;Inagh Farmhouse Cheese, Ennistymon, Co. Clare, V95XA9C;52.857257450000006;-8.937435925994537
IE 1823 EC;"Legal name: J & L Grubb Ltd
Trading name: Cashel Farmhouse Cheesemakers";Cashel Farmhouse Cheesemakers, Beechmount, Fethard, Co. Tipperary, E91 FK84;52.467222;-7.691111
IE 1829 EC;The Tipperary Cheese Company Ltd;Middle Piece, Two-Mile-Borris, Thurles, Tipperary E41TX25;52.65295345;-7.7047285033649135
IE 1833 EC;Aillwee Cave Co Ltd;Aillwee Cave Co ltd, Ballyvaughan, Co. Clare, H91 AX26;53.1152862;-9.1487092
IE 1837 EC;Knockanore Farmhouse Cheese Co Ltd;Ballyneety, Knockanore, Co Waterford P51A525;52.0528914;-7.8899756
IE 1838 EC;"Legal name: Marchminder Ltd
Trading name: Cooleeney Cheese";Cooleeney, Moyne, Thurles, Co Tipperary;52.6810458;-7.7969912
IE 1844 EC;Wilma Silvius O'Connor;Ardmoniel, Killorglin, Co Kerry, V93 V8CP;52.14533445;-9.517401092833236
IE 1845 EC;"Legal name: Michael O'Donovan
Trading name: Round Tower Cheese";Farranmareen, Enniskeane, Co Cork, P47 RY70;51.917535900000004;-8.58597726870895
IE 1846 EC;Carrigaline Farmhouse Cheese Ltd;The Rock, Carrigaline, Co Cork;51.8170646;-8.3739048
IE 1851 EC;Milleens Cheese Ltd;Quinlan Steele, Milleens Cheese ltd., Eyeries, Beara, Co.Cork, Ireland, P75 FN52;51.7280451;-9.767906428362338
IE 1856 EC;Coolea Farmhouse Cheese Ltd (Cais Cuil Aodha Teo);Milleens, Coolea, Macroom, Co. Cork, P12AC64;51.9049705;-8.9599195
IE 1867 EC;Bandon Vale Cheese Ltd;Lauragh Industrial Est, Lauragh, Bandon, Co Cork;51.7461712;-8.7369303
IE 1872 EC;Ardsallagh Goat Products Ltd;Ardsallagh Farm Woodstock, Carrigtohill, Co Cork;51.910748350000006;-8.258596783695086
IE 1875 EC;"Legal name: Greenvalley Farms Ltd
Trading name: Killowen Farm";Killowen Farm, The Beeches, Courtnacuddy, Enniscorthy, Co Wexford, Y21 V4A4;52.481309550000006;-6.693082330823538
IE 1876 EC;"Legal name: Harry Van Der Zanden
Trading name: Derreenaclaurig Cheese";Derreenaclaurig, Sneem, Co Kerry;51.8381992;-9.8995313
IE 1877 EC;"Legal name: Rochus Van Der Vaart
Trading name: Oisin Farmhouse";Gortacurrig, Kilfinnane, Co. Cork , V35 FF86;52.362869;-8.42666500699477
IE 1879 EC;Traditional Cheese Company Ltd;Unit 244, Holly Road, Western Industrial Estate, Dublin 12;53.40651475;-6.286667702716778
IE 1888 EC;"Legal name: Dingle Farmhouse Products Ltd
Trading name: Dingle Farm";Baile Ghainín Beag, Ballydavid, Dingle, Co Kerry, V92 XHC9;52.1407781;-10.2687161
IE 1902 EC;"Legal name: Dan Hegarty
Trading name: T/A Dan Hegary Cheese";Church Rd, Whitechurch, Co Cork , T34 RR84;51.958525;-8.528147505240696
IE 1904 EC;Glenilen Farm Ltd;Gurteeniher, Drimoleague, Co Cork;51.6608501;-9.2599704
IE 1911 EC;Knockdrinna Farmhouse Cheese Ltd.;Stoneyford, Co Kilkenny;52.5362671;-7.2278963
IE 1912 EC;"Legal name: Marion Roeleveld
Trading name: Killeen Farmhouse Cheese";Manufacturing Address, Loughanroe East, Ballyshrule, Portumna, Co Galway, H3K068;53.1908135;-9.3270496
IE 1914 EC;Coastal Trading & Consulting Ltd.;Costal Lodge, Garryvoe, Ladysbridge, Co Cork;51.8984726;-8.0439578
IE 1915 EC;Wicklow Farmhouse Cheese Ltd;Curranstown, Arklow, Co Wicklow;52.798221;-6.1540035
IE 1917 EC;"Legal name: Elizabeth Bradley
Trading name: Carlow Cheese";Ballybrommell, Fenagh, Co Carlow;52.71370975;-6.804948304553984
IE 1925 EC;Coolattin Cheddar Ltd;Knockeen , Tullow, Co Carlow;52.8162133;-6.6731885
IE 1927 EC;"Legal name: Aoife and Damien Clarke
Trading name: Goldenhill Farmhouse Ice cream";Goldenhill Farm, Goldenhill, Three Castles, Blessington, Wicklow , W91D51F;52.95814675;-6.381970708677661
IE 1929 EC;Valentia Island Farmhouse Dairy Ltd;Kilbeg, Valentia Island , Co Kerry;51.90805095;-10.355774475157709
IE 1930 EC;Boulabane Cheese Co Ltd;Boulabane, Roscrea, Tipperary;52.942632;-7.787845454706259
IE 1932 EC;Linnalla Pure Ice cream;Linnalla ice cream, New Quay, Burren, Co Clare, H91KP84;53.1552627;-9.083367770732007
IE 1942 EC;"Legal name: Relihan Farm Limited
Trading name: T/A Adare Farm";Port Adare Co Limerick;52.518831649999996;-8.795834650292788
IE 1943 EC;"Legal name: Mr Thomas Baldwin
Trading name: Baldwin's Farmhouse Ice Cream";Killeenagh, Knockanore, Co. Waterford;52.0528914;-7.8899756
IE 1947 EC;Fairgreen Ingredients Ltd;Knockanrawley, Tipperary Town, Co Tipperary;52.68482145;-7.898147186112796
IE 1949 EC;Sheridan's Cheesemongers Ltd;Virginia Rd Station, Virginia Road Station, Pottlereagh, Kells Co. Meath A82 K400;53.7274118;-6.8761704
IE 1952 EC;Kenmare Ice Cream;4 Henry St, Kenmare, Co Kerry;51.8789702;-9.5835108
IE 1953 EC;Mossfield Organic Farm;Clareen, Birr, Offaly;53.07363175;-7.800998967612755
IE 1955 EC;Aoife McNally;McNally Family Farm, Balrickard, Ring Commons, Co. Dublin;53.5806486;-6.226608894023499
IE 1956 EC;La Rousse Foods Ltd;31 Park West, Nangor Rd, Dublin12;53.3284427;-6.372232927867579
IE 1967 EC;Toonsbridge Dairy LTD;Macroom, Co Cork;51.9049705;-8.9599195
IE 1981 EC;"Legal name: Annelar Ltd
Trading name: Galway Cheese";An Teach Tui, Gurteen, Dunmore, Tuam, Co. Galway, H54 XY19;53.5189301;-8.8445664
IE 1984 EC;Bluebell Falls Ltd;Ballinakill East, Newtownshandrum, Charleville, Co Cork;52.3546432;-8.6828833
IE 1985 EC;"Legal name: GoBia Ltd
Trading name: GoBia Ltd CP Ingredients Ltd Real Ingredients Ltd";Unit 7, Limerick Food Centre, Raheen Business Park, Limerick, V94 F780;52.628022;-8.6620061
IE 1987 EC;"Legal name: ACFL Ltd
Trading name: The Cheese Hub";Unit 5, The Food Hub, Drumshanbo, Co Leitrim;54.0467406;-8.0401507
IE 1988 EC;Complex Nutrition Ltd;Unit 36, Navan Enterprise Centre, Trim Rd, Navan, C15 XKT3;53.6251837;-6.6898492
IE 1991 EC;Cais Gabhair Arann Teoranta;Oughill, killronan , Inis Mor , Aran Islands, Co Galway;53.120419850000005;-9.705683174303244
IE 1992 EC;Fairfield Farm Fresh Milk LTD;The Still, Enniscorthy, Co Wexford;52.5011493;-6.5674944
IE 1995 EC;Tirlán Limited;Unit 4, Lough Egish Business Pk, Castleblayney, Co Monaghan;54.1201142;-6.7389328
IE 1996 EC;Cais Na Tire Limited;Cloninaha, Ballinderry, Co Tipperary;53.0241182;-8.2214995
IE 1997 EC;Natural Ice cream Wholesale Ltd;Unit 12, Wexford Enterprise Centre, Kerlogue, Wexford;52.313773299999994;-6.4610773240863
IE 2000 EC;"Legal name: Brian & Ann Bond
Trading name: Sunview Goats";Sunview Farm, Terelton, Macroom, Cork;51.9049705;-8.9599195
IE 2001 EC;Tirlán Limited;IDA Science & Technology Park, Gorteens, Belview, Port Road, Kilkenny, X91 YC9R;52.5687098;-7.188983092181514
IE 2004 EC;Rockfield Dairy Ltd;Unit 2, Clar Business Park, Old Bacon Factory, Ballindine Road, Claremorris, Co Mayo, F12 P521;53.7147976;-8.9969922
IE2006EC ;Bioscience Nutrition Ireland Ltd;Skule Rd, Fedamore, Co Limerick;52.5453986;-8.6026924
IE 2007 EC;The Village Dairy;Clonmore, Killeshin, Carlow;52.845138;-6.998274768660752
IE 2009 EC;Macroom Buffalo Cheese Products Ltd.;Cloncud, Kilnamartyra, Macroom, Co. Cork;51.9049705;-8.9599195
IE 2010 EC;"Legal name: Kerry Cow Farm Ltd
Trading name: Kells Bay Cheese";Tobarnora, Kells Bay, Cahirciveen, Co Kerry V23 XY72;51.9675931;-10.17287230302578
IE 2103 EC;Airfield Estate;Upper Kilmacud Road , Dundrum , Dublin 14, D14 EE77;53.3105587;-6.2479311
IE 2107 EC;"Legal name: Kerrygold Butter Packing Ireland Ltd
Trading name: Kerrygold";Kerrygold Park, Mitchelstown, Co. Cork, P67 E020;52.2661629;-8.2708001
IE 2108 EC;"Legal name: Mr. Bartosz Surman
Trading name: t/a Dizzy Goat Farm,";120 Ashfield East Kilkenny;52.865196;-7.9794599
IE 2109 EC;Gleneely Foods Limited;Unit 5 Kilcarbery Park, New Nangor Road, Clondalkin, Dublin 22, D22 FD43.;53.40651475;-6.286667702716778
IE 2113 EC;Dozio's of Mayo Ltd;Barroe, Carracastle, Ballaghaderreen, Co. Mayo, F45 N971;53.9087056;-9.298304863654256
IE 2115 EC;"Legal name: Elizabeth O'Donovan
Trading name: Gloun Cross Dairy";Gloun North, Dunmanway, Co. Cork;51.7202004;-9.1126898
IE 2118 EC;"Legal name: Dayana Maltese
Trading name: Sabanero Artisan Cheese";Approval Address: Rooms 1, 3 & 4, Unit19, Navan Enterprise Centre, Trim Rd, Navan;53.6251837;-6.6898492
IE 2121 EC;"Legal name: Michael Finegan
Trading name: Boyne Valley Cheese";Mullagha Farm, Slane, Co. Meath;53.7090675;-6.5426177
IE 2122 EC;"Legal name: John Joe Roche
Trading name: Meadowfield";Meadowfield House, Garrylough , Screen, Enniscorthy, Co. Wexford, Y21 E330;52.5011493;-6.5674944
IE 2125 EC;"Legal name: Crawford's Farm Ltd
Trading name: Crawford's Farm";Garraun Lane, Cloughjordan, Co. Tipperary, E53 K168;52.9429227;-8.0392342
IE 2126 EC;"Legal name: Poldertron Ltd
Trading name: Dairy Concepts IRL";c/o Moorepark Technology Ltd, Moorepark, Fermoy, Co Cork, P61 NP77;52.1621259;-8.2664646
IE 2127 EC;Anabio Technologies Ltd;IDA Business Park, Carrigtwohill, Co Cork;51.9094617;-8.2611809
IE 2128 EC;"Legal name: William Sharpe
Trading name: T/A Irish Gourmet Butter";Unit 8, 9 & 10, Dunhill Ecopark, Dunhill, Co Waterford, X91 AN23;52.1881433;-7.283357612842044
IE 2129 EC;"Legal name: Raquel Alves
Trading name: T/a Robson's Cheese";Team Dynamics Kilkenny Ltd, Archersgrove House, Archersgrove, Kilkenny, R95 HRW2;52.5687098;-7.188983092181514
IE 2130 EC;"Legal name: Oliver & Eilish Diggin
Trading name: T/a Ardfert Dairy";Ballinorig, Causeway, Co Kerry;52.4142688;-9.7326736
IE 2132 EC;"Legal name: Ms Teresa Roche
Trading name: T/a Kylemore Farmhouse Cheese";Kylemore, Abbey, Loughrea, Co Galway, H62 AP84;53.200362999999996;-8.570154513205894
IE 2133 EC;"Legal name: Norma Dinneen Limited
Trading name: T/A Bo Rua Farm";Bó Rua Farm, Ballyknock, Ballynoe, Co Cork, P51HYH6;52.060307;-8.097583
IE 2134 EC;"Legal name: Jonathan Owens
Trading name: Greenfield Yogurts";Monanimy, Killavullen, Mallow, Co Cork, P51DP02;52.1374642;-8.6462922
IE 2135 EC;Donegal Farmhouse Cheese Ltd;Kille, Kilcar, Co Donegal, F94 WN63;54.632607;-8.5923665
IE 2136 EC;"Legal name: Mr George Finlay & Ms Hanna Sheerin
Trading name: Ballyhubbock Farm";Ballyhubbock Farm, Ballyhubbock Lower, Stratford-on-Slaney, Baltinglass, Co Wicklow, W91XP77;52.9876934;-6.6713881
IE 2137 EC;"Legal name: Angela O'Hanlon
Trading name: Dingle Goats Cheese";Lack, Inch, Co Kerry, V92 XT67;52.12536955;-9.956418980785681
IE 2138 EC;"Legal name: John Shanahan
Trading name: Shan Óg Dairy";Fishmoyne, Drom, Borrisoleigh, Co. Tipperary;52.7520934;-7.9560089
IE 2139 EC;JDS Foods Ltd.;JDS Foods Ltd, Churchfield, Cork, T23RH24;51.9078955;-8.4881392
IE 2141 EC;Tine Ireland Ltd;Mogeely, Co Cork, P25 D271;51.94583405;-8.050879075704774
IE 2142 EC;"Legal name: John and Catherine Fleming
Trading name: Muckross Creamery";Scartlea, Muckross, Killarney, Co Kerry;52.0563362;-9.5071709
IE 2143 EC;"Legal name: Bainne Codladh Ltd
Trading name: Lullaby Milk";Knockardrahan, Kanturk, Co Cork, P51 YCD9;52.1774522;-8.9065541
IE 2144 EC;"Legal name: ABC Nutrition Ltd
Trading name: ABC Nutritionals Ltd";Unit 7A, Knockbeg Point, Shannon, Co Clare, V14 XV08;52.7104544;-8.8788366
IE 2148 EC;Leahy's Open Farm Ltd;Condonstown, Dungourney, Co Cork;51.9686599;-8.0974431
IE 2150 EC;"Legal name: Mary-Thea Brosnan
Trading name: Kerry Kefir";Tralee Rd, Castleisland, Co Kerry, V92 DT21;52.2320596;-9.4702884
IE 2151 EC;"Legal name: Lisfield Dairy Ltd
Trading name: T/A Freezin' Friesian";Ballyhussa, Kilmacthomas, Co Waterford X42T688;52.206047;-7.4246616
IE 2153 EC;"Legal name: Michael Parle
Trading name: The Lost Valley Dairy & Creamery";Carrignamuc, Inchigeelagh, Macroom, Co Cork;51.840502;-9.1258725
IE 2154 EC;"Legal name: Coleville Dairy Company Ltd
Trading name: The Proper Dairy Company";C/o Moorepark Technologies Ltd, Moorepark, Fermoy, Co Cork, P61 NP77;52.1621259;-8.2664646
IE 2155 EC;Paul Molloy;Leamore, Tullamore, Co Offaly;53.2743768;-7.4927486
IE 2157 EC;Leprino Foods EU Ltd;J17 National Enterprise Park, Togher, Portlaoise, Co Laois, R32 W7Y8;53.0340093;-7.3000591
IE 2158 EC;"Legal name: Ballymaloe Cookery School Ltd
Trading name: Ballymaloe Cookery School";Shanagarry, Co Cork, P25 R274;51.8518462;-8.0362432
IE 2161 EC;Seabank Dairies Ltd;Seabank House, Dublin Road, Dromiskin, Dundalk, Co Louth, A19 NA02;53.9219237;-6.398528
IE 2162 EC;Muchgrange Farm Ltd;Muchgrange, Greenore, Dundalk, Co Louth, A91 TC52;54.0131642;-6.3513486
IE 2163 EC;"Legal name: Conor & Mark McGrane
Trading name: TA McGrane's Milk Barn";Walterstown, Garlow Cross, Navan, Co. Meath, C15 F292;53.6036299;-6.6200881
IE 2164 EC;Galvins Farms Fresh Milk Ltd;Clashavanna, Kilbrittain, Bandon, Co. Cork, P72 VW94;51.6734722;-8.6871261
IE 2165 EC;"Legal name: Nutrition Supplies & Services Ltd
Trading name: Nutrition Supplies";Killountain, Innishannon, Co Cork, T12 F248;51.7654182;-8.6578489
IE 2166 EC;"Legal name: Shannon Porter
Trading name: The Milk Bar";Lusticle, Carrigans, Lifford, Co Donegal, F93 ED34;54.8326995;-7.4834739
IE 2167 EC;Saltrock Dairy Ltd;Kildermot, Gorey, Co Wexford, Y25 RC62;52.67672795;-6.295118780021573
IE 2169 EC;"Legal name: Peter Pavlov
Trading name: Our Creamery";Barba Villa Demesne, Collinstown, Co. Westmeath;53.6471001;-7.2120269
IE 2172 EC;Feckin Clogher Milk Ltd;Garrigee House, Almondstown, Clogherhead, Co Louth, A92 W7K6;53.7917202;-6.2390693
IE 2173 EC;Tim McGlynn;Oldcourt Hill Farm, Oldcourt Stables, Oldcourt Road, Tallaght, Dublin 24, D24 RD26;53.2874921;-6.3746622
IE 2175 EC;"Legal name: The Good Dairy Company Ltd
Trading name: The Good Dairy Company";Killowen, Nohoval, Kinsale , Co. Cork, P17 VY93;51.705737;-8.5229823
IE 2177 EC;Delasheen Farms Ltd;Ballin Farm, Delvin, Co. Westmeath, N91 N9WC;53.5577902;-7.3478558260097575
IE 2178 EC;"Legal name: VOA Foods Ltd
Trading name: Do Me a Flavour";Monksland, Athlone, Co. Roscommon, N37 R628;53.4261885;-7.9698434
IE 2180 EC;"Legal name: Suraj Gupta
Trading name: Gupta's Sweets & Snacks";Unit 1, Bunnagee Business Park, Bunnagee, Letterkenny, Co. Donegal, F92 T92W;54.92075415;-7.952385214651309
IE 2181 EC;"Legal name: Yvonne and Alan Fitzachary
Trading name: T/A Bainne Bó";Hillcrest, St. Margaret's, Swords, Co. Dublin, K67 HN70;53.4594799;-6.219175
IE 2182 EC;Bracklone Dairies Ltd;Lea, Portarlington, Co. Laois, R32 E0C2;53.1526135;-7.1715077
IE 2183 EC;Leitrim Hill Creamery;Drumcong, Carrick-on-Shannon, Co. Leitrim, N41 EH79;53.9441461;-8.0952772
IE 2184 EC;"Legal name: Pure Pastures Dairy Ltd
Trading name: T/A Bainne Bó";Moughna, Miltown Malbay, Co. Clare, V95 KT27;52.8556213;-9.4005986
IE 2185 EC;SJ Cheese Limited;The Hill, Ballyhahill, Co Limerick, V94 VE26;52.5597181;-9.1900744
IE 2186 EC;"Legal name: Killadoon Farm Ltd
Trading name: Killadoon Milk";Killadoon, Celbridge, Co Kildare, W23 XD1H;53.15436455;-6.8184175660976445
IE 2187 EC;The Blues Creamery Ltd;Newtown, Aherlow, Co Tipperary, E34 EH39;52.4106931;-8.2315574
IE 2188 EC;"Legal name: Clonbonny Dairies Ltd
Trading name: Bonny Bó";Clonbonny Athlone, Co Westmeath, N37 VOV2;53.5577902;-7.3478558260097575
IE 2189 EC;"Legal name: Joe Morrissey Ltd
Trading name: Rostellan Dairy";Knockanemorney Farm, Rostellan, Midleton, Co Cork, P25 Y314;51.9142741;-8.1700962
IE 2190 EC;"Legal name: Four Acre Family Farm Foods Ltd
Trading name: Four Acre Foods";Unit 1, Oaktree Business Centre_x000D_, Oaktree Business Park_x000D_, Trim_x000D_, Co Meath_x000D_, C15 DT67_x000D_;52.865196;-7.9794599
IE 2191 EC;"Legal name: Siobhan Ring
Trading name: Dottie and Dora";Barrachaurin, Donoughmore, Co Cork, P32 VX31;51.9890689;-8.7452997
IE 2192 EC;Andrew and Aodhagon Smith;Farnadolly , Crossdoney, Co. Cavan, H12 KD71;53.9541528;-7.4353377
IE 2193 EC;Graze Dairies Ltd;Chestnut Lane , Downings, Prosperous, Co. Kildare, W91 K8F8;53.28844365;-6.752571795386545
IE 2194 EC;Conor Phelan_x000D_;The Forest_x000D_, Hollywood_x000D_, Co Wicklow_x000D_, W91 W2Y6;52.865196;-7.9794599
IE 2195 EC;"Legal name: Carmel & John Kiely
Trading name: Ballyconnery Bó";Currabaha_x000D_, Colligan_x000D_, Dungarvan_x000D_, Co Waterford_x000D_, X35 XH63;52.865196;-7.9794599
IE 2196 EC;Michael McGrath & Sinéad Moran;Gleann Buí Farm, Aghamore , Ballyhaunis, Co Mayo, F35 E922;53.7633588;-8.7651532
IE 2197 EC;Kilkenny Cheese Ltd;Belview, Slieverue, Co Kilkenny, X91 Y1XA;52.5687098;-7.188983092181514
IE 2198 EC;Hak Dairy Farms Ltd;Ballymacowen, Clonakilty, Co Cork, P85 KP64;51.64167505;-8.857588582720204
IE 2199 EC;Cuan Mhuire CLG;Cuan Mhuire, Bruree, Co Limerick, V35 CP57;52.4243387;-8.6605818
IE 2200 EC;Roj Dairy Ltd;Stackallen, Slane, Co Meath, C15 XF25;53.7001754;-6.5925638
"IE 2201 EC
";Hannah Quinn Mulligan;Tory Hill House , Kilmallock, Croom , Co. Limerick , V35 WF43;52.5192086;-8.7171793
"IE 2202 EC
";Dublin Farm Dairies Ltd;Kilreesk, St. Margarets , Co. Dublin , K67 T6Y2;53.4047563;-6.274195259528714
IE 2203 EC;Probox Ltd;Glenmore House, Nevinstown, Swords, Co Dublin, K67 C6Y5;53.4445426;-6.2225026
IE 5006 EC;Dairygold Food Ingredients Ltd;Rathduff, Co. Cork;52.0158852;-8.5863736
IE 5024 EC;"Legal name: HWT Ltd
Trading name: Orchard Warehousing & Cold Storage";Cobhcross, Carrigtwohill, Co. Cork;51.9094617;-8.2611809
IE 0016 EC;Colso Enterprises Ltd;Lehenaghmore, Togher, Cork;51.8767758;-8.4939627
IE 1701 EC;Abbott Ireland;Dromore West, Cootehill, Co Cavan, H16 RK50;54.0725259;-7.0822524
IE 1702 EC;"Legal name: Nutricia Infant Nutrition Ltd
Trading name: Danone Early Life Nutrition";Castleview, Macroom, Co Cork P12 XW40;51.9049705;-8.9599195
IE 1703 EC;Wyeth Nutritionals Ireland Ltd;Askeaton, Co Limerick, V94 E7P9;52.599722;-8.975556
IE 1704 EC;Nutricia Infant Nutrition Irl Ltd;Rocklands, Wexford;52.32618775;-6.453533846521706
IE 1705 EC;"Legal name: Glenstal Foods Ltd
Trading name: Abington Foods";Abington Rectory, Murroe, Co Limerick, V94 VOR1;52.6494667;-8.3995896
IE 1707 EC;Ornua Co-operative Ltd;Grattan House, Mount Street Lower, Dublin 2;53.3394121;-6.2458251
IE 1708 EC;"Legal name: Hassett Dairy Ingredients Ltd
Trading name: HDI Ltd";Ballyshannon IT Centre, Portnason, Ballyshannon, Co. Donegal, F94 CDW7;54.501979;-8.1897659
IE 1709 EC;Dawn International Ltd;Confederation House, Waterford Business Park, Cork Road, Waterford, X91 E9TV;52.1509131;-7.657798180652727
IE 1710 EC;Glanbia Nutritionals Ltd;Glanbia House, Ring Road, Kilkenny, Co Kilkenny;52.637386649999996;-7.235568682775854
IE 1712 EC;Emeri Nutrition Co. Limited;IDA Business Park, Johnstown, Navan, Co. Meath, C15K7GN;53.6497514;-6.5885310235914645
IE 1713 EC;"Legal name: Probo Food limited, T/A Probo Food Limited
Trading name: T/A Probo Food Limited";Mocklershill, Cashel, Co. Tipperary, E25 Y440;52.5167478;-7.8879311
IE 1714 EC;Newbaze Ireland Nutrition Food Co Ltd;Carrickmacross Industrial Estate, Carrickmacross, Co Monaghan;53.9770462;-6.7193763
IE 1715 EC;Ice Cream Treats Ltd;Killashandra Enterprise Centre, Portaliff, Killashandra, Co Cavan;54.0146118;-7.5286568
IE 1716 EC;Ingredients Today Ltd;3 Eldred Terrace, Douglas Road, Cork, T12 W5Y2;51.917535900000004;-8.58597726870895
IE 1717 EC;Bioshell Teoranta;Carrowteige, Ballina, Co Mayo, F26 NW08;54.1143359;-9.1532099
IE 1718 EC;Future Nutrition Ltd;Railway Stores, Templeshannon, Enniscorthy, Co Wexford, Y21 T889;52.5030013;-6.5653939
IE 1719 EC;"Legal name: Fusco Foods Ltd
Trading name: T/A Fusco Connell";Kilcoole Industrial Estate, Unit 2 Creowen Road, Creowen, Kilcoole, Co Wicklow, A63 YT18;53.1001296;-6.0699047
IE 1720 EC;Lily's Limited;Green Road, Newbridge, Co Kildare, W12 D424;53.1570478;-6.8145637
IE 1722 EC;Fusco Foods Ltd;56, Spruce Avenue, Stillorgan Park Industrial Estate, Blackrock, Dublin A94 EY65;53.272546399999996;-6.146496872212859
IE 1723 EC;Camida Ltd;New Quay, Clonmel, Co. Tipperary, E91 YV66;52.3521011;-7.6995262
IE 1724 EC;Cybercolours Ltd;National Food Innovation Hub, Moorepark, Fermoy, Co. Cork, P61 K202;52.1621259;-8.2664646
IE 1725 EC;Tirlán Limited;Abbey Quarter , Kilkenny , R95 DXR1;52.65510765;-7.253530183583287
IE 1921 EC;"Legal name: Joanna McCarthy
Trading name: McCarthys Ice Cream";3 Main St., Ballybunion, Co. Kerry;52.5114369;-9.6740465
IE 4084 EC;Nulty Family Foods Limited;Assan , New Inn, Ballyjamesduff, Cavan;53.8681026;-7.2056489
IE 4074 EC;St Davnets Hospital Centralised Kitchen;HSE, Rooskey, Monaghan, Monaghan;54.161066399999996;-6.946364847585796
IE 4025 EC;Stillorgan Trading Post Limited;Swift Fine Foods, Lough Egish Food Park, Loughmourne, Castleblayney, Monaghan;54.1201142;-6.7389328
IE 4038 EC;EFG In-Flight Limited;Knockbeg Point, Shannon Airport, Shannon, Clare;52.6986845;-8.921554762550244
IE 4112 EC;KP Gallen Foods Limited;Unit 2 & 3 Thorn Road, Letterkenny, Donegal;54.9503237;-7.6671496
IE 4106 EC;Byron Catering Services;St Raphaela's Primary School, Kilmacud Road Upper, Stillorgan, Dublin;53.2888707;-6.2074625
IE 4068 EC;George's Fish Kitchen Ltd T/A George's Kitchen;Units 1 and 2 Monkstown Court, Monkstown Farm, Dun Laoghaire, Dublin;53.2863765;-6.1558729
IE 4067 EC;Itsa Bagel Limited T/A Itsa;56A Blackthorn Road, Sandyford Industrial Estate, Dublin 18, Dublin;53.274197;-6.2136733
IE 4096 EC;Lotts & Co;47A Marlborough Road, Donnybrook, Dublin 4, Dublin;53.3200122;-6.2333303
IE 4043 EC;Outlaws Western Restaurant Limited T/A Soup Cafe;Units 3 & 4, 78 Furze Road, Sandyford Industrial Estate, Dublin;53.40651475;-6.286667702716778
IE 4008 EC;Ballymaguire Foods Limited;Rathmooney, Lusk, Dublin, Dublin;53.5255827;-6.1658125
IE 4057 EC;Boojum Ltd;Unit 26B North City Business Park, North Road, Finglas, Dublin 11, Dublin;53.3901029;-6.2994409
IE 4075 EC;Dnata Catering Ireland Limited;Units 5 and 6 Dublin Airport Logistics Park , St Margarets Road, Finglas, Dublin;53.389167;-6.296944
IE 4107 EC;Market Street Food Halls Limited;Unit 7G Swords Business Park, Swords , K67X042, Dublin;53.4594799;-6.219175
IE 4085 EC;CPK Compass Group;Unit A8 Kingswood, Kingswood Business Park, Baldonnell, Dublin;53.307662949999994;-6.4308798551711295
IE 4035 EC;Morehampton Foods Limited;Unit E20 Cloverhill Industrial Estate, Clondalkin, Dublin;53.3185511;-6.401595119672928
IE 4087 EC;Parkwest Kitchen;A3 Canal Bank, Hume Avenue,  Parkwest Industrial Estate, Dublin 12, Dublin;53.40651475;-6.286667702716778
IE 4111 EC;Pieman;Ace Enterprise Park, Unit 22 Bawnogue Road, Clondalkin, D22TX92, Dublin 22, Dublin;53.3331089;-6.395898
IE 4094 EC;Boxty House Limited;Unit 3, Hibernian Industrial Estate , Greenhills Road, Dublin 12, Dublin;53.3047755;-6.3498631
IE 4030 EC;Brambles Café Deli Ltd.;Unit 4C, South City Business Park, Tallaght, Dublin;53.2802877;-6.3767161
IE 4053 EC;Emaan Meal Solutions Irl Limited;Unit 1 -3, Cookstown Industrial Estate, Tallaght, Dublin 24, Dublin;53.2874921;-6.3746622
IE 4036 EC;Nosebag Fine Foods Limited;Unit 23, Oak Road Business Park, Oak Road, Dublin;53.3264826;-6.3721571
IE 4102 EC;Hana Group;46 Baggot Street Lower, Dublin 2, D02 RP48, Dublin;53.3367274;-6.248489950271196
IE 4049 EC;KC Peaches Ireland Limited;Unit 10 Trinity Enterprise Centre, Pearse Street, Dublin 2, Dublin;53.3425991;-6.2399713
IE 4108 EC;Oishii Foods Limited;Unit 17 Naas Road Business Park, Muirfield Drive, Naas Road, Dublin;53.3287598;-6.3347663
IE 4090 EC;Asian Artisan Food Limited ;Unit B Ground Floor, Liffey Trust Centre, 117-126 Upper Sheriff Street, Dublin;53.40651475;-6.286667702716778
IE 4097 EC;Dublin Central Kitchen;Unit D, Liffey Trust Centre, 117-126 Sheriff Street Upper, Dublin;53.40651475;-6.286667702716778
IE 4081 EC;Lola Hub Ltd;Unit F, Liffey Trust Centre, 117-126 Sheriff Street Upper, Dublin;53.40651475;-6.286667702716778
IE 4105 EC;Ripley Court Hotel;37 Talbot Street, Dublin 1, Dublin 1, Dublin;53.3531033;-6.257472416000001
IE 4055 EC;Apple Crumble & Fish Limited;Unit 14, 288 Bannow Road, Broombridge Business Centre, Dublin 7, Dublin;53.371924;-6.29928
IE 4069 EC;Camile Thai Hub;Unit 9, Northern Cross Business Park, Northern Road, Finglas, Dublin 11, Dublin;53.3901029;-6.2994409
IE 2346 EC;Fresh Cut Food Services Ltd;68 Moyle Road, Dublin Industrial Estate, Glasnevin, Dublin;53.3782873;-6.2662007
IE 4109 EC;The Tram Café Limited;Unit 131D Slaney Road, Dublin Industrial Estate, Glasnevin, Dublin;53.3782873;-6.2662007
IE 4086 EC;Cope Community Catering;Unit 5, Ballybane Industrial Estate, Tuam Road, Galway;53.283179849999996;-9.036949153004272
IE 4061 EC;Curleys Quality Foods;Carrowbrowne, Castlegar, Galway;53.300019649999996;-9.024590693469897
IE 4041 EC;Galmere Fresh Foods Ltd.;Ballybrit Upper Industrial Estate, Monivea Road, Galway;53.288396;-9.00239571779899
IE 4062 EC;Gourmet Sandwiches Ltd.;Derrybrien, Loughrea, Galway;53.08749335;-8.604364293996529
IE 4051 EC;Gourmet Tart Company Ltd;Unit 1 Block 13, Ballybane Industrial Estate, Tuam Road, Galway;53.283179849999996;-9.036949153004272
IE 4009 EC;M.P.G Foods Ltd;Cregboy, Cregboy, Claregalway, Galway;53.3290064;-8.9602425
IE 4079 EC;Tribe Hospitality Group Limited;Tribe Hospitality Group Limited, Unit 13 Ballybrit Industrial Estate, Old Monivea Road, Galway;53.1908135;-9.3270496
IE 4100 EC;Ard Beginish Production Kitchen;Renard, Cahirciveen, Kerry;51.9675931;-10.17287230302578
IE 4098 EC;Con's Restaurant;Direencallaugh, Dauros, Kenmare, Kerry;51.882545199999996;-9.586105058032954
IE 4101 EC;Garveys Gourmet Kitchen;Unit 5 Monavalley Industrial Estate, Tralee, Kerry;52.2692116;-9.7057047
IE 4042 EC;Gortamullen Bakery Ltd.;Unit 3, Gortamullen Business Park, Mart Road, Kenmare, Kerry;51.882545199999996;-9.586105058032954
IE 4103 EC;Kerry Food Market Limited;Unit 9, Kerry Food Hub, Firies, Kerry;52.1705363;-9.5979293
IE 4066 EC;Nutriquick Limited;Unit 4 Blessington Industrial Estate, Blessington, Wicklow;53.1726046;-6.5330892
IE 4099 EC; Cappercullen Foods Ltd;Unit 1 Limerick Food Centre, Pearse Road, Raheen Business Park, Raheen, Limerick;52.6281962;-8.6621185
IE 4077 EC;The Tin Hat Unlimited T/A Hook and Ladder;Unit One, Pearse House, Pearse Road, Raheen , Limerick, Limerick;52.630218;-8.661614
IE 4082 EC;HSE Louth Meath Mental Health Services;St. Brigid's Hospital, Kells Road, Ardee, Louth;53.859722;-6.540556
IE 2560 EC;Michael Carr Foods;Unit 6A, Moy Valley Business Park, Primrose Hill, Ballina, Mayo;54.1143359;-9.1532099
IE 4048 EC;Kinsale Bay Food Company Ltd;CHR Hansen Building, Rohan Industrial Estate, Little Island, Cork;51.9035274;-8.3541241
IE 4070 EC;Compass Catering Services Ireland Ltd;Rearcross Cookhouse, North Tipperary Food Works, Rearcross, Tipperary;52.6863245;-8.2381972
IE 4080 EC;Devaney's Dinners;Drom, Templemore, Tipperary;52.794722;-7.833889
IE 4095 EC;Food Prep Ltd;Unit 9, Doughcloyne Industrial Estate, Sarsfield Road, Wilton, Cork;51.8784306;-8.5059065
IE 2955 EC;Frankfield Supermarkets Ltd, T/A Ryan's Supervalu;Grange Road, Frankfield, Douglas, Cork;51.8670312;-8.4633859
IE 4045 EC;Green Saffron Spices Limited;Unit 5, Carrigaline Industrial Park, Crosshaven, Carrigaline, Cork;51.8149131;-8.390967245472705
IE 4083 EC;Kerry Food Ingredients (Cork) Ltd.;Kilnagleary, Carrigaline, Cork;51.8137464;-8.3887785
IE 4104 EC;Sage 2 Go Ltd ;Production Kitchen, Unit B Dosco Industrial Estate , South Douglas Road, Cork;51.917535900000004;-8.58597726870895
IE 4110 EC; St. Lukes Main Kitchen;Western Road, Clonmel, Tipperary;52.353278;-7.718273
IE 4044 EC;Gate Gourmet Ireland;South Apron, Dublin Airport, Dublin;53.42225085;-6.23769748870321
IE 4093 EC;Pettits Kitchen;Sleedagh Farm , Sleedagh , Murrintown, Wexford;52.2871894;-6.521939
IE 4013 EC;Zanna Cookhouse Limited;St Iberius, Broadway, Wexford, Wexford;52.21680775;-6.382214707055024
IE 4092 EC;Zanna Cookhouse Limited (Clonard);Whitemill Industrial estate, Clonard, Wexford, Wexford;52.3302833;-6.4887341
IE 4019 EC;Avoca Handweavers Limited;Central Production Unit, IDA Business Park, Southern Cross Road, Bray, Wicklow;53.1817184;-6.1320963
IE 4004 EC;Butler's Pantry;16-17 Southern Cross Business Park, Boghall Road, Bray, Wicklow;53.1884993;-6.1063211
IE 4088 EC;Gather and Gather Ltd.;Unit 3, Atlas Court , IDA Business Park, Southern Cross Road, Bray, Wicklow;53.1817184;-6.1320963
IE 4071 EC;Italicatessen Ltd;Block F Newtown Business & Enterprise Centre, Newtownmountkennedy, Wicklow, Wicklow;53.0895152;-6.1110122
IE 4072 EC;Le Paysan of Wicklow Limited;Unit W11 Wicklow Enterprise Park, The Murrough, Wicklow Town, Wicklow;52.95814675;-6.381970708677661
IE 4018 EC;Little Dinners Ltd;Enterprise Unit 2, Rathdrum, Wicklow;52.9316289;-6.2313761
IE SL 0004 EC;Glenn Hunter/ Sligo Bay Oysters;Carrickhenry, Carraroe, Sligo;54.249749300000005;-8.475686527194735
IE CE 0004 EC;Burren Smokehouse Ltd;Lisdoonvarna, Clare;53.0294117;-9.2895114
IE CE 0009 EC;Garrihy Seafoods Ltd;Doolin, Clare;53.0163287;-9.3776097
IE CE 0011 EC;CS Fish;Doonbeg, Clare;52.7309073;-9.5297119
IE CE 0012 EC;Burren Seafoods;New Quay, Burren, Clare;53.1552627;-9.083367770732007
IE CE 0014 EC;Tavne Ltd T/A Achill Oysters;Riverside, Faunrusk, Barefield, Co. Clare, Clare;52.88780775;-8.947584907183067
IE CE 0015 EC;Moyasta Oysters;Moyasta, Kilrush, Clare;52.6397222;-9.4833283
IE CE 0006 EC;Gracom Ltd;Linnanaes Lobster Bar, New Quay, Co. Clare, Clare;53.154722;-9.079722
IE CK 0008 EC;Eiranova Fisheries,;Dinish Island, Castletownbere, Cork;51.6514159;-9.9104925
IE CK 0009 EC;Castletownbere Fishermans Co-Op;Dinish Island, Castletownbere, Cork;51.6514159;-9.9104925
IE CK 0012 EC;Hederman Smoked Salmon ( Belvelly Smoke House);Belvelly, Cobh, Cork;51.888141450000006;-8.30249925
IE CK 0013 EC;Yawl Bay Seafoods;Foxhole Industrial Estate, Youghal, Cork;51.9494736;-7.8431892
IE CK 0018 EC;Haven Shellfish Ltd;Ballinaclashet, Oysterhaven, Cork;51.70677;-8.4564281
IE CK 0019 EC;Glenmar Shellfish Ltd;Main Street, Union Hall, Cork;51.5582664;-9.1408332
IE CK 0024 EC;Ilen Seafood's Ltd;Baltimore, Cork;51.4833209;-9.3732052
IE CK 0026 EC;Ballycotton Seafoods Ltd;Garryvoe, Cork;51.880249899999995;-7.99080117768681
IE CK 0029 EC;Normandy Ireland;The Pier, Schull, Cork;51.5271026;-9.5469428
IE CK 0031 EC;Union Hall Smoked Fish Ltd.;Union Hall, Cork;51.5588077;-9.1399099
IE CK 0042 EC;Shellfish De La Mer T/A Shellfish Ireland;Dinish Island, Castletownbere, Cork;51.6514159;-9.9104925
IE CK 0050 EC;Glenmar Shellfish Ltd;Curraglass, Conna, Cork;52.0925044;-8.1099774
IE CK 0053 EC;Good Fish Processing Ltd;Carrigaline Industrial Park, Crosshaven Road, Carrigaline, Cork;51.8055088;-8.3400848
IE CK 0069 EC;Moonfish;Moorepark West House, Moorepark, Fermoy, Cork;52.1621259;-8.2664646
IE CK 0072 EC;Ocean run;Aughadown, Church Cross, Skibbereen, Cork;51.55;-9.2666753
IE CK 0078 EC;Seafood Cuisine Ltd;Fastnet Industrial Estate, Marsh Road, Skibbereen, Cork;51.55;-9.2666753
IE CK 0086 EC;Keohane Seafoods;Unit 28 Kinsale Road Industrial Estate, Kinsale Road, Cork;51.874385450000005;-8.47167141113622
IE CK 0089 EC;Kay O'Connells;Unit 4, Cloch Mac Simon Industrial Estate, Bandon, Cork;51.7461712;-8.7369303
IE CK 0103 EC;Keohane Seafood;Gortlassa, Gerahies, Bantry, Cork;51.6797696;-9.4523603
IE CK 0104 EC;Good Fish Processing Ltd;Unit 5 Carrigaline Industrail Park, Carrigaline, Cork;51.8149556;-8.3922675
IE CK 0115 EC;Fish Seafood Deli Ltd;5 Carbery Enterprise Park, Skibbereen, Cork;51.55;-9.2666753
IE CK 0117 EC;Bantry Bay Mussels T/A Bantry Bay Premium Seafoods;Gearhies, Bantry, Cork;51.6797696;-9.4523603
IE CK 0120 EC;Travara Shellfish Ltd;Baltimore Road, Skibbereen, Cork;51.5448831;-9.265802
IE CK 0122 EC;ZT Fish Company;Ryan, Waters Edge, Ownahincha, Rosscarbery, Cork;51.5722963;-9.0056665
IE CK 0127 EC;Paulona Seafood Ltd;Ballyrussell, Midleton, Cork;51.9142741;-8.1700962
IE CK 0129 EC;Atlantic Shellfish Limited;Rossmore, Carrigtwohill, Cork;51.9094617;-8.2611809
IE DL 0006 EC;Albatross Seafoods Ltd;Carricknamohill, Killybegs, Donegal;54.6362345;-8.4442592
IE DL 0007 EC;Island Seafoods Ltd;Carricknamohill, Killybegs, Donegal;54.6362345;-8.4442592
IE DL 0008 EC;Killybegs Seafoods ULC;Conlin Road, Killybegs, Donegal;54.6387295;-8.4458854
IE DL 0011 EC;Mowi Ireland;Rinmore, Ballylar, Letterkenny, Donegal;54.9517933;-7.7354381
IE DL 0012 EC;Gallagher Bros. (Fish Merchants) Ltd;Donegal Road, Killybegs, Donegal;54.6362345;-8.4442592
IE DL 0014 EC;Gallagher Bros. (Fish Merchants) Ltd;Shore Road, Killybegs, Donegal;54.6346833;-8.4449976
IE DL 0016 EC;Premier Fish Products;Kincasslagh, Dungloe, Donegal;54.9506706;-8.3597405
IE DL 0017 EC;Norfish Ltd;The Glebe, Killybegs, Donegal;54.6362345;-8.4442592
IE DL 0018 EC;Donegal Fish;Roshine Road, Killybegs, Donegal;54.6327892;-8.4488325
IE DL 0029 EC;Atlanfish Ltd;Malin Road, Cardonagh, Donegal;54.92075415;-7.952385214651309
IE DL 0030 EC;Byrne Seafoods;Beaugh, Malin Town, Donegal;54.92075415;-7.952385214651309
IE DL 0031 EC;Earagail Eisc Teoranta (Errigal Fish Co Ltd) T/A Errigal Bay, T/A Errigal Seafood;Meenaneary, Carrick, Donegal;54.6093926;-8.0999167
IE DL 0033 EC;Proiseail (An Clothan Liath) Teo;Meenmore, Dungloe, Donegal;54.9506706;-8.3597405
IE DL 0035 EC;Sean Ward (Fish Exports) T/A Ward Fish;Roshine Road, Killybegs, Donegal;54.6327892;-8.4488325
IE DL 0036 EC;Molloy's Fish (Killybegs) Ltd - Formally Fish Sales Killybegs Ltd;Stragar, Killybegs, Donegal;54.6362345;-8.4442592
IE DL 0038 EC;Foyle Fishermen's Co-Op;The Pier, Greencastle, Donegal;55.2023491;-6.9831635
IE DL 0041 EC;Arctic Fish (Processing Co) UC;Roshine Road, Killybegs, Donegal;54.6327892;-8.4488325
IE DL 0043 EC;Starcrest Seafoods Ltd;The Mullins, Old Laghey Road, Donegal Town, Donegal;54.92075415;-7.952385214651309
IE DL 0047 EC;Ward Seafoods Teo;Tullyillion, Burtonport, Donegal;54.9811945;-8.4225429
IE DL 0051 EC;Sliogeisc na Rossan;Traigheanna Bay, Drimlaughdrid, Lettermacaward, Donegal;54.848056;-8.316389
IE DL 0055 EC;North Cape Seafoods Ltd;Greencastle, Donegal;55.2036701;-6.981019
IE DL 0058 EC;Ocean Farm Ltd;Donegal Road, Killybegs, Donegal;54.6362345;-8.4442592
IE DL 0060 EC;Premier Fish Products (Killybegs);Stoneyhill, Killybegs, Donegal;54.6362345;-8.4442592
IE DL 0064 EC;Mulroy Bay Mussels Ltd;Drim, Cranford, Letterkenny, Donegal;55.1417591;-7.6964137
IE DL 0065 EC;North West Shellfish Ltd;Upper Carrick, Carrigart, Letterkenny, Donegal;55.176064;-7.794800906921424
IE DL 0066 EC;Tradalai Eisc Ui Hannagain Teoranta (Burtonport);Killybegs, Donegal;54.6362345;-8.4442592
IE DL 0067 EC;Atlantic Fresh Seafoods Limited;Fanaghans, Inver, Donegal;54.6473095;-8.2842746
IE DL 0072 EC;Bell's Isle Seafoods Ltd T/A Irish Oyster Harvest;Tullyearl, Donegal Town, Donegal;54.92075415;-7.952385214651309
IE DL 0073 EC;Crocknagee Oysters;Roxtown, Clonmany, Donegal;55.263012;-7.4122336
IE DL 0075 EC;Foyle Bia Mara Ltd;Seacrest, Derry Road, Moville, Donegal;55.1888784;-7.0405236
IE DL 0076 EC;McElchar International Transport Ltd;Dromdoit, Castlefinn, Co. Donegal, Donegal;54.8033847;-7.5931697
IE DN 0004 EC;Kish Fish Ltd;3 West Pier, Howth, Dublin;53.3887989;-6.0725149
IE DN 0012 EC;Dunn's Seafare Ltd;Jamestown Business Park, Finglas, Dublin;53.3981716;-6.2990497
IE DN 0015 EC;Kish Fish Co Ltd;Malahide Road Industrial Park, Coolock, Dublin 17;53.3950652;-6.2012187
IE DN 0017 EC;East Coast Inshore Fishing Co. Ltd;Unit 28, Millenium Business Park, Cappagh Road, Dublin 11;53.3897796;-6.3114147
IE DN 0022 EC;Kitestown Ltd T/A Wrights of Howth;14 West Pier, Howth, Dublin;53.38997;-6.0722816
IE DN 0023 EC;Wrights of Marino Manufacturing Ltd;1 Claremount Industrial Estate, Howth, Dublin;53.38945405;-6.114519560232189
IE DN 0025 EC;Oceanpath Ltd;Claremont Industrial Estate, West Pier, Howth, Dublin;53.3896212;-6.0722171
IE DN 0026 EC;Rockabill Seafood Ltd;Stephenstown Industrial Estate, Balbriggan, Dublin;53.6003828;-6.193073
IE DN 0029 EC;Domton Trading Ltd T/A Nicky's Plaice Ltd;Store F, West Pier, Howth, Dublin;53.3896212;-6.0722171
IE DN 0030 EC;Beshoffs of Howth;West Pier, Howth, Dublin;53.3896212;-6.0722171
IE DN 0031 EC;Select Seafoods;1A Ekland Park, Malahide Road Industrial Park, Coolock, Co. Dublin. D17 WK 72, Dublin;53.3893213;-6.200352
IE DN 0040 EC;Glenmar Shellfish Ltd;29 Millenium Business Park, Blanchardstown, Dublin 11;53.40651475;-6.286667702716778
IE DN 0042 EC;Ocean Marine Ltd;25A Monkstown Farm, Monkstown, Dublin;53.2863765;-6.1558729
IE DN 0046 EC;Rathcreedon Ltd T/A Sushi King;Unit C, Liffey Trust Centre, 117/126 Upper Sherriff Street, Dublin 1;53.40651475;-6.286667702716778
IE DN 0065 EC;Egan's Ocean Fresh;15/16 Finglas Business Park, Tolka Valley Road, Finglas, Dublin;53.3797584;-6.2886212
IE DN 0067 EC;Kiloran Seafoods Ltd T/A Doyles Premium Seafood;Old Court Lane, Dublin 24, Dublin;53.40651475;-6.286667702716778
IE DN 0068 EC;Dorans on the Pier;7-8 West Pier, Howth, Dublin;53.3896212;-6.0722171
IE DN 0073 EC;Leo Burdock Ltd;Unit 14 Cookstown Business Centre, Second Avenue, Crookstown Industrial Estate, Tallaght, Dublin;53.2878082;-6.362355
IE DN 0075 EC;M Wright & Sons Seafood Ltd;115 Grangeway, Baldoyl Industrial Estate, Dublin 13;53.40651475;-6.286667702716778
IE DN 0077 EC;Cheflink Ltd;Unit 30, Millenium Business Park, Cappagh Rd., Blanchardstown., Dublin 11;53.40651475;-6.286667702716778
IE DN 0080 EC;Wrights of Marino;37-4-B, Claremont Industrial Estate, West Pier, Howth, Dublin, D13AY28, Dublin;53.3896212;-6.0722171
IE DN 0082 EC;George's Kitchen;Units 1 & 2 Monkstown Court, Monkstown Farm, Dun Laoghaire, Dublin;53.2863765;-6.1558729
IE DN 0083 EC;Osheamar Ltd;Unit 28 Millenium Busiess Park, Blanchardstown, D11 TP95, Dublin;53.40437645;-6.342123942596606
IE GY 0004 EC;Connemara Smokehouse;Bunowen Pier, Aillebrack, Ballyconneely, Galway;53.4058049;-10.1159118
IE GY 0010 EC;Kilkerrin Salmon;Cill Chiarain, Connemara, Galway;53.53094135;-9.881188955796274
IE GY 0015 EC;Galway Bay Seafoods;New Docks, Galway City, Galway;53.1908135;-9.3270496
IE GY 0017 EC;Comharchumann Iascairi Gaillimh agus Arainn (Auction Hall);The Pier, Ros a Mhil, Galway;53.1908135;-9.3270496
IE GY 0018 EC;Breizon Teo;Ros a Mhíl, Galway;53.1908135;-9.3270496
IE GY 0019 EC;Iasc Mara Teo;Ros a Mhíl, Galway;53.1908135;-9.3270496
IE GY 0024 EC;Irish Seaspray Ltd;Tir An Fhia, Leitir Moir, Galway;53.289297;-9.6556407
IE GY 0030 EC;Fleming's Seafood;Old Coast Guard Station, Ros a Mhíl, Galway;53.1908135;-9.3270496
IE GY 0035 EC;Cleggan Seafoods;Dock Road, Cleggan, Galway;53.5564592;-10.11069
IE GY 0036 EC;Atlantic Marine Seafoods;Cleggan, Galway;53.5564592;-10.11069
IE GY 0068 EC;Michael Kelly Shellfish Ltd;Aisling, Tyrone, Kilcolgan, Galway;53.2079031;-8.8672488
IE GY 0069 EC;Gannet Fishmongers;Unit 5-6, Royal Rock, Ballybane, Galway, H91 YK82, Galway;53.2908402;-9.015527
IE GY 0073 EC;Galway Seafresh;Galway Road, Tuam, Galway;53.5147915;-8.8512875
IE GY 0076 EC;Abalone Chonamara Teo;Ros a Mhil, Galway;53.1908135;-9.3270496
IE GY 0078 EC;Killary Fjord Shellfish Ltd;Bunowen, Leenane, Galway;53.5958058;-9.6942245
IE GY 0082 EC;Four Leaf Clover;67 Henry Street, Galway;53.1908135;-9.3270496
IE GY 0089 EC;Chef's Choice Fish Company TA Marys Fish Galway;Unit 11A, Ballybrit Industrial Estate, Galway;53.2894517;-9.0033001
IE GY 0091 EC;Huitre Du Connemara Ltd T/A DK Connemara Oysters;Ballinakill Bay, Dawros, Letterfrank, Galway;53.1908135;-9.3270496
IE GY 0093 EC;Gary Creaven Fish Sales;Menlo, Galway;53.3023542;-9.0735612
IE GY 0094 EC;Oliver Seoighe;An Fhormna, Inish Oirr, Aran Islands, Galway;53.120419850000005;-9.705683174303244
IE GY 0096 EC;Dooncastle Oysters;Doon, Claddaghduff, Galway;53.544444;-10.141667
IE GY 0099 EC;Iasc Inis Mor T/A Aran Islands Seafood Ltd;Killeany, Kilronan, Aran Islands, Galway;53.120419850000005;-9.705683174303244
IE GY 0100 EC;Claddagh Oysters;18 Clifden Glen, Clifden, Galway;53.4875287;-9.98619
IE GY 0101 EC;Comharchumann Sliogeisc Chonamara Teo T/A Bia Mara;Ruisin na Mainich, Carna, Co. Gallimh H91 Y295, Galway;53.1908135;-9.3270496
IE GY 0102 EC;Connemara Fisheries;Pairc Ghno Chorr na Mona, Galway;53.1908135;-9.3270496
IE KY 0002 EC;Iasc Uí Mathuna;Ballyhea, An Daingean, Kerry;52.1407781;-10.2687161
IE KY 0004 EC;Glenbeigh Shellfish Limited;Keelnabrack Lower, Glenbeigh, Kerry;52.0560543;-9.9394238
IE KY 0006 EC;Star Seafoods Ltd;Dauros, Kenmare, Kerry;51.882545199999996;-9.586105058032954
IE KY 0008 EC;De Brun Iasc Teo;Baile na Buaile, An Daingean, Kerry;52.1407781;-10.2687161
IE KY 0012 EC;Spillane Seafoods Ltd;Lackabane, Killarney, Kerry;52.0717436;-9.5623136
IE KY 0017 EC;Kerry Fish (Irl) Ltd;Renard Point, Caherciveen, Kerry;52.14533445;-9.517401092833236
IE KY 0018 EC;O'Cathain Iasc Teo;The Quay, An Daingean, Kerry;52.1407781;-10.2687161
IE KY 0024 EC;Daly's Seafoods Limited;Kimego, Caherciveen, Kerry;52.14533445;-9.517401092833236
IE KY 0028 EC;Kenmare Bay Seafoods;Tuosist, Kenmare, Kerry;51.8043717;-9.7557158
IE KY 0035 EC;Gulfstream Fish Products Ltd;Gortamullen Business Park, Kenmare, Kerry;51.882545199999996;-9.586105058032954
IE KY 0036 EC;Realt na Mara Shellfish Ltd;Cromane Lower, Killorglin, Kerry;52.1061973;-9.7867881
IE KY 0037 EC;KRD Fishery Smokehouse;The Fishery, Killorglin, Kerry;52.1061973;-9.7867881
IE KY 0040 EC;Sheehy's Fish Ltd;Lispole, Dingle, Kerry;52.1407781;-10.2687161
IE KY 0038 EC;Ardcost Oysters Ltd;Ardcost, Portmagee, Co. Kerry. V23 YD92, Kerry;51.8857163;-10.3660444
IE KK 0001 EC;Goatsbridge Fish Processors Ltd;Jerpoint, Thomastown, Kilkenny;52.5294402;-7.1394934
IE KK 0003 EC;Fishman's Market;Unit 16B, 16 Hebron Business Park, Kilkenny;52.5687098;-7.188983092181514
IE LK 0004 EC;Scibeen Foods Ltd;Abington, Murroe, Limerick;52.6494667;-8.3995896
IE LO 0001 EC;Dundalk Bay Seafoods;Drogheda Road, Clogherhead, Louth;53.7917202;-6.2390693
IE LO 0002 EC;Seafood Processors Limited T/A Morgans Fine Fish;Ardaghy, Omeath, Louth;54.086944;-6.261667
IE LO 0005 EC;Coastguard Seafoods Ltd;Harbour Road, Annagassan, Louth;53.8825341;-6.3432698
IE LO 0006 EC;Kirwan Fish Merchants;Strand Street, Clogherhead, Louth;53.7902306;-6.2358455
IE LO 0009 EC;Clogherhead Fishermans Co-op;Port Oriel, Clogherhead, Louth;53.798615100000006;-6.221559336414849
IE LO 0011 EC;Dunany Crab;Port Oriel, Clogherhead, Louth;53.798615100000006;-6.221559336414849
IE LO 0012 EC;Cooley Oysters Ltd;Muchgrange, Greenore, Louth;54.0326495;-6.1334035
IE LO 0014 EC;Carlingford Oyster Company Ltd;Mullatee, Carlingford, Louth;54.0410801;-6.1865063
IE LO 0040 EC;Dunnes Fish;Unit 2 Port Oriel, Clogherhead, Louth;53.7917202;-6.2390693
IE LO 0041 EC;Long and Bright Seafood Ltd;34/1 Quay St, Dundalk, Louth;54.0071458;-6.3841434
IE LO 0044 EC;Ocean Dragon Ltd;Port Oriel, Clogherhead, Louth;53.798615100000006;-6.221559336414849
IE LO 0047 EC;James Kirwan & Sons Ltd T/A Eastcoast Seafood ;Old Redsail Factory, Port Oriel, Clogherhead, Louth;53.798615100000006;-6.221559336414849
IE LO 0052 EC;DC Lambay Ltd;Summer Hill, Louth Village, Dundalk, Louth;54.0046033;-6.4008879
IE MO 0004 EC;Connemara Seafoods Frozen ULC;Kilmeena, Westport, Mayo;53.8000645;-9.520218
IE MO 0009 EC;Clarke Fish Exports Ltd;O'Rahilly & Connolly Streets, Ballina, Mayo;54.1127004;-9.1560847
IE MO 0011 EC;Keem Bay Seafood's Ltd;Pollagh, Keel, Achill Island, Mayo;53.9521577;-10.009389358743926
IE MO 0022 EC;Carr & Sons Seafoods Ltd;The Pier, Killala, Mayo;54.209310650000006;-9.229289594651897
IE MO 0026 EC;Ireland West Seafare;The Pier, Killala, Ballina, Mayo;54.1264257;-9.1618496
IE MO 0028 EC;Joe Garvin Fish Sales;3 Nephin View, Ardagh, Ballina, Mayo;54.1143359;-9.1532099
IE MO 0029 EC;Padraic Gannon T/A Croagh Patrick Seafoods;Roslaher, Newport, Mayo;53.8848021;-9.5466736
IE MO 0053 EC;Tony McGrath Fish;Ballyglass, Belmullet/td>, Mayo;53.9087056;-9.298304863654256
IE MO 0036 EC;Dooriel Fisheries Ltd;Dooriel, Ballycroy, Westport, Mayo;53.8000645;-9.520218
IE MO 0037 EC;West Coast Crab Sales Ltd;Ballyglass, Belmullet, Mayo;54.2258552;-9.992281125968109
IE MO 0038 EC;Connemara Seafoods ULC;Kilmeena, Westport, Mayo;53.8000645;-9.520218
IE MO 0039 EC;Roscahil Seafoods;Kilmeena, Wesport, Mayo;53.9087056;-9.298304863654256
IE MH 0001 EC;Nicholas Lynch Ltd;13 Ashbourne Manufacturing Park, Ashbourne, Meath;53.5116146;-6.3981743
IE MN 0004 EC;Bio - Marine Ingredients Ireland Ltd;Unit 9, Lough Egish, Castleblaney, Monaghan;54.113907350000005;-6.732842472960632
IE SL 0001 EC;Mullaghmore Sea Farm;Mullaghmore, Sligo;54.4663889;-8.448611
IE SL 0002 EC;Green Isle Brands Ltd;Gurteen, Sligo;53.992778;-8.510833
IE SL 0003 EC;Wild Atlantic Shellfish Ltd.;Old Farm Buildings, Lissadell, Sligo;54.19298605;-8.7305426729522
IE WF 0003 EC;Woodstown Bay Shellfish Ltd;The Harbour, Dunmore East, Waterford;52.1488395;-6.9947314
IE WF 0016 EC;Meitheal Tra Na Rinne Teo;Mota, An Rinn, Dungarbhan, Waterford;52.1509131;-7.657798180652727
IE WF 0022 EC;Billy Burke Fish and Poultry;50 Ballybricken, Waterford;52.1509131;-7.657798180652727
IE WF 0023 EC;Dungarvan Shellfish Ltd T/A Harty's Oysters;Hillcrest, Ring, Dungarvan, Waterford;52.0897488;-7.6210306
IE WF 0026 EC;Hartley's Seafood's;Annestown, Waterford;52.1406807;-7.2748236
IE WF 0028 EC;Glorious Sushi;Unit 10, Seapoint Business Park, Riverstown, Tramore, Waterford;52.1685717;-7.1432946
IE WF 0033 EC;Copper Coast Shellfish Ltd;Knockmahon, Bunmahon, Waterford;52.1436261;-7.360787326084646
IE WF 0035 EC;Dollar Bay Clams;Ballymaclode, Half- way House, Waterford;52.1509131;-7.657798180652727
IE WF 0036 EC;The Lemon Drop;1 Broad Street, Tramore, X91 XN36, Waterford;52.1613462;-7.1512763
IE WX 0003 EC;Meylers Fish Merchants;Common Quay St, The Bullring, Wexford;52.3398541;-6.4623465
IE WX 0016 EC;Atlantis Seafoods Wexford Ltd;Unit F / F1, Kerlogue Industrial Estate, Rosslare Road, Wexford;52.46018745;-6.606515459159162
IE WX 0017 EC;Saltees Fish;Kilmore Quay, Wexford;52.1729654;-6.5890655
IE WX 0023 EC;Paul King;Kilchile, Arthurstown, New Ross, Wexford;52.236696;-6.9456861
IE WX 0025 EC;Harvest Moon Fish Sales;Processing Unit, Kilmore Quay, Wexford;52.1729654;-6.5890655
IE WX 0026 EC;Kingfisher Fresh Ltd;Kerlogue Industrial Estate, Rosslare Road, Wexford;52.46018745;-6.606515459159162
IE WX 0028 EC;Tuskar Seafoods;Neamstown, Kilmore Quay, Wexford;52.1729654;-6.5890655
IE WX 0031 EC;Fish Ahoy;Arthurstown, New Ross, Wexford;52.236696;-6.9456861
IE WX 0032 EC;Rosslare Crab;5 Ard na Mara, Rosslare Harbour, Wexford;52.2502437;-6.3459703
IE WX 0033 EC;Ennis Shellfish Ltd;Rathroe, Kilbride, Duncannon, New Ross, Wexford;52.2209429;-6.936583272571242
IE WX 0035 EC;Hook Head Crab;Bealistown, Ballycullane, New Ross, Wexford;52.2833891;-6.839726
IE WX 0039 EC;Oceanus Fishing Ltd;Chelsea Lodge, Duncannon, New Ross, Wexford;52.2209429;-6.936583272571242
IE WX 0040 EC;Mac's Fish;Grange, Kilmore, Wexford;52.2056948;-6.5495662
IE WX 0012 EC;Duncannon Fish Co;New Ross, Wexford;52.3955124;-6.943796610968267
IE WX 0013 EC;Sofrimar Ltd;Kilmore Quay, Wexford;52.1729654;-6.5890655
IE WL 0005 EC;Marine Healthfoods Ltd (Fish Out of Water Ltd);Coatsbridge, Aughrim, Wicklow;52.8550688;-6.3290334
IE WL 0010 EC;IDAS Limited;Woodenbridge, Arklow, Wicklow;52.83220835;-6.235099098911024
IE CK 0074 EC;MFV Ocean Pioneer S45;Wood View, Pier Rd, Union Hall, Cork;51.5588077;-9.1399099
IE CK 0075 EC;MFV Western Venture C335;Cliff Road, Ballycotton, Cork;51.8304762;-8.0132232
IE CK 0076 EC;MFV Aine Christina S366;Raheen, Union Hall, Cork;51.5588077;-9.1399099
IE CK 0077 EC;MFV Adventurer C391;Cliff Road, Ballycotton, Cork;51.8304762;-8.0132232
IE CK 0082 EC;MFV Brian Eoin S482;East End, Union Hall, Cork;51.5588077;-9.1399099
IE CK 0093 EC;MFV Corona Gloria S512;Waters Edge, Owenahincha, Rosscarbery, Cork;51.5775144;-9.0329284
IE CK 0101 EC;MFV Ocean Venture II S121;Filane, Castletownbere, Cork;51.6514159;-9.9104925
IE CK 0102 EC;MFV Amadeus C324 T/A Guiding Star Fishing Ltd;Dinish Island, Castletownbere, P75K757, Cork;51.6514159;-9.9104925
IE CK 0105 EC;MFV Hannah J (Galley Marine Enterprises);Orchard Hill, Sandy Cove, Kinsale, Cork;51.705737;-8.5229823
IE CK 0108 EC;MFV Breizh Arvor II;86 Eltins Wood, Kinsale, Cork;51.70143575;-8.532057816143652
IE CK 0112 EC;MFV Maranello S95;Raheen, Unionhall, Cork;51.5588077;-9.1399099
IE CK 0116 EV;MFV Emerald Isle I S257;Woodview, Pier Road, Unionhall, Cork;51.5588077;-9.1399099
IE CK 0130 EC;MFV Ailbhe Rose S7;Glaun, Schull, Cork;51.5271026;-9.5469428
IE GY 0084 EC;MFV Stella Maris S22;Dinish Island, Castletownbere, Cork;51.6514159;-9.9104925
IE CK 0135 EC;MFV Naomh Peadar II T/A Rachel Jay Fishing Ltd;12 Fort View, Ardbrack, Kinsale, Cork;51.7055849;-8.5100592
IE CK 0136 EC;Clodagh O S343;Clodagh O Fishing Company Ltd, 1 Ardmanagh Drive, Schull, Co. Cork, P81DF72, Cork;51.5273016;-9.5503793
IE LO 0024 EC;MFV BLUE HORIZON DA77;Filane, Castletownbere, Beara, Cork;51.7280451;-9.767906428362338
IE CK 0134 EC;MFV Boy Jason S440;Dinish Island, Castletownbere, Cork;51.6514159;-9.9104925
IE CK 0133 EC;MFV Rachel Jay S448;12 Fort View, Ardbrack, Kinsale, Cork;51.7055849;-8.5100592
IE DN 0052 EC;MFV Nausicaa DA 63;Carnhill, Loughshinny, Skerries, Dublin;53.54004075;-6.088638626858707
IE DN 0055 EC;MFV Sancta Maria III DA40;Millennium House, Kilbush, Rush, Dublin;53.5237007;-6.0874291
IE DN 0062 EC;MFV Ave Maria II DA126;Carnhill, Loughshinny, Skerries, Dublin;53.54004075;-6.088638626858707
IE DN 0072 EC;MFV Melisandre DA143;Millennium House, Kilbush Lane, Rush, Dublin;53.5237007;-6.0874291
IE DN 0078 EC;MFV Mary Paul D723/ Ivan Wilde Ltd;Millennium House, Kilbush Lane, Rush, Dublin;53.5237007;-6.0874291
IE GY 0072 EC;MFV Maria Magdalena III G482;109 Creagan, Bearna, Galway;53.2509262;-9.1557416
IE GY 0085 EC;MFV Kristel Patrick S511;10 Mill House, Mill Street, Galway;53.272005300000004;-9.05857217571568
IE KY 0034 EC;MFV Cu na Mara S224;High Road, Garfinny, Dingle, Kerry;52.1407781;-10.2687161
IE KY 0039 EC;MFV Virtuous S80 T/A Granville Boats Ltd;Dingle, Kerry;52.1407781;-10.2687161
IE KY 0041 EC;Progress II T/A Naomh Aine Clontarf Ltd;Renard Point, Caherciveen, Kerry;52.14533445;-9.517401092833236
IE WX 0034 EC;MFV Saint Josse WD 2;Kilmore Quay, Wexford;52.1729654;-6.5890655
IE WX 0038 EC;MFV Sauveur Du Monde WD28;Kilmore Quay, Wexford;52.1729654;-6.5890655
IE WX 0041 EC;MFV Ocean Harvester II G688 T/A Inish Trwlers Ltd;Kilmore Quay, Wexford;52.1729654;-6.5890655
IE WX 0042 EC;MFV Verlaine WD5 T/A Inish Trawlers Ltd;Kilmore Quay, Wexford;52.1729654;-6.5890655
IE LO 0018 EC;MFV Rose of Sharon II S70;Harbour Road, Clogherhead, Louth;53.7918316;-6.2361534
IE LO 0019 EC;MFV Supreme II DA38;Dales, Clogherhead, Louth;53.7917202;-6.2390693
IE LO 0023 EC;MFV Fragrant Cloud DA48;Harbour Road, Clogherhead, Louth;53.7918316;-6.2361534
IE LO 0025 EC;MFV Margaret Mary DA 56;Callystown, Clogherhead, Louth;53.7902375;-6.2438825
IE LO 0049 EC;MFV Emerald Shore DA 137;Supreme Fish Company Ltd, Callystown, Clogherhead, Louth;53.7902375;-6.2438825
IE LO 0035 EC;MFV Courageous DA 18;Killybush, Clogherhead, Louth;53.7917202;-6.2390693
IE LO 0036 EC;MFV Patrick C DA 107;Almondstown, Clogherhead, Louth;53.7917202;-6.2390693
IE LO 0037 EC;MFV Audacious DA14;Killybush, Clougherhead, Louth;53.90628485;-6.532050201271116
IE LO 0042 EC;MFV Devotion DA59;Chapel Road, Clogherhead, Louth;53.7917202;-6.2390693
IE LO 0043 EC;MFV Stella Nova DA57;Callystown, Clogherhead, Louth;53.7902375;-6.2438825
IE LO 0048 EC;MFV Atlantic Rose S71;Harbour Road, Clogherhead, Louth;53.7918316;-6.2361534
IE LO 0050 EC;MFV Ambitious II DA 62;Killybush, Clogherhead, Drogheda, Co. Louth, A92 EV10, Louth;53.79830665;-6.254083317221433
IE LO 0051 EC;MFV Mellafont T/A Ard Aluinn Fishing Co;Callystown, Clogherhead, Co. Louth, A92 PE83, Louth;53.7902375;-6.2438825
IE LO 0053 EC;MFV Cisemair S430 T/A Polaris Fishing Ltd;Strand Street, Clogherhead, Co. Louth, A92 H277, Louth;53.7902306;-6.2358455
IE MH 0004 EC;MFV Foyle Fisher G497 T/A NCD Fishing Ltd;Moorechurch, Julianstown, A92 D7 YH, Meath;53.6497514;-6.5885310235914645
IE CK 0107 EC;FV Endurance DA31;Tower House, Ballylinch, Baltimore, Cork;51.4833209;-9.3732052
