code;name;address;lat;lng
LU 3 CE;ABATTOIR ETTELBRUCK;Zone Artisanale et Commerciale, 9085, ETTELBRUCK;49.8386044;6.0948125
LU 4 CE;ETABLISSEMENT NIESSEN;103, Grand-rue, 9905, TROISVIERGES;50.118750000000006;5.996006410016037
LU 5 CE;FERME PAUL STEICHEN;11, Kirchenstrooss, 5741, FILSDORF;49.5346286;6.2475073
LU 6 CE;LA PROVENCALE;Z.I. Grasbesch, 3360, LEUDELANGE;49.5660842;6.0673211
LU 7 CE;VICTUS SABOTIC;24, rue Guillaume Capus, 4071, ESCH-SUR-ALZETTE;49.508456;5.9779753
LU 9 CE;COBOLUX PRODUCTION;11, Haaptstrooss, 6869, WECKER;49.6944086;6.3842346
LU 10 CE;CATERMAN;3, rue des 3 Cantons, 8399, WINDHOF;49.6471021;5.9578187
LU 11 CE;CARNESA;route d'Arlon, 8050, TOSSENBERG;49.623407;6.0511067
LU 13 CE;KAEMPFF-KOHLER S.A.;Z.I.BOMBICHT, 6947, NIEDERANVEN;49.6512224;6.2552342
LU 14 CE;SALAISON MARCO MEYER;240, route de Luxembourg, 4940, BASCHARAGE;49.5582583;5.8863464
LU 15 CE;WIETOR-VIANDES;19a rue de Haller, 6312, BEAUFORT;49.8350416;6.2898933
LU 16 CE;ARTISAL-KERN;Zare Est, 4385, EHLERANGE;49.5217803;5.9720137
LU 17 CE;EUREST CPU LUXITE;1-5, rue de l'Innovation, 1896, ROESER;49.5564232;6.0964692
LU 19 CE;BIOGROS;13 rue Gabriel Lippmann, 5365, MUNSBACH;49.640939;6.2727892
LU 21 CE;POISSONNERIE ARTIC;28, rue Principale, 5240, SANDWEILER;49.6157645;6.221032303493776
LU 22 CE;LACTALIS;19, rue de Gonderange, 6169, ESCHWEILER;49.7171951;6.3062726
LU 23 CE;BIOGROS;13, Parc d'Activité Syrdall, 5365, MUNSBACH;49.640939;6.2727892
LU 24 CE;VINCENTE&FILS;70, rue de l'école, 8353, GARNICH;49.61520295;5.946195994039089
LU 30 CE;GOURMET TRADE S.A.;Z.I. rue de Bettembourg, 3378, LIVANGE;49.5307092;6.1206081
LU 31 CE;LA PROVENCALE;Z.I. Grasbesch, 3360, LEUDELANGE;49.5660842;6.0673211
LU 32 CE;STEFFEN SALAISONS;rue principale, 8365, HAGEN;49.6502521;5.937372
LU 33 CE;EUROFOOD;17, rue de la Ferme, 3235, BETTEMBOURG;49.5119417;6.1101705
LU 34 CE;BEXEB;13, op Zaemer, 4959, BASCHARAGE;49.5629585;5.93202155
LU 36 CE;GALBANI;Z.I. Scheleck, 3225, BETTEMBOURG;49.5173351;6.0966536
LU 37 CE;LINKGEL;23, rue de Kehlen, 8201, MAMER;49.6266028;6.0229288
LU 38 CE;LUX-FRAIS;Z.I. Zare Ouest, 4380, EHLERANGE;49.5233302;5.9645461
LU 40 CE;CROSS DOCKING;6-8 Parc des activités, 8308, CAPELLEN;49.6453476;5.9876235
LU 41 CE;PRIMAFOOD;11, Zone op Zaemer, 4959, BASCHARAGE;49.5628176;5.931534
LU 44 CE;KASS;Zone Industrielle, 8287, KEHLEN;49.6643183;6.0121137
LU 46 CE;KIRSCH LE BOUCHER;1, rue Charles Kieffer, 8389, GRASS;49.63479;5.8883263
LU 47 CE;BONDANI;6A, rue de l'industrie, 8069, BERTRANGE;49.6106714;6.0700225
LU 48 CE;SUD VIANDES S.A.R.L;30, rue Jos Kieffer, 4176, ESCH-ALZETTE;49.5100381;5.9721374
LU 49 CE;TD FOOD S.A.R.L;Z.I. RIESENHAFF, 8821, KOETSCHETTE;49.8384624;5.839242
LU 50 CE;NOVELIA;1, rue de Parc Schifflange, 3872, SCHIFFLANGE;49.5062732;6.0118175
LU 51 CE;DELI-LUNCH;Z.A. Salzbaach 1, 9559, WILTZ;49.9666914;5.9321021
LU 53 CE;ALDO BEI ET FILS;Z.I. Lëtzebuerger Heck, 3844, SCHIFFLANGE/FOETZ;49.5062732;6.0118175
LU 54 CE;RESUMA S.A;6-8, parc d'Activité, 8303, CAPELLEN;49.6453476;5.9876235
LU 55 CE;BIO-HAFF AN DUDEL;RUE DE LA CROIX, 4998, SPRINKANGE;49.5781557;5.9630924
LU 56 CE;ASA S.À.R.L;58 rue des Celtes, 1318, MERL;49.6011592;6.0909982
LU 57 CE;NUDDELFABRIK;1, rue de Noertzange, 3860, SCHIFFLANGE;49.507088;6.0183036
LU 59 CE;AROVO;Maison 65A, 9672, NIEDERWAMPACH;50.0098866;5.8408837
LU 61 CE;CFL LOGISTICS;ZI Riedgen, 3451, DUDELANGE;49.4786477;6.0847792
LU 62 CE;AUCHAN RETAIL;Eurohub Sud Lot 2, 3434, DUDELANGE;49.4786477;6.0847792
LU 66 CE;SAPORI ITALIANI;Zone Industrielle Rolach, 5280, SANDWEILER;49.6056329;6.2022959
LU 67 CE;COCOTTES SRB LUX S.A.R.L;1-3 rue Gustave Loosé, 8346, GRASS;49.6325319;5.8923863
LU 70 CE;PARVANEH;2, rue Prince Charles, 7727, COLMAR-BERG;49.8079617;6.100116512105633
LU 71 CE;EURO INDIAN MARKET;40, rue des Bruyères, 1274, HOWALD;49.5781739;6.1369479
LU 73 CE;STEFFEN PRODUCTION;13, route de Luxembourg, 8410, PETANGE;49.55651265;5.878570447172913
LU 75 CE;MANUFACTURE STEFFEN;2, Hahneboesch, 4563, NIEDERCORN;49.5455101;5.897630632311574
LU 76 CE;FOOD FOR KIDS;3, rue Jean-Pierre Thill, 9085, ETTELBRUCK;49.83873665;6.095898601763449
LU 77 CE;MEDISTAR;477, route de Thionville, 5887, ALZINGEN;49.5661161;6.162240071827418
LU 78 CE;CUISINE CENTRALE ANSAMBLE KIDS;8, Z.I Am Bruch, 3327, CRAUTHEM;49.536796;6.1456556
LU 79 CE;Frëschzenter;8, Zone Artisanale et Commerciale, 9085, ETTELBRUCK;49.83891055;6.094472354693083
LU 80 CE;LES DELICES DE ZOE;103, rue du Parc, 3542, DUDELANGE;49.486459800000006;6.090951997234891
LU 81 CE;ASA GROUP MARNACH;9, rue de Marbourg, 9764, MARNACH;50.0535944;6.0621006
LU L1 CE;EKABE;19, rue de Gonderange, 6169, ESCHWEILER;49.7171951;6.3062726
LU L2 CE;LUXLAIT;Z.I., 7759, ROOST;49.7868872;6.0960274
LU L3 CE;FROMAGERIE KASSHAFF;187A, rue de Luxembourg, 7540, ROLLINGEN/MERSCH;49.7308552;6.1258165
LU L4 CE;NOUVELLE LUXLAIT PRODUITS;44, rue de la Gare, 7535, MERSCH;49.7546075;6.11230315
LU L5 CE;LA FROMAGERIE DE LUXEMBOURG;93, rue de Bettembourg, 5811, FENTANGE;49.5637286;6.1514676
LU L6 CE;SCHMALEN RENÉ;2, rue de Consdorf, 6551, BERDORF;49.82133915;6.349032599999999
LU L7 CE;BIOG;10, Duarrefstrooss, 9755, HUPPERDANGE;50.09544015;6.057502550000002
LU L8 CE;MOLKEREI THIRY;19, rue du Stade, 4995, SCHOUWEILER;49.5794248;5.944063107809487
LU L9 CE;BALTES-ALT;Um Suewel, 9186, STEGEN;49.8247289;6.1739621
LU L10 CE;BIOG MOLKEREI;17, op Zaemer, 4959, BASCHARAGE;49.5629152;5.933911300024896
LU L12 CE;GILLEN-SCHMITZ MYRIAM;19, Duerfstroos, 9654, GRUMMELSCHEID;49.9852827;5.8723935
LU L13 CE;SCHÉIFEREI AN DOTTËSCH;9A, rue du Schlammestee, 5770, WEILER-LA-TOUR;49.5410557;6.1976689
LU L14 CE;GELATO GOURMET S.À.R.L;13-15 rue Fort Elisabeth, 1463, LUXEMBOURG;49.6046795;6.1318973
