code;name;address;lat;lng
SI 1288;A La Luigi D.O.O.;Črtomirova Ulica 11, 2000 Maribor;46.5552198;15.6355026
SI 1405;Kgz Slov. Konjice;Gabrovlje 20, 3214 Zreče;46.40476674610527;15.374549859157897
SI H-759;Intereuropa D.D.;Tržaška Cesta 43A, 2000 Maribor;46.5271982;15.652215999999965
SI 1116;Magdič Pavlič Olga;Spodnji Trg 42, 2344 Lovrenc Na Pohorju;46.5424063;15.392408
SI 1274;G2O D.O.O.;Sv. Florijan 126, 3250 Rogaška Slatina;46.2603863;15.6751346
SI 892;Globočnik Aleš;Letališka Ulica 7, 4208 Šenčur;46.2149864;14.4386741
SI M-1396;Šengar D.O.O.;Britof 27, 4000 Kranj;46.2593083;14.3864062
SI M-1321;Andrej Kokalj - Nosilec Dopolnilne;Zgornja Luša 3, 4227 Selca;46.19910609130435;14.20772995652174
SI 884;Krapec Raj Monika;Gornja Bistrica 165, 9232 Črenšovci;46.556379050000004;16.27019894160778
SI 925;Mihael Tušek - Nosilec Dopolnilne;Sv. Lenart 71, 4227 Selca;46.19910609130435;14.20772995652174
SI H-426;Mercator D.O.O.;Bohova 8, 2311 Hoče;46.510251749999995;15.655000649551848
SI 1399;Janez Novak - Nosilec Dopolnilne;Prebačevo 31, 4000 Kranj;46.2118699;14.3966396
SI 870;Viljem Kobe - Nosilec Dopolnilne;Učakovci 29, 8344 Vinica;45.4424604;15.2285743
SI 932;Univerza V Ljubljani;Groblje 3, 1230 Domžale;46.149377;14.58982427025701
SI 294;Jata Emona;Sneberska Cesta 111, 1260 Ljubljana - Polje;46.07608535;14.583155999999999
SI 1175;Repič David;Osek 76, 2235 Sv. Trojica V Slov. Goricah;46.5807506;15.9080448
SI M-1211;Nevo Pregelj - Nosilec Dopolnilne;Mohorini 2, 5292 Renče;45.8797898;13.685689019892255
SI H-1300;Transport Franc Soršak D.O.O.;Trnovec Pri Slovenski Bistrici 12, 2310 Slovenska Bistrica;46.39177719710145;15.56248448720857
SI H-1006;Deportivo D.O.O.;Trgovska Ulica 11, 2310 Slovenska Bistrica;46.38613575;15.574656020573869
SI 1303;Anja Drozg - Nosilka Dopolnilne;Pristava Pri Mestinju 44, 3253 Pristava Pri Mestinju;46.1955615;15.5958894
SI M-814;Olmis Branko Šentak S.P.;Orehovec 11, 3264 Sveti Štefan;46.179058999999995;15.527666049999999
SI H-1257;Frigotransport Pišek&Hsf D.O.O.;Lopata 53, 3000 Celje;46.2637149;15.2313055
SI 174;Mesarstvo Poznič D.O.O.;Partizanska Cesta 54, 3320 Velenje;46.3587152;15.1077016
SI H-606;Vigros D.O.O.;Puconci 10, 9201 Puconci;46.7097174;16.15020395677871
SI M-708;Demšar Judita;Cerkljanski Vrh 24, 5282 Cerkno;46.11467233719008;13.968410918698346
SI M-967;Gorički Raj;Ratkovci 20A, 9207 Prosenjakovci - Pártosfalva;46.754165549999996;16.2629888590831
SI 1394;Jože Globevnik - Nosilec Dopolnilne;Škocjan 5, 8275 Škocjan;45.9070918;15.292439349999999
SI 1346;Zvonko Babič - Nosilec Dopolnilne;Župečja Vas 44, 2324 Lovrenc Na Dravskem Polju;46.3746363;15.7730965
SI 1027;Panvita;Cesta Jaka Platiše 2, 4000 Kranj;46.236508;14.3696404
SI 1184;Mesko D.O.O.;Moste 18, 1218 Komenda;46.194660999999996;14.549647251731177
SI 1136;Stanko Simonič S.P.;Drašiči 56, 8330 Metlika;45.662957250000005;15.37315315643827
SI M-236;Silverij Fabjan - Dopolnilna Dejavnost;Bate 5, 5251 Grgar;46.0449705;13.676764
SI 963;Dušan Cvitkovič;Velika Lahinja 4, 8340 Črnomelj;45.5363357;15.205126
SI 18;Loške Mesnine D.O.O.;Studenec 3, 4220 Škofja Loka;46.1657852;14.3092809
SI 1052;Valerija Lampret S.P.;Zgornja Sveča 17B, 2289 Stoperce;46.31024135;15.71999621501665
SI 1340;Judita Klemenšek;Logarska Dolina 29, 3335 Solčava;46.4254941;14.6360394
SI 879;Gregor Franc;Petanjci 116, 9251 Tišina;46.65098675;16.0539737
SI H-1362;Hofer Trgovina D.O.O.;Ulica Ob Hrastih 10, 1291 Škofljica;45.981383;14.5734146
SI 711;Panvita;Ljutomerska Cesta 28B, 9250 Gornja Radgona;46.6713037;15.9949619
SI 910;Suzana Lah S.P.;Mladinska Ulica 19, 2314 Zgornja Polskava;46.42805735;15.609452887548013
SI 281;Mesarstvo Valenko;Dornava 32A, 2252 Dornava;46.436232;15.9514467
SI 1156;Prosub D.O.O.;Liminjan 5B, 6320 Portorož;45.5080969;13.6187886
SI M-1382;Jana Krč - Nosilka Dopolnilne;Visoko 71, 4212 Visoko;46.2690292;14.4260075
SI 1031;Beci Božidar;Razbor 44, 1434 Loka Pri Zidanem Mostu;46.05958405;15.238458121457608
SI 454;Pohorske Mesnine D.O.O.;Hotinjska Cesta 19, 2312 Orehova Vas;46.4669099;15.6700522
SI 66;Viteo;Gradišče 2, 2310 Slovenska Bistrica;46.392569249999994;15.57405495218135
SI 33;Košaki Tmi D.O.O.;Oreško Nabrežje 1, 2000 Maribor;46.5563896;15.6614562
SI 1157;Intermac D.O.O.;Mednarodni Prehod 8, 5290 Šempeter Pri Gorici;45.917545450000006;13.622022800937513
SI 1107;Silva Mrčun S.P.;Topole 10A, 1234 Mengeš;46.1777346;14.5571396
SI 32;Gozdič;Zgornja Pristava 17, 3210 Slovenske Konjice;46.34148935;15.405167810980831
SI 947;Martin Metelko S.P.;Hudo Brezje 16, 8293 Studenec;45.975701613178295;15.335268592248061
SI M-59;Kmetija Pustotnik D.O.O.;Poljanska Cesta 19, 4224 Gorenja Vas;46.107747;14.148615
SI 1348;Ivan Nagode - Kmetija Urbanovc;Ravnik Pri Hotedršici 12, 1372 Hotedršica;45.91290175;14.165949304016717
SI 1095;Franc Ozmec;Cvetkovci 46, 2273 Podgorci;46.4153403;16.0743512
SI 917;Hrvatič Franc  S.P.;Mala Pristava 20, 6257 Pivka;45.673315286235955;14.204739184269664
SI 1092;Andreja Milavec S.P.;Planina 41, 6232 Planina;45.8347527;14.257287
SI 768;Domen Puževci D.O.O.;Puževci 43A, 9265 Bodonci;46.70381595;16.080966152643533
SI 895;Lukman Franc;Lačaves 10, 2276 Kog;46.4525495;16.244034017502326
SI 1179;Decarnis D.O.O.;Vipavska Cesta 12, 5000 Nova Gorica;45.9417486;13.639336918726237
SI 224;Eta Kamnik;Kajuhova Pot 4, 1241 Kamnik;46.2200185;14.6066947
SI 1269;Malik Jernej;Gradišče Pri Vipavi 22A, 5271 Vipava;45.8336578;13.967736685512147
SI 982;Klavnica Gliha D.O.O.;Stranska Pot 3, 4208 Šenčur;46.2423105;14.4173774
SI 1193;Rok Rijavec - Nosilec Dopolnilne;Mozelj 2, 1330 Kočevje;45.64422105304136;14.87010648734793
SI 914;Andrej Budin S.P.;Bilje 30C, 5292 Renče;45.891901649999994;13.624486085512354
SI H-1167;Nimrod D.O.O.;Ulica Lavžnik 13, 5290 Šempeter Pri Gorici;45.9220622;13.646594115742342
SI 301;Mesarija Kepic D.O.O.;Krvavška Cesta 14, 4207 Cerklje Na Gorenjskem;46.2546585;14.4875585
SI M-773;Ostan David;Trg Golobarskih Žrtev 54, 5230 Bovec;46.3376314;13.5512307
SI 940;Pršina Aleš;Gregorčeva Ulica 5, 8350 Dolenjske Toplice;45.7587089;15.0609974
SI 1292;Gaberšek Albina;Selski Vrh 19, 3215 Loče;46.314564588636365;15.486820878125
SI 1298;Loške Mesnine D.O.O.;Kidričeva Cesta 63A, 4220 Škofja Loka;46.17346665;14.334213101406608
SI 1089;Klinec Uroš;Medana 19, 5212 Dobrovo V Brdih;45.9961201;13.5275807
SI 78;Koroške Mesnine;Mariborska Cesta 10, 2370 Dravograd;46.5908185;15.0285027
SI 854;Kmetija Stubelj Roman In Mirjam;Spodnja Branica 15, 5295 Branik;45.86003311007371;13.786749805651105
SI H-822;Engrotuš D.O.O.;Cesta V Trnovlje 10A, 3000 Celje;46.2436634;15.2807223
SI 1283;Zlata Dolina D.O.O.;Dobrnež 5B, 3210 Slovenske Konjice;46.3439444;15.4460703
SI 166;Promes D.O.O. Lavrica;Šeparjeva Pot 8, 1291 Škofljica;45.99659135;14.559903370163685
SI 1153;Krhin Urška - Tk Pr Martinovh - Krhin;Gorenje Gradišče Pri Šentj. 7, 8310 Šentjernej;45.83594979084507;15.338145886619717
SI 1377;Zajc Ivan;Starše 25, 2205 Starše;46.4757998;15.7626673
SI 1402;Gorjanc Borut;Orehek 62, 6258 Prestranek;45.751230250000006;14.150550281627709
SI M-1251;Milan Obrul;Koritno 28, 2317 Oplotnica;46.4076232;15.4288233
SI 571;Mesarija Skodič;Ljubljanska Cesta 60, 2327 Rače;46.4522278;15.6676403
SI 1218;Vrabelj Natalija;Mota 20, 9240 Ljutomer;46.5481426;16.224731937870366
SI 516;Mesarstvo Rešet D.O.O.;Huje 9, 4000 Kranj;46.24082025;14.360705102496588
SI M-1209;Boštjan Vreže - Nosilec Dopolnilne;Vodenovo 3, 3240 Šmarje Pri Jelšah;46.2489149;15.4970681
SI 991;Šoštarič Srečko;Slomi 12A, 2257 Polenšak;46.4529983;15.9938118
SI H-797;Btc D.D.;Letališka Cesta 16, 1000 Ljubljana;46.061919;14.5722219
SI 1150;Mesnine Korošak - Marko Korošak;Grlava 7, 9242 Križevci Pri Ljutomeru;46.5621443;16.17087934489183
SI 1058;Kranjske Mesnine D.O.O.;Breznica 1B, 4274 Žirovnica;46.3960376;14.152241339415475
SI H-1197;Frankovič Vida;Dolnja Prekopa 34A, 8311 Kostanjevica Na Krki;45.85427235;15.3801410506454
SI H-1407;Bellaroma D.O.O.;Vrtojbenska Cesta 48, 5290 Šempeter Pri Gorici;45.924419900000004;13.636612370811868
SI H-891;Krnc D.O.O.;Foersterjeva Ulica 10, 8000 Novo Mesto;45.8118892;15.1519076
SI 1177;Takora Proizvodnja In Storitve D.O.O.;Cerkvenjak 11A, 2236 Cerkvenjak;46.5453019;15.9405425
SI 922;Repar Marko;Kamnik Pod Krimom 13, 1352 Preserje;45.9535037;14.4066613
SI 1151;Perc Bojan;Lažiše 31, 3224 Dobje Pri Planini;46.117503850000006;15.377825094627845
SI 901;Jože Koprivnikar S.P.;Golnik 15, 4204 Golnik;46.3310943;14.341369
SI M-148;Pomurske Mlekarne D.D.;Industrijska Ulica 10, 9000 Murska Sobota;46.6620665;16.1743073
SI 966;Katarina Vrečko - Nosilka Dopolnilne;Spodnji Porčič 20, 2230 Lenart V Slov. Goricah;46.59300535;15.850135025598085
SI M-1071;Janez Lapanje - Dopolnilna Dejavnost;Idrijske Krnice 4, 5281 Spodnja Idrija;46.049771750000005;13.946413144808844
SI 1270;Kmetija Jeraj;Dunajska Cesta 369, 1231 Ljubljana - Črnuče;46.1029744;14.531649007843136
SI 519;Mesarstvo Oblak D.O.O.;Industrijska Ulica 17, 4226 Žiri;46.0508725;14.105118049574356
SI 1256;Mij D.O.O.;Pece 11, 1290 Grosuplje;45.93284065;14.830484822848664
SI 1361;Loške Mesnine D.O.O.;Italijanska Ulica 7, 1000 Ljubljana;46.0636456;14.5446727
SI 880;Kaučič Mirko;Gornji Ivanjci 21, 9245 Spodnji Ivanjci;46.604582449999995;15.9700141136125
SI 95;Kodila D.O.O.;Markišavci 44, 9000 Murska Sobota;46.6836375;16.16315805
SI 1363;Paldauf Igor;Vučja Vas 37, 9242 Križevci Pri Ljutomeru;46.5977941;16.102345367469706
SI 448;Grča D.O.O.;Hruševica 6, 6222 Štanjel;45.81337678097826;13.865237859510868
SI M-580;Incom D.O.O.;Tovarniška Cesta 6A, 5270 Ajdovščina;45.8846887;13.898759322544354
SI 636;Ljudmila Bajd - Nosilka Dopolnilne;Senično 42, 4294 Križe;46.3328275;14.3180146
SI M-1327;Urška Kočnar - Nosilka Dopolnilne;Delce 7, 3341 Šmartno Ob Dreti;46.28294096412213;14.88801173053435
SI 1028;Panvita Mir D.D;.Maja 19, 6000 Koper;45.5387625115458;13.731151721946564
SI 1224;Damijan Emeršič S.P.;Vodovodna Ulica 2, 2352 Selnica Ob Dravi;46.55168555;15.492019358896215
SI H-786;Cost In D.O.O.;Industrijska Cesta 5, 5000 Nova Gorica;45.9548366;13.668159943457702
SI M-1103;Katica Prezelj - Dopolnilna Dejavnost;Idrijske Krnice 1, 5281 Spodnja Idrija;46.0479458;13.951179506095794
SI H-803;Mercator D.O.O.;Hladilniška Pot 38, 1000 Ljubljana;46.06254975;14.60544791090944
SI H-997;Kz Metlika;Ulica Kragujevških Žrtev 12, 2000 Maribor;46.54532698864;15.649359419210667
SI H-955;Fama D.O.O. Vipava;Vrhpolje 1D, 5271 Vipava;45.86449495;13.961441820879681
SI 1034;Matej Fajfar - Nosilec Dopolnilne;Čirče 18, 4000 Kranj;46.22797845;14.36579613889478
SI 1332;Gašper Horvat - Nosilec Dopolnilne;Žižki 67, 9232 Črenšovci;46.57154495;16.305143574387067
SI 813;Perutnina Ptuj D.O.O.;Industrijska Ulica 6A, 9000 Murska Sobota;46.6604053;16.174106000000002
SI 100;Mesarstvo Maver D.O.O.;Stična 85A, 1295 Ivančna Gorica;45.9497781;14.7936004
SI 1286;Mesnica Delikatesa Klemen Cimperman;Ulica Borca Petra 1, 1000 Ljubljana;46.033783;14.4513483
SI M-946;Andraž Podpečan - Nosilec Dopolnilne;Galicija 51, 3310 Žalec;46.28393405;15.20380378677153
SI 1248;Branka Banovšek - Nosilka Dopolnilne;Ponikva Pri Žalcu 23, 3310 Žalec;46.2733152;15.185138441645885
SI M-74;Kele & Kele;Laze 22A, 1370 Logatec;45.86196615;14.264739848646993
SI M-333;Mlekarstvo Podjed D.O.O.;Olševek 50, 4205 Preddvor;46.2733134;14.436172
SI 1094;Dragica Munda - Nosilka Dopolnilne;Sodinci 32A, 2274 Velika Nedelja;46.433243950000005;16.074561499999994
SI H-415;Hrib;Večje Brdo 8, 3224 Dobje Pri Planini;46.121700430000004;15.3792829
SI 312;Vodomec D.O.O.;Zalog Pri Cerkljah 103, 4207 Cerklje Na Gorenjskem;46.2304644;14.5181488
SI 1044;Stanka Alegro - Nosilka Dopolnilne;Golobinjek Ob Sotli 10, 3254 Podčetrtek;46.1207526;15.5988042
SI 197;Črevarstvo Majer D.O.O.;Goričica Pri Ihanu 1C, 1230 Domžale;46.1226541;14.627054
SI 1376;K-Norma D.O.O.;Magistrova Ulica 1, 1000 Ljubljana;46.0731429;14.497580297842013
SI 705;Celjske Mesnine D.O.O.;Cesta V Trnovlje 10, 3000 Celje;46.2445443;15.280530559567497
SI H-1033;Al Ponte;Pot K Sejmišču 30, 1231 Ljubljana - Črnuče;46.0993531;14.5360663
SI 462;Rostep D.O.O. Potoče;Potoče 15A, 5263 Dobravlje;45.8884572;13.8213429
SI 1042;Tomaž Faganel S.P.;Prvačina 51A, 5297 Prvačina;45.89080439999999;13.712859503251718
SI 948;Klavnica Tibola;Orehek 47, 6258 Prestranek;45.751230250000006;14.150550281627709
SI 1129;Uroš Skubin - Dopolnilna Dejavnost Na;Drežniške Ravne 21, 5222 Kobarid;46.242906261550154;13.582729348860184
SI M-316;Kgz Z O.O. Škofja Loka;Fužinska Ulica 1, 4220 Škofja Loka;46.1637658;14.3086327
SI H-1161;Izi-Natura;Savska Loka 21, 4000 Kranj;46.2253768;14.3630043
SI 561;Pekarna Pečjak D.O.O.;Prevale 2, 1236 Trzin;46.1221627;14.5485822
SI 1088;Štampar Emil;Cvetkovci 82, 2273 Podgorci;46.4153403;16.0743512
SI 380;Mbt Svet D.O.O.;Testenova Ulica 55, 1234 Mengeš;46.1502468;14.563872199519793
SI 909;Zadravec Vladimir;Žice 23, 2233 Sv. Ana V Slov. Goricah;46.6268419;15.8222558
SI 1169;Franci Levičnik S.P.;Cesta Heroja Vasje 16B, 1251 Moravče;46.12932295;14.747951299999997
SI 1125;Močnik Matej;Podjelše 3, 1241 Kamnik;46.20944044689379;14.603039351970606
SI 1004;Srečko Štupar;Dvor 110, 8361 Dvor;45.7911039;14.9888204
SI 412;Celjske Mesnine D.O.O.;Lava 7F, 3000 Celje;46.2379081;15.251118
SI 1380;Aerton D.O.O.;Ptujska Cesta 6, 2230 Lenart V Slov. Goricah;46.5743612;15.831114730899706
SI 1222;Luznar Adrijana;Lučine 24, 4224 Gorenja Vas;46.06002925;14.201082460416668
SI 792;Anton Meglen S.P.;Kolenča Vas 14, 1313 Struge;45.7845279;14.786346
SI 1216;Damijan Obreht S.P.;Mariborska Ulica 10A, 2314 Zgornja Polskava;46.4179251;15.6017695
SI 1121;Robert Vrh;Mereče 5, 6250 Ilirska Bistrica;45.55999560987031;14.24052401260807
SI M-1064;Motor D.O.O.;Škoflje 8, 6217 Vremski Britof;45.64152385592417;14.05109295592417
SI 111;Mesarstvo Nikl;Betnavska Cesta 122, 2000 Maribor;46.5384252;15.6357725
SI 731;Gozdič;Stare Slemene 42, 3215 Loče;46.31299455;15.408975032820742
SI 424;Nimrod D.O.O.;Trata 35, 4220 Škofja Loka;46.1736592;14.3426153
SI 1263;Marjana Vršnik S.P.;Robanov Kot 34, 3335 Solčava;46.3947012;14.698353930343009
SI 103;Celjske Mesnine D.O.O.;Cesta V Trnovlje 17, 3000 Celje;46.2454017;15.2798166
SI M-1265;Janez Rosc;Strmec 6, 3334 Luče;46.347329008529414;14.735853904705882
SI 1387;Kvalitetna Masa D.O.O.;Dunajska Cesta 50, 1000 Ljubljana;46.0647094;14.5092881
SI M-150;Pomurske Mlekarne D.D.;Kolodvorska Ulica 10, 9240 Ljutomer;46.5277563;16.1932598
SI 1334;Bohl D.O.O.;Kolodvorska Ulica 37B, 2310 Slovenska Bistrica;46.387888950000004;15.582380576050038
SI M-719;Sirarstvo Kramar;Zatolmin 18, 5220 Tolmin;46.1939475;13.727658750791987
SI 1069;Sušek Lidija;Mariborska Cesta 9, 2312 Orehova Vas;46.4786484;15.65354772007484
SI 51;Hočevar Agro Trgovina;Dolnja Težka Voda 7B, 8000 Novo Mesto;45.798230153918496;15.17147420927004
SI 970;Mcl Mesni Center Luka D.O.O.;Cesta Kokrškega Odreda 26, 4294 Križe;46.3393929;14.2958857
SI 1144;Kurež Darinka;Podlehnik 29, 2286 Podlehnik;46.3339922;15.887629
SI H-1002;Kz Metlika;Vodovodna Pot 5A, 5000 Nova Gorica;45.9555753;13.6634304706017
SI 93;Salumis D.O.O.;Veliko Brdo 53A, 6254 Jelšane;45.50688677013889;14.253615343055555
SI 1123;Diego Faganeli - Dopolnilna Dejavnost;Miren 142, 5291 Miren;45.890677749999995;13.60403951874962
SI M-1005;Milan Gabršček - Dopolnilna Dejavnost;Kamno 49, 5220 Tolmin;46.21303675;13.636895587260383
SI 1259;Barbara Kerin - Dopolnilna Dejavnost;Krkavče 130, 6274 Šmarje;45.4544997;13.6880597
SI 1381;Lešnjak Matjaž;Setnik 12, 1355 Polhov Gradec;46.0691351;14.2727935
SI H-1250;Soficom D.O.O.;Zaprta Ulica 3C, 6310 Izola;45.5301582;13.6656854
SI 1395;Pristava Anko;Mala Pristava 1, 6257 Pivka;45.673315286235955;14.204739184269664
SI 780;Zdravko Bahor - Nosilec Dopolnilne;Dragovanja Vas 15, 8343 Dragatuš;45.5426515;15.1535797
SI 1063;Avguštin Jerebič - Nosilec Dopolnilne;Hum Pri Ormožu 21, 2270 Ormož;46.4173418;16.182803919575015
SI M-142;Mlekarna Celeia;Arja Vas 92, 3301 Petrovče;46.2559204;15.1939404
SI 451;Marko Žerak S.P.;Podlehnik 8A, 2286 Podlehnik;46.3339922;15.887629
SI M-978;Biotehniški Center Naklo;Strahinj 99, 4202 Naklo;46.2853712;14.31059
SI 187;Spirala D.O.O.;Bukovci 181, 2281 Markovci;46.3982819;15.953859965896159
SI H-852;Digit;Pod Brezami 7, 1218 Komenda;46.1903877;14.51436655
SI 993;Oset Jurij;Črnoliška Ulica 10, 3230 Šentjur;46.1993078;15.4187139
SI H-1159;Kz Metlika;Alpska Cesta 98, 4248 Lesce;46.36479305;14.14985510208145
SI 1091;Marinblu;Obrtno Industrijska Cona Hrpelje 20, 6240 Kozina;45.59945076622222;13.938592996444445
SI 975;Jože Škorjanec S.P.;Rogaška Cesta 30, 3240 Šmarje Pri Jelšah;46.2314709;15.5269367
SI 498;Milan Barić S.P.;Kidričeva Ulica 30, 3250 Rogaška Slatina;46.22895485;15.637828017709612
SI M-398;Orešnik Dejan S.P.;Šentjošt Nad Horjulom 59A, 1354 Horjul;46.024009291607776;14.280136434805652
SI M-1225;Mitja Krevh;Podgorje 87, 2381 Podgorje Pri Slovenj Gradcu;46.4717048;15.0880569
SI M-494;Sir-Pak D.O.O.;Stična 22, 1295 Ivančna Gorica;45.9497781;14.7936004
SI 188;Tomaž Potočnik S.P.;Zgornja Hajdina 8E, 2288 Hajdina;46.40501405;15.837842331883856
SI 1354;Jagodič Jožef;Podturn 4, 3241 Podplat;46.2562456;15.5708014
SI 1306;Kleindienst Matjaž S.P.;Glavna Cesta 9, 4202 Naklo;46.2715009;14.3125932
SI 1246;Leskožar D.O.O.;Hrenova Ulica 5, 1000 Ljubljana;46.0452861;14.508348756825555
SI 121;Mesnine Štajerske D.O.O.;Spodnji Gaj Pri Pragerskem 9, 2331 Pragersko;46.397377899999995;15.678810186437268
SI 21;Kgz Idrija Z.O.O.;Partizanska Ulica 1, 5280 Idrija;45.9959916;14.0356153
SI 1164;Nabergoj Franc;Podgrič 10, 5272 Podnanos;45.7885816;13.995895917839999
SI 1076;Jgz Brdo;Predoslje 39, 4000 Kranj;46.2663125;14.387929703072762
SI 119;Pršutarna S' Krasa D.O.O.;Lokev 9, 6219 Lokev;45.65281525;13.934701520257665
SI 247;Hudin Franc;Cesta V Hotinje 30, 2204 Miklavž Na Dravskem Polju;46.4667435;15.70964501384179
SI 943;Panvita Mir D.D;Industrijska Ulica 8, 9000 Murska Sobota;46.66091755;16.174325557242227
SI 1025;Noj Tomi;Butajnova 25, 1354 Horjul;46.04317295;14.23544308308993
SI 1170;Janez Žužek;Strmec 4, 1315 Velike Lašče;45.83037860571429;14.629332562142858
SI 999;Domajnko Simon;Kočki Vrh 5A, 9244 Sveti Jurij Ob Ščavnici;46.57449724077381;16.034437796130952
SI 1109;Janžič Lidija;Stanovsko 11A, 2319 Poljčane;46.31038038630137;15.581702511643837
SI 13;Kz Metlika;Majer 22, 8340 Črnomelj;45.570937;15.197700487794148
SI 218;Mesarstvo Kalan;Gasilska Ulica 7, 4000 Kranj;46.2315886;14.343723598430653
SI 193;Mesarstvo Nograšek D.O.O.;Leskovica Pri Šmartnem 1, 1275 Šmartno Pri Litiji;46.0140494;14.8576328
SI 1285;Dejan Moličnik - Nosilec Dopolnilne;Krnica 16, 3334 Luče;46.355469;14.7570355
SI M-495;Val Nature;Zgornji Porčič 115, 2235 Sv. Trojica V Slov. Goricah;46.58047215;15.863927814595794
SI M-1319;Boštjan Roškar - Nosilec Dopolnilne;Kokolajnščak 10, 9244 Sveti Jurij Ob Ščavnici;46.5351253;16.0034526
SI 1330;Rok Cimerman S.P.;Stojnci 84, 2281 Markovci;46.38096205;15.982809116475373
SI M-564;Sirarna Gugala;Zatolmin 63, 5220 Tolmin;46.1939475;13.727658750791987
SI 1208;Mesarstvo Flerin;Dunajska Cesta 372, 1231 Ljubljana - Črnuče;46.1023279;14.53093829182851
SI 1030;Polak D.O.O.;Spodnja Kanomlja 23, 5281 Spodnja Idrija;46.034713100000005;14.01844388816205
SI 956;Miha Okorn S.P.;Rašica 13, 1211 Ljubljana - Šmartno;46.135375249999996;14.511114650000007
SI 1385;Rok Nograšek S.P.;Sobrače 7, 1296 Šentvid Pri Stični;45.9888852;14.8745933
SI M-1365;Davorin Selinšek - Nosilec Dopolnilne;Starše 35, 2205 Starše;46.4757998;15.7626673
SI H-885;Simpex Kranj D.O.O.;Hotemaže 16A, 4205 Preddvor;46.2840081;14.4223375
SI 1140;Schmidt Jožica;Stranice 44, 3206 Stranice;46.3642142;15.3644965
SI 906;Janez Grace;Sv. Vid 85, 2365 Vuhred;46.6043967;15.1847786
SI M-796;Kgz Sava Z.O.O.;Poljče 50, 4275 Begunje Na Gorenjskem;46.3761576;14.182039130276742
SI 10;Hočevar Agro Trgovina;Kambičev Trg 1, 8311 Kostanjevica Na Krki;45.8449209;15.4217779
SI 182;Žunar D.O.O.;Stara Oselica 61A, 4225 Sovodenj;46.0889764;14.0657669
SI 1317;Janez Sodnik - Nosilec Dopolnilne;Hotemaže 34, 4205 Preddvor;46.2840081;14.4223375
SI 20;Postojnske Mesnine;Pot K Pivki 2, 6230 Postojna;45.78327122591672;14.18581238297079
SI 1135;Kolednik Anton;Cirkulane 35E, 2282 Cirkulane;46.34347415;15.997243518341708
SI 1181;Biosing D.O.O.;Gorenjska Cesta 59, 1310 Ribnica;45.7469827;14.7188821
SI M-1262;David Pivk - Nosilec Dopolnilne;Zadlog 9, 5274 Črni Vrh Nad Idrijo;45.9474734;14.02189653277512
SI 23;Loške Mesnine D.O.O.;Savska Cesta 7, 4264 Bohinjska Bistrica;46.2785008;13.9527995
SI 1373;Čede Nejc;Mali Vrh 70A, 3327 Šmartno Ob Paki;46.3356366;15.0388401
SI 1337;Dobrote Z Vasi D.O.O.;Brezje Pri Grosupljem 30, 1290 Grosuplje;45.955003649999995;14.644742150000003
SI 102;Mesarija Kragelj D.O.O.;Sela Pri Volčah 2, 5220 Tolmin;46.1185658;13.740469251468625
SI 1080;Engrotuš D.O.O.;Tržaška Cesta 25, 2000 Maribor;46.5335471;15.6469748
SI 1166;Štuhec Frančišek;Senik 10, 2258 Sv.Tomaž;46.4605202;16.0914706
SI 907;Lužnik Jure;Trbonje 23, 2371 Trbonje;46.600632649999994;15.104824100000002
SI 1279;Prava Aroma D.O.O.;Na Gorci 66, 2000 Maribor;46.5471865;15.703166
SI H-857;Poslovni Sistem Mercator D.O.O.;Cesta Na Okroglo 3, 4202 Naklo;46.265277;14.3164837
SI 1221;Aleš Ravničan S.P.;Cesta Na Roglo 11J, 3214 Zreče;46.3857654;15.3775064
SI 1010;Boštjan Jenko S.P.;Pšata 12, 4207 Cerklje Na Gorenjskem;46.25938094999999;14.509809730338347
SI 1173;Mesarstvo Lah;Glina 8, 1385 Nova Vas;45.77156805;14.491721146733086
SI 1205;Jenko Matjaž;Potok Pri Komendi 3, 1218 Komenda;46.20846005;14.529450321994911
SI 1356;Mojca Jesenek - Nosilka Dopolnilne;Kraberk 15, 3215 Loče;46.2996883;15.4421131
SI 1335;Društvo Rejcev Drobnice Zgornjega;Drežnica 41A, 5222 Kobarid;46.2574741;13.6145949
SI H-1341;Klemen Transport In Logistika;Pod Lipami 1, 1218 Komenda;46.1906978;14.517069168647037
SI 1210;Franc Osovnik - Nosilec Dopolnilne;Radmirje 18, 3333 Ljubno Ob Savinji;46.329425099999995;14.851806613717006
SI 1309;Vias Projekt D.O.O.;Bočna 24, 3342 Gornji Grad;46.28865855;14.853048479019836
SI M-1195;Damijan Četina - Dopolnilna Dejavnost;Spodnje Grušovlje 6, 3311 Šempeter V Savinjski Dolini;46.2663644;15.115916507913667
SI H-1055;Davidov Hram D.O.O. Ljubno;Arja Vas 109, 3301 Petrovče;46.2636488;15.182743348937187
SI H-788;Hmezad Trgovina Žalec D.O.O.;Arja Vas 103, 3301 Petrovče;46.264544400000005;15.184259410414075
SI H-1261;Su-Sad D.O.O.;Vipavska Cesta 2D, 5270 Ajdovščina;45.88571755;13.91030927993295
SI 1272;Mego D.O.O.;Staretov Trg 25, 1275 Šmartno Pri Litiji;46.0450055;14.8408383
SI 208;Kras D.O.O.;Šepulje 31, 6210 Sežana;45.75521055;13.851530937653376
SI 1273;Aljaž Žilnik S.P.;Tabor 45, 3304 Tabor;46.23001805;15.008592295482565
SI H-1308;Davidov Hram D.O.O. Ljubno;Industrijska Cesta 5, 5000 Nova Gorica;45.9548366;13.668159943457702
SI B-01-03-03;Rv - Geneks;Bezina 79B, 3210 Slovenske Konjice;46.35778865;15.427515294978136
SI 941;Mesarija Peršolja D.O.O.;Hlevnik 1A, 5212 Dobrovo V Brdih;46.0230875;13.5130533
SI 927;Pridelovanje Drugih Živil;Podgorica 13, 8290 Sevnica;46.05578;15.291484301108802
SI 1223;Anton Andrinek S.P.;Dobovec Pri Ponikvi 8A, 3232 Ponikva;46.25891269615384;15.470865635897436
SI 876;Goličič Jožef;Reteče 6, 4220 Škofja Loka;46.1587532;14.3704149
SI 7;Kz Laško Z.O.O.;Sevce 16A, 3272 Rimske Toplice;46.1414685;15.196322
SI 1241;Poklič Franci;Legen 96, 2380 Slovenj Gradec;46.5044489;15.105130816272066
SI 1290;Ivan Keber - Nosilec Dopolnilne;Sv. Anton Na Pohorju 24, 2365 Vuhred;46.5772252;15.2220807
SI 8-246;Mlinotest D.D.;Tovarniška Cesta 14, 5270 Ajdovščina;45.88528895;13.903444101226054
SI H-728;Kvibo;Mlaka 2A, 4290 Tržič;46.3514533;14.296120734542765
SI 919;Feliks Peternelj S.P.;Brce 10, 6250 Ilirska Bistrica;45.5727952;14.1969755
SI 1398;Črnko Otilija;Dvorjane 73, 2241 Spodnji Duplek;46.4946516;15.778891250000001
SI 517;Mesarstvo Herga D.O.O.;Mezgovci Ob Pesnici 67A, 2252 Dornava;46.431238;15.9662848
SI H-424;Nimrod D.O.O.;Trata 35, 4220 Škofja Loka;46.1736592;14.3426153
SI 839;Perutnina Ptuj D.O.O.;Zagrebška Cesta 32, 2250 Ptuj;46.4093874;15.8655277
SI M-1212;Andreja Jagodic - Nosilka Dopolnilne;Polica 1, 4202 Naklo;45.7630258;14.449875687718396
SI 1347;Lovrenčec Alenka - Nosilka Dopolnilne;Tešanovci 140, 9226 Moravske Toplice;46.680089249999995;16.27168838892171
SI M-1106;Zavod Za Zdravo Življenje;Jugorje Pri Metliki 8, 8331 Suhor;45.70994815;15.239269554139506
SI 908;Kmetija Bandur - Pridelava Hrane Pavel;Loka 36, 2205 Starše;46.48719705;15.730591665205651
SI 1234;Lesgo Peter Sodnik S.P.;Sela Na Krasu 3, 5296 Kostanjevica Na Krasu;45.82388505;13.61822415
SI 71;Perutnina Ptuj D.O.O.;Zagrebška Cesta 37, 2250 Ptuj;46.38954555;15.869488531860405
SI 1236;Žiga Jenšterle - Dopolnilna Dejavnost;Cesta Na Rifnik 7A, 3230 Šentjur;46.2067154;15.4110568
SI 1113;Ric;Mošnje, 4240;46.334947;14.21082775
SI M-1191;Sašo Reberšak - Nosilec Dopolnilne;Osenca 18, 3000 Celje;46.2156066;15.2908019
SI H-492;Perutnina Ptuj D.O.O.;Letališka Cesta 32A, 1000 Ljubljana;46.06091225;14.571868854321242
SI H-1310;Lidl Slovenija D.O.O. K.D.;Arja Vas 115, 3301 Petrovče;46.2559204;15.1939404
SI H-1372;Futura Cold Store D.O.O.;Miklavška Cesta 73A, 2311 Hoče;46.496685049999996;15.656505000000001
SI 849;Bonmar Global D.O.O.;Bilje 84C, 5292 Renče;45.8926959;13.634237402179554
SI M-1278;Marjan Kranjc - Nosilec Dopolnilne;Kalce 7, 1370 Logatec;45.90282425;14.201429081094734
SI 38;Marjan Žilnik S.P.;Tabor 45, 3304 Tabor;46.23001805;15.008592295482565
SI 1357;Zalaznik Rok;Vrzdenec 80, 1354 Horjul;46.013730249999995;14.27313840065532
SI M-153;Ljubljanske Mlekarne D.O.O.;Osojnikova Ulica 5, 2000 Maribor;46.55268715;15.663548395283975
SI M-722;Mlekuž Igor;Zavrzelno 9, 5230 Bovec;46.3441301;13.54013957912494
SI 1099;Celjske Mesnine D.O.O.;Cesta V Trnovlje 10, 3000 Celje;46.2445443;15.280530559567497
SI 1083;Mesarstvo Tišlr;Podbrezje 32, 4202 Naklo;46.2931586;14.279945910391199
SI M-1255;Dolenc Nejc - Nosilec Dopolnilne;Vrbnje 39, 4240 Radovljica;46.36024465;14.202312508789774
SI 1245;Palta D.O.O.;Livada 16, 1000 Ljubljana;46.037154900000004;14.510819687571761
SI 928;Gabriela Kodrič S.P.;Križišče 9, 8296 Krmelj;45.9975138;15.2006954
SI 221;Čadež D.O.O.;Visoko 7G, 4212 Visoko;46.2690292;14.4260075
SI 898;Perutnina Ptuj D.O.O.;Sela 41, 2288 Hajdina;46.380412899999996;15.8368966
SI 1143;Andrej Lokar S.P.;Debenec 61, 8233 Mirna;45.9273963;15.098702551403164
SI 1386;Monera;Strelac 8, 8220 Šmarješke Toplice;45.8765946;15.2615306
SI H-973;Kz Metlika;Markišavska Ulica 1, 9000 Murska Sobota;46.667127199999996;16.175803423870263
SI M-523;Boris Kunšič - Nosilec Dopolnilne;Cesta Borisa Kidriča 26, 4270 Jesenice;46.42728135;14.083162358037502
SI 83;Mesarstvo Podobnik D.O.O.;Čeplez 12, 5282 Cerkno;46.12376485;14.008248810213422
SI 979;Denis Cunja;Kortine 18, 6275 Črni Kal;45.534684484858566;13.89026239750416
SI 1075;Mesarstvo Peršak;Otiški Vrh 21A, 2373 Šentjanž Pri Dravogradu;46.5694094;15.04394
SI 1041;Košaki Tmi D.O.O.;Oreško Nabrežje 1A, 2000 Maribor;46.556776;15.65588805
SI 952;Janez Brolih - Nosilec Dopolnilne;Hotemaže 31, 4205 Preddvor;46.2840081;14.4223375
SI 1403;Bio Pak;Savska Loka 21A, 4000 Kranj;46.2258011;14.363697484624286
SI 1204;Pesek Alenka;Zlatoličje 57, 2205 Starše;46.4564853;15.790338837585036
SI 354;Košaki Tmi D.O.O.;Šentiljska Cesta 35, 2000 Maribor;46.5700583;15.6574175
SI 873;Mercator Ip;Cesta Na Okroglo 3, 4202 Naklo;46.265277;14.3164837
SI H-1397;Pomurske Mlekarne D.D.;Cesta Maršala Tita 18A, 4270 Jesenice;46.436631500000004;14.056278786390735
SI H-1015;Kz Metlika;Drgančevje 12, 8000 Novo Mesto;45.8021268;15.1854623
SI M-720;Agrarna Skupnost Čadrg;Čadrg 9, 5220 Tolmin;46.2230859;13.733817649999999
SI 364;Marko Hrovat S.P.;Dobriša Vas 41A, 3310 Žalec;46.2435902;15.1808144
SI B 09 03 02;Sasip D.O.O.;Razlagova Ulica 12, 9240 Ljutomer;46.5190686;16.192078699841403
SI M-1375;Grega Šeruga S.P.;Domanjševci 139, 9206 Križevci;46.7823897;16.2988559
SI 883;Ramuta;Bučečovci 32, 9242 Križevci Pri Ljutomeru;46.5875828;16.10460648192057
SI 964;Andreja Jagodic - Nosilka Dopolnilne;Polica 1, 4202 Naklo;45.7630258;14.449875687718396
SI 1190;Erhatič Blaž;Osluševci 41, 2273 Podgorci;46.4095186;16.051082335
SI 989;Osem;Panonska Ulica 11, 9000 Murska Sobota;46.658076449999996;16.186890512612706
SI H-1082;Darmes D.O.O.;Brnčičeva Ulica 7C, 1231 Ljubljana - Črnuče;46.0985747;14.5414398
SI 1141;Mes-Kon D.O.O.;Medvedica 5, 1290 Grosuplje;45.9174545;14.60631765
SI H-1400;Digit;Pod Hrasti 6, 1218 Komenda;46.1852735;14.5318209
SI 915;Janja Jarc - Nosilka Dopolnilne;Podvasca 16, 4290 Tržič;46.34516715;14.301204391603578
SI 1284;Coolab 5 D.O.O.;Peske 2, 1236 Trzin;46.121392900000004;14.546460283228278
SI M-416;Sirarna Čuš;Orehova Cesta 40, 2312 Orehova Vas;46.4718185;15.666891464125534
SI 1194;Rangus Mlinarstvo In Trgovina;Dolenje Vrhpolje 15, 8310 Šentjernej;45.83594979084507;15.338145886619717
SI 179;Perutnina Ptuj D.O.O.;Hladilniška Pot 37, 1000 Ljubljana;46.0625898;14.6086855
SI 1323;Pivk Anton;Rovtarske Žibrše 27, 1373 Rovte;45.98413683495146;14.174159785991678
SI 183;Mesarija Snedic David Snedic S.P.;Orehovlje 1A, 4000 Kranj;46.23892295485009;14.358201971657849
SI 353;Lečnik;Trg Svobode 4, 2390 Ravne Na Koroškem;46.545024100000006;14.966497573966942
SI H-972;Kz Metlika;Industrijska Cesta 10, 6310 Izola;45.535061299999995;13.668540249999992
SI H-851;Bel-Trade;Šujica 11, 1356 Dobrova;46.06277195;14.412178934406334
SI H-117;Tomex;Vilharjeva Cesta 21, 6250 Ilirska Bistrica;45.5756352;14.2317272
SI 949;Humek D.O.O.;Laze 21, 8323 Uršna Sela;45.7023843;15.1354265
SI M-60;Kmetija-Sirarna Bogataj;Poljanska Cesta 18, 4224 Gorenja Vas;46.107747;14.148615
SI 1383;Muršec Petra;Jurovska Cesta 33, 2230 Lenart V Slov. Goricah;46.5882669;15.8173256
SI 747;Atlantic Droga Kolinska D.O.O.;Industrijska Cesta 21, 6310 Izola;45.5332241;13.667687883388492
SI 1162;Kmetija Gnidica;Lončarjev Dol 40, 8290 Sevnica;46.016671249227116;15.304143488109395
SI 1201;Osterc Janko;Gradiščak 3, 2256 Juršinci;46.48639815;15.95114726469237
SI H-1293;Krapše;Tržaška Cesta 23, 2000 Maribor;46.5355949;15.6487772
SI H-848;Hofer Trgovina D.O.O.;Kranjska Cesta 1, 1225 Lukovica;46.1667284;14.653836966805283
SI 126;Pivka D.D.;Panovška Cesta 1, 5000 Nova Gorica;45.95627665;13.678922561293954
SI H-833;Kutter D.O.O.;Obrtno Industrijska Cona Hrpelje 2B, 6240 Kozina;45.59945076622222;13.938592996444445
SI H-1023;Monsun;Gorenjesavska Cesta 5, 4000 Kranj;46.2431856;14.3481273
SI 1114;Klavnica In Mesarstvo;Viševek 45A, 1386 Stari Trg Pri Ložu;45.68627133026706;14.505194654599407
SI M-990;Mercator-Emba;Tržaška Cesta 2C, 1370 Logatec;45.9396524;14.237048099999999
SI H-1238;Frangros;Škofja Vas 39, 3211 Škofja Vas;46.2677755;15.2858682
SI 711;Panvita;Ljutomerska Cesta 28A, 9250 Gornja Radgona;46.6658953;16.001421600202193
SI H-775;Unimar D.O.O.;Cesta Borcev 34, 6000 Koper;45.5440792;13.7660676
SI 905;Strmšnik D.O.O.;Mariborska Cesta 1, 2352 Selnica Ob Dravi;46.5498615;15.4887406
SI 1295;Loške Mesnine D.O.O.;Vodnikova Cesta 33, 4264 Bohinjska Bistrica;46.2724633;13.9511797
SI 437;Mesarija Kokol;Dolane 9, 2282 Cirkulane;46.37020135;15.996196001668462
SI 1345;Digit;Ob Železnici 16, 1000 Ljubljana;46.0594034;14.5366681
SI 802;Erazem Stanonik S.P.;Log Nad Škofjo Loko 9, 4220 Škofja Loka;46.1292647;14.229189774366542
SI 934;Lokošek Jure;Strahovlje 21, 1412 Kisovec;46.1411593;14.9446548
SI M-579;Ul Vf;Gabrče 30, 6224 Senožeče;45.724656037931034;14.031485436363637
SI 838;Kmetijska Zadruga Tolmin Z.O.O. Tolmin;Vojkova Ulica 2, 5220 Tolmin;46.1836599;13.7387793
SI 815;Fonda.Si D.O.O. Fonda.Si S.R.L.;Liminjanska Cesta 117, 6320 Portorož;45.50740435;13.617796049999999
SI 816;Meso Kamnik D.D.;Korenova Cesta 9, 1241 Kamnik;46.2000663;14.583816
SI 1199;Martin Markun S.P.;Dvorski Trg 4, 4205 Preddvor;46.302202;14.4220578
SI M-790;Dopolnilna Dejavnost Na Kmetiji -;Zajasovnik - Del 14, 3305 Vransko;46.24571561025641;14.957963517094017
SI 1111;Starfud D.O.O.;Bratuževa Ulica 13A, 5290 Šempeter Pri Gorici;45.92505855;13.633394451174034
SI 1105;Klavnica Bitnja;Dolnja Bitnja 16A, 6255 Prem;45.6051105563981;14.165746992417061
SI 980;Kovorske Mesnine D.O.O.;Kovorska Cesta 37, 4290 Tržič;46.352034950000004;14.29027056782199
SI 1009;Kz Tolmin Z.O.O. Tolmin;Lavričeva Ulica 8, 5220 Tolmin;46.1830444;13.737873
SI 983;Lidija Potočnik - Dopolnilna Dejavnost;Gabrovlje 14, 3214 Zreče;46.40476674610527;15.374549859157897
SI H-611;Celjske Mesnine D.O.O.;Cesta V Trnovlje 10, 3000 Celje;46.2445443;15.280530559567497
SI 1050;Marina Uršnik - Nosilka Dopolnilne;Sv. Danijel 27, 2371 Trbonje;46.5972447;15.1063235
SI 1339;Jožica Knez - Nosilka Dopolnilne;Lažiše 28, 3224 Dobje Pri Planini;46.118869700000005;15.375636433975657
SI M-1035;Janez Škrjanec;Čužnja Vas 1, 8231 Trebelno;45.89918105555556;15.151074786666667
SI 827;Tanja Nataša Koplan - Nosilka;Cesta Andreja Bitenca 144, 1000 Ljubljana;46.08243475;14.447471591449307
SI 1198;Križnik;Gaberke 252, 3325 Šoštanj;46.393095;15.0779323
SI 1243;Barbara Jurič - Nosilka Dopolnilne;Loka Pri Framu 29, 2313 Fram;46.4481634;15.5995937
SI H-1312;Davidov Hram D.O.O. Ljubno;Sv. Duh 35, 2370 Dravograd;46.617671;15.0481492
SI 872;Garbari Milan;Vitovlje 68, 5261 Šempas;45.9257909;13.756416
SI 899;Damjan Vogrinec S.P.;Hlaponci 30, 2256 Juršinci;46.4699707;15.9822039
SI M-1360;Ekološka Sirarna Kocjančič D.O.O.;Gotenica 2, 1338 Kočevska Reka;45.547157878571426;14.790563935714287
SI M-1098;Saga-M D.O.O.;Prihova 46, 3331 Nazarje;46.32227375;14.948386478896104
SI 1325;A - Market Aleksandra Kocijančič D.O.O.;Neblo 2, 5212 Dobrovo V Brdih;46.0053088;13.50187
SI 855;Zakol In Predelava Mesa Marko Rutnik S.P.;Gorenje Pri Zrečah 6, 3214 Zreče;46.4004764;15.389014600000003
SI 1061;Orijana Trček - Nosilec Dopolnilne;Hrastovlje 11A, 6275 Črni Kal;45.5098842;13.9003091
SI H-1307;Davidov Hram D.O.O. Ljubno;Loke 37, 3333 Ljubno Ob Savinji;46.338934949999995;14.843020294400041
SI 370;Ribogojstvo Goričar D.O.O.;Slivje 2, 8312 Podbočje;45.5837445;14.0608707
SI 130;Mesarstvo Blatnik D.O.O.;Selska Ulica 46, 1291 Škofljica;46.0020665;14.572527699820332
SI 916;Šolar Franci;Spodnja Dobrava 1A, 4245 Kropa;46.306832299999996;14.217118498798655
SI M-145;Irena Žužek - Nosilka Dopolnilne;Slovenska Vas 5A, 6257 Pivka;45.7017797;14.2124197
SI 223;Pivka  Perutninarstvo D.D.;Kal 1, 6257 Pivka;46.3463563;13.56691704216028
SI 17;Kz Laško Z.O.O.;Globoko 5, 3272 Rimske Toplice;45.97668755;15.628399375120807
SI 1213;Dravamont Gostinstvo D.O.O.;Mali Obrež 6, 8257 Dobova;45.902694841052636;15.656628578947368
SI M-421;Branka Štemberger - Nosilka;Vrbica 32, 6250 Ilirska Bistrica;45.55999560987031;14.24052401260807
SI H-1320;Alf Commerce D.O.O.;Kolodvorska Ulica 37F, 2310 Slovenska Bistrica;46.38951675;15.585902970303328
SI 1260;Panvita Mir D.D;Poljska Ulica 2, 2000 Maribor;46.5363554;15.6583786
SI 1132;Faronika D.O.O.;Dijaška Ulica, 5220;46.1809711;13.7344453
SI 1040;Kz Tolmin Z.O.O. Tolmin;Rutarjeva Ulica 35, 5220 Tolmin;46.1839874;13.736953
SI 513;Mlinarič;Železniška Ulica 1, 4248 Lesce;46.3605544;14.1591517
SI 1046;Kmetija Špeh;Krnica 11, 3334 Luče;46.355469;14.7570355
SI 1101;Halal Guda Doner Kebap Proizvodnja;Golniška Cesta 102, 4000 Kranj;46.23892295485009;14.358201971657849
SI 1029;Janko Sirc S.P.;Podgorci 24, 2273 Podgorci;46.427564399999994;16.057965054391673
SI 5;Jožef Dobravc - Nosilec Dopolnilne;Zgornje Roje 22, 3311 Šempeter V Savinjski Dolini;46.2475223;15.1312152
SI 371;Mesarstvo Kaluža D.O.O.;Petelinje 68, 6257 Pivka;45.6879013;14.197087
SI 831;Engrotuš D.O.O.;Kidričeva Ulica 30, 3000 Celje;46.2353009;15.2751211
SI 1056;Bunc Anja;Kumen 16B, 2344 Lovrenc Na Pohorju;46.5179676;15.3677621
SI 971;Colja Slavko;Bilje 28, 5292 Renče;45.8942534;13.627218637861464
SI 794;Redek Jaka S.P.;Krka 21, 8000 Novo Mesto;45.8202768;15.1898856
SI M-791;Ivan Konda;Dol 6, 8342 Stari Trg Ob Kolpi;45.4952641;15.0518677
SI H-1149;Jagros;Mestinje 6, 3241 Podplat;46.23346295;15.56267407980109
SI 1148;Gosak Bojan;Žiče 27B, 3215 Loče;46.3141312;15.4716834
SI M-1291;Miloš Majcen - Nosilec Dopolnilne;Šentjanž 64, 8297 Šentjanž;46.0143414;15.1647548
SI 1115;Mesarstvo Godec Jurij S.P.;Zgornja Jevnica 9, 1281 Kresnice;46.0844704;14.74043655475899
SI H-1304;Davidov Hram D.O.O. Ljubno;Savska Loka 21C, 4000 Kranj;46.2253841;14.36299845
SI 559;Marjan Bradač S.P.;Ljubljanska Cesta 45, 1330 Kočevje;45.6489097;14.8539505
SI M-1206;Janez Krklec - Nosilec Dopolnilne;Prnek 9, 3250 Rogaška Slatina;46.2277256;15.6352827
SI 889;Rostohar Erika;Brege 1, 8273 Leskovec Pri Krškem;45.9207303;15.499976567027263
SI H-938;Togres D.O.O. Šempeter Pri Gorici;Bratuževa Ulica 13A, 5290 Šempeter Pri Gorici;45.92505855;13.633394451174034
SI 219;Kern Tomo;Tenetiše 39, 4204 Golnik;46.2981307;14.3499669
SI M-449;Žerjal Matjaž - Kmetija Žerjal;Pristaniška Ulica 1, 6000 Koper;45.5446897;13.7297559
SI 1318;Uroš Macerl - Nosilec Dopolnilne;Ravenska Vas 38, 1410 Zagorje Ob Savi;46.1247401;15.0064961
SI 1059;Miha Cigoj - Dopolnilna Dejavnost;Črniče 91, 5262 Črniče;45.9089289;13.777820245038267
SI B-09-03-01;Usnjarstvo Fišer D.O.O.;Šafarsko 25, 9246 Razkrižje;46.52142365;16.28654480316535
SI M-761;Peter Gorišek;Križni Vrh 2, 8230 Mokronog;45.94416172238806;15.122852264179105
SI 902;Oman Janez;Zminec 12, 4220 Škofja Loka;46.14745455;14.28394635
SI H-969;Intereuropa D.D.;Kidričeva Ulica 38, 3000 Celje;46.2353009;15.2751211
SI 538;Perutninarstvo;Čiginj 8, 5220 Tolmin;46.1305028;13.718790123071201
SI 1066;Janja Jenko Ovsenik - Nosilka;Jezerska Cesta 92, 4000 Kranj;46.25202;14.376637167164434
SI 1084;Brinj;Kobjeglava 60, 6222 Štanjel;45.816571;13.8086493
SI 936;Neža D.O.O. Kočevje;Cvišlerji 42, 1330 Kočevje;45.63748225;14.903129390098751
SI H-1404;Davidov Hram D.O.O. Ljubno;Leskoškova Cesta 9, 1000 Ljubljana;46.063988249999994;14.558933855463875
SI 713;Perutnina Ptuj D.O.O.;Na Postajo 8, 2250 Ptuj;46.40137465;15.860520312882613
SI 1393;Rok Terčič - Nosilec Dopolnilne;Jazbina 6, 3240 Šmarje Pri Jelšah;46.23193739046941;15.521117791465148
SI 88;Stevan Babič D.O.O.;V Zavoju 32C, 2000 Maribor;46.5749331;15.6666935
SI 76;Boštjan Čas S.P.;Savinjska Cesta 77, 3310 Žalec;46.26567195;15.081374276265976
SI H-930;Cjs D.O.O.;Vir Pri Stični 1, 1295 Ivančna Gorica;45.9483859;14.817448
SI 1119;Aljaž Peca;Dolnje Ležeče 48, 6215 Divača;45.6794537;13.9812499
SI 1134;Pribožič Mihael S.P.;Dečno Selo 25, 8253 Artiče;45.95217031093117;15.570239896356275
SI M-1247;Katja Sinkovič - Nosilka Dopolnilne;Vrenska Gorca 4, 3255 Buče;46.086634960000005;15.60173212
SI 1060;Andrej Kosovel - Dopolnilna;Črniče 46, 5262 Črniče;45.9086997;13.776551355141944
SI 1043;Levičnik D.O.O.;Dolsko 18C, 1262 Dol Pri Ljubljani;46.094849;14.6762291
SI 1090;Hot - Horse D.O.O.;Škrjančevo 20A, 1235 Radomlje;46.1651337;14.6065499
SI 779;Ic Piramida Maribor;Park Mladih 3, 2000 Maribor;46.54532698864;15.649359419210667
SI 974;Zaverl Janez;Medno 9, 1210 Ljubljana - Šentvid;46.1230952;14.43595709469251
SI H-724;Barakuda Commerce;Pod Hruševco 46B, 1360 Vrhnika;45.9748523;14.2935867
SI 862;Wax D.O.O.;Gumberk 17, 8222 Otočec;45.8282027;15.2302651
SI 903;Jata Emona D.O.O.;Korenova Cesta 2, 1241 Kamnik;46.2000663;14.583816
SI M-850;Gpz Z.O.O.;Brezje Pri Dobu 2, 1233 Dob;46.14699125;14.665789209880973
SI H-865;Zigante Tartufi D.O.O.;Vanganelska Cesta 8, 6000 Koper;45.5298128;13.7385348
SI 42;Mim Mesarstvo D.O.O.;Stari Trg 23, 8230 Mokronog;45.9434934;15.1453408
SI 912;Žigart Bunc Dragica;Kumen 16, 2344 Lovrenc Na Pohorju;46.5179676;15.3677621
SI H-1299;Foodium D.O.O.;Ulica Mirka Vadnova 19, 4000 Kranj;46.24715345;14.3742215
SI 413;Hapy Day;Ivanji Grad 1A, 6223 Komen;45.8185116;13.7117807
SI M-1227;Bojan Petek;Tirosek 37, 3342 Gornji Grad;46.26980865;14.734215155667323
SI H-1235;Rams D.O.O.;Tržaška Cesta 31, 2000 Maribor;46.5397026;15.6474448
SI H-1406;Bel-Trade;Vrbje 80A, 3310 Žalec;46.2408789;15.155072
SI 888;Zupan & Zupan D.O.O.;Nomenj 5, 4264 Bohinjska Bistrica;46.2924957;14.0061047
SI 58;Štajnbirt;Kidričeva Cesta 22A, 4220 Škofja Loka;46.16830045;14.320039050043508
SI 1388;Lipovec Andrej;Jezero 70, 1352 Preserje;45.9729659;14.4220499
SI 1336;Smolnikar David;Gorica 8, 1251 Moravče;46.13619125;14.7238614
SI 965;Peter Čelofiga;Spodnje Jablane 41, 2326 Cirkovce;46.3924621;15.716271
SI 1353;Martin Boček S.P.;Nadgrad 7, 2317 Oplotnica;46.4171597;15.4517309
SI 1297;Mitja Žgajner - Nosilec Dopolnilne;Zgornja Voličina 69, 2232 Voličina;46.551887699999995;15.798189299999995
SI H-772;Luka Koper;Vojkovo Nabrežje 38, 6000 Koper;45.55475865;13.744099099999996
SI H-1231;Automatic Servis D.O.O.;Limbuška Cesta 2, 2341 Limbuš;46.56026525;15.592095296668507
SI 8;Kz Sevnica Z.O.O.;Cesta Na Grad 14, 8290 Sevnica;46.0099625;15.313127859335577
SI 844;Ribogojnica Libo D.O.O.;Gorenja Trebuša 113A, 5283 Slap Ob Idrijci;46.0697456;13.8212791
SI 886;Meja Šentjur;Voglajna 8, 3263 Gorica Pri Slivnici;46.19395191666667;15.429915616666666
SI 1276;Mandika D.O.O.;Košnica Pri Celju 48, 3000 Celje;46.2099276;15.2180425
SI M-1344;Anton Štrucelj - Nosilec Dopolnilne;Griblje 6, 8332 Gradac;45.5713195;15.2901361
SI M-1215;Anton Kukenberger - Kmetija;Gorenje Ponikve 20, 8210 Trebnje;45.8967775;15.04121312227955
SI 399;Peloz D.O.O.;Loke 1A, 5000 Nova Gorica;45.95130785;13.702134053402688
SI 781;Mesarstvo Butala;Petrova Vas 18A, 8340 Črnomelj;45.5721256487984;15.188537654606142
SI M-521;Sonja Videc - Nosilka Dopolnilne;Vodruž 34, 3230 Šentjur;46.1863031;15.3883415
SI H-1254;Mercator D.O.O.;Rogozniška Cesta 8, 2250 Ptuj;46.4222614;15.8816295
SI H-894;Valemar;Sečovlje 27, 6333 Sečovlje;45.4670545;13.6835101
SI 962;Zupan Janez;Grogova Ulica 15, 4202 Naklo;46.27420615;14.319112680289217
SI M-1024;Kmetijska Zadruga Cerklje;Slovenska Cesta 2, 4207 Cerklje Na Gorenjskem;46.25199265;14.486281749144833
SI H-569;Kodila D.O.O.;Markišavci 36B, 9000 Murska Sobota;46.6804387;16.163581802353328
SI H-798;Sb Gro D.O.O.;Cesta Ljubljanske Brigade 9A, 1000 Ljubljana;46.08180945;14.48284759464022
SI 939;Kz Metlika;Savlje 89, 1000 Ljubljana;46.0953545;14.499700223463009
SI 48;Mihael Mevlja S.P.;Lokev 190C, 6219 Lokev;45.661077;13.9310658
SI M-1217;Čadej Karl - Dopolnilna Dejavnost Na;Završe Pri Dobjem 2, 3224 Dobje Pri Planini;46.121700430000004;15.3792829
SI 1182;Repnik Božidar;Zalog Pri Cerkljah 5, 4207 Cerklje Na Gorenjskem;46.2304644;14.5181488
SI 1391;Vizinaris D.O.O.;Dogoška Cesta 19, 2000 Maribor;46.5286394;15.677429506553189
SI H-1187;Kz Šaleška Dolina;Metleče 7, 3325 Šoštanj;46.3844706;15.034031
SI 77;Medex D.O.O.;Linhartova Cesta 49A, 1000 Ljubljana;46.067530950000005;14.523203135958438
SI 272;Ribogojnica Berlek D.O.O.;Pobrežje 103C, 2284 Videm Pri Ptuju;46.3777205;15.8709955
SI 1374;Dragica Peruš;Pernice 4A, 2366 Muta;46.641758;15.1298088
SI 882;Marko Prunk S.P.;Lokev 166B, 6219 Lokev;45.6606459;13.9323568
SI 1378;Markuš Brigita;Žice 55, 2223 Jurovski Dol;46.617383;15.8165744
SI 1371;Pemat;Ošelj 1A, 2315 Šmartno Na Pohorju;46.446728;15.5128233
SI 789;Mercator Ip;Nova Ulica 2A, 6000 Koper;45.541105599999995;13.717799295526381
SI M-152;Ekolat D.O.O.;Goriška Cesta 11, 5271 Vipava;45.84089555;13.956947573417919
SI H-1305;Rumi Storitve D.O.O.;Vrhniška Cesta 25, 1351 Brezovica Pri Ljubljani;46.0168903;14.385888176762682
SI M-155;Ljubljanske Mlekarne D.O.O.;Tolstojeva Ulica 63, 1000 Ljubljana;46.0776602;14.504781934153385
SI 1102;Hočevar D.O.O.;Savinškova Ulica 2, 8000 Novo Mesto;45.798230153918496;15.17147420927004
SI 165;Delamaris D.O.O.;Kal 1, 6257 Pivka;46.3463563;13.56691704216028
SI M-163;Mlekarna Planika D.O.O. Kobarid;Gregorčičeva Ulica 32, 5222 Kobarid;46.2454912;13.5854168
SI 1081;Pavel Fornazarič - Nosilec Dopolnilne;Vogrsko 74, 5293 Volčja Draga;45.9111334;13.714944844222064
SI H-1219;Šinkec D.O.O.;Mlajtinci 39, 9226 Moravske Toplice;46.67323475;16.23097007742774
SI 845;"""Condimentum"" Lucija Mohorčič S.P.";Cesta Na Lenivec 55, 6210 Sežana;45.7062015;13.8633429
SI 505;Marija Brozina S.P.;Vojkov Drevored 14, 6250 Ilirska Bistrica;45.5677142;14.239329
SI H-1230;Automatic Servis D.O.O.;Vrečerjeva Ulica 8, 3310 Žalec;46.2507385;15.1691283
SI 1249;Casum Podjetje Za Trgovino In;Cesta Bratstva In Enotnosti 20, 8330 Metlika;45.6530288;15.313921874928685
SI 1314;Marko Vršič S.P.;Slavšina 21, 2255 Vitomarci;46.5367567;15.9889325
SI 1189;Jože Colarič S.P.;Dobrava Pri Kostanjevici 9, 8311 Kostanjevica Na Krki;45.84873736986302;15.397157495890411
SI 825;Trbovc Trgovina Na Debelo In Drobno D.O.O.;Cesta Na Grad 15, 8290 Sevnica;46.009317749999994;15.312381899999998
SI 840;Perutnina Ptuj D.O.O.;Novi Trg 2, 2250 Ptuj;46.4202918;15.872989
SI 141;Kmetija Čas;Rošpoh - Del 147, 2211 Pesnica Pri Mariboru;46.60807775;15.648545893719213
SI 923;Kveder Janez;Pod Hribom 49, 1225 Lukovica;46.1829536;14.6202378
SI 49;Marmeat;Jereslavec 13, 8258 Kapele;45.9614415;15.6861907
SI 875;Vilko Globočnik - Nosilec Dopolnilne;Letališka Ulica 14, 4208 Šenčur;46.2149864;14.4386741
SI 950;Panvita Mir D.D;Lackova Ulica 22, 9250 Gornja Radgona;46.6822393;15.9907264
SI 1127;Agrotur;Ljubno 107, 4244 Podnart;46.313623050000004;14.248889899999998
SI M-1329;Lipa - Invest;Dolenci 118, 9204 Šalovci;46.86211675;16.287895119034275
SI 1070;Peter Korpar - Nosilec Dopolnilne;Osluševci 30, 2273 Podgorci;46.4094252;16.0479887
SI 3;Kmetijska Zadruga Rače Z.O.O.;Glaserjeva Ulica 11, 2327 Rače;46.4513195;15.6722819
SI M-601;Kmetija Pr' Petelin;Gorenje Brdo 1, 4223 Poljane Nad Škofjo Loko;46.13611107644493;14.177911837840787
SI 6;Farme Ihan - Mpr D.O.O.;Cesta Leona Dobrotinška 15, 3230 Šentjur;46.208890999999994;15.393768415544415
SI 82;Panvita Agromerkur D.O.O.;Industrijska Ulica 8, 9000 Murska Sobota;46.66091755;16.174325557242227
SI 1282;Aleš Brulc - Nosilec Dopolnilne;Moverna Vas 8, 8333 Semič;45.6333806;15.2201627
SI 28;Mesarstvo Podzemelj D.O.O.;Podzemelj 7, 8332 Gradac;45.6087895;15.2731365
SI 306;Loške Mesnine D.O.O.;Britof 29B, 4000 Kranj;46.2593083;14.3864062
SI 929;Kafol Gregor;Trstenik 15A, 8233 Mirna;45.964671423857865;15.056833466497462
SI 931;Gurman Delikatese D.O.O.;Dolenjska Cesta 158, 1000 Ljubljana;46.0317851;14.5294544
SI H-1253;Inplan D.O.O.;Rogozniška Cesta 7, 2250 Ptuj;46.4210812;15.8788415
SI 1178;Fabjan Interieri D.O.O.;Lehen Na Pohorju 7, 2363 Podvelka;46.547899;15.3156023
SI 893;Kmetija Maln;Podreča 4, 4211 Mavčiče;46.1729853;14.4110649
SI 80;Iztok Likozar S.P.;Trg Davorina Jenka 6, 4207 Cerklje Na Gorenjskem;46.2527335;14.4865624
SI M-799;Jelinčič Boštjan;Soča 50, 5232 Soča;46.3425457;13.668244
SI M-1077;Mz Ptuj Z.O.O. Zbirni Center Za Mleko;Ormoška Cesta 29, 2250 Ptuj;46.4171193;15.883249
SI H-1302;Hermine Wech-Koroška Perutnina;Ozare 23A, 2380 Slovenj Gradec;46.51265715;15.073994027716093
SI 1342;Mojca Šonc - Nosilka Dopolnilne;Nadanje Selo 50, 6257 Pivka;45.673315286235955;14.204739184269664
SI 37;Ul Bf;Groblje 3, 1230 Domžale;46.149377;14.58982427025701
SI 1333;Tadej Špegelj S.P.;Male Braslovče 2A, 3314 Braslovče;46.2882535;15.0401933
SI 935;Švalj Rok;Dolenja Brezovica 5, 8310 Šentjernej;45.8320086;15.3411465
SI H-572;Sabod D.O.O.;Dobrave 4, 1236 Trzin;46.1205289;14.5480188
SI 959;Jata Emona D.O.O.;Gornja Košana 65, 6256 Košana;45.665779;14.1131745
SI 900;Danijel Novak;Skorba 56B, 2288 Hajdina;46.418247949999994;15.833590188373556
SI 830;Klavnica In Domače Mesnine Soud;Zagorica Pri Rovah 7, 1235 Radomlje;46.18103585;14.6557696181033
SI 1390;Mlinotest D.D.;Kidričeva Cesta 53, 4220 Škofja Loka;46.1690931;14.3211334
SI M-1001;Hecl Peter;Orehova Cesta 44, 2312 Orehova Vas;46.471560499999995;15.667156804455452
SI 16;Kz Velike Lašče Z.O.O.;Šolska Ulica 3, 1315 Velike Lašče;45.8329192;14.635557450267825
SI M-522;Bohinjska Sirarna D.O.O.;Srednja Vas V Bohinju 114, 4267 Srednja Vas V Bohinju;46.29542917010309;13.933136877319587
